{"type":"FeatureCollection","municipio":{"slug":"alcala-de-los-gazules","name":"Alcalá de los Gazules","total":31,"places":141,"source_updated_at":"2026-10-05"},"features":[{"type":"Feature","geometry":{"type":"Point","coordinates":[-5.726659,36.46218]},"properties":{"id":"VUT/CA/026766","type":"VUT","group":"Completa","address":"CALLE MANCEBIA Nº 17","postal_code":"11180","places":2,"units":1,"registered":"2026-06-29","catastro":"5788603TF5358N0004HA","holder":"JUAN EL PELUSA SL","holder_count":1}},{"type":"Feature","geometry":{"type":"Point","coordinates":[-5.721456,36.461831]},"properties":{"id":"VUT/CA/027046","type":"VUT","group":"Completa","address":"CALLE JOSE TIZON Nº 4","postal_code":"11180","places":4,"units":1,"registered":"2026-09-15","catastro":"6288032TF5368N0001GS","holder":null,"holder_count":null}},{"type":"Feature","geometry":{"type":"Point","coordinates":[-5.720839,36.462014]},"properties":{"id":"VUT/CA/12521","type":"VUT","group":"Completa","address":"CALLE LOS POZOS Nº 8 Plta/Piso 1º Pta/Letra IZQUIERDA, piso 1º, puerta IZQUIERDA","postal_code":"11180","places":6,"units":2,"registered":"2021-07-29","catastro":"6288015TF5368N0003PF","holder":null,"holder_count":null}},{"type":"Feature","geometry":{"type":"Point","coordinates":[-5.726859,36.460373]},"properties":{"id":"VUT/CA/12574","type":"VUT","group":"Completa","address":"CALLE Paterna de Rivera Nº 31","postal_code":"11180","places":6,"units":3,"registered":"2021-08-10","catastro":"5786401TF5358N0025KE","holder":null,"holder_count":null}},{"type":"Feature","geometry":{"type":"Point","coordinates":[-5.717572,36.464189]},"properties":{"id":"VUT/CA/14511","type":"VUT","group":"Completa","address":"CALLE EGIDO Nº 8","postal_code":"11180","places":6,"units":3,"registered":"2022-06-03","catastro":"6690101TF5369S0009XX","holder":null,"holder_count":null}},{"type":"Feature","geometry":{"type":"Point","coordinates":[-5.72316,36.46186]},"properties":{"id":"VUT/CA/15453","type":"VUT","group":"Completa","address":"CALLE FERNANDO DE CASAS Nº 12","postal_code":"11180","places":4,"units":1,"registered":"2022-09-01","catastro":"6088609TF5368N0003MF","holder":null,"holder_count":null}},{"type":"Feature","geometry":{"type":"Point","coordinates":[-5.7237,36.46239]},"properties":{"id":"VUT/CA/16660","type":"VUT","group":"Completa","address":"CALLE San Francisco Nº 15","postal_code":"11180","places":3,"units":1,"registered":"2023-03-08","catastro":"6190008TF5369S0002XG","holder":null,"holder_count":null}},{"type":"Feature","geometry":{"type":"Point","coordinates":[-5.730391,36.458997]},"properties":{"id":"VUT/CA/18486","type":"VUT","group":"Por habitaciones","address":"CALLE LAUREL Nº 31","postal_code":"11180","places":2,"units":1,"registered":"2023-07-27","catastro":"5485116TF5358N0001MI","holder":null,"holder_count":null}},{"type":"Feature","geometry":{"type":"Point","coordinates":[-5.722506,36.462072]},"properties":{"id":"VUT/CA/18722","type":"VUT","group":"Completa","address":"CALLE Juan Maria de Castro Nº 12","postal_code":"11180","places":4,"units":2,"registered":"2023-08-28","catastro":"6188303tf5368n0003kf","holder":null,"holder_count":null}},{"type":"Feature","geometry":{"type":"Point","coordinates":[-5.723941,36.461587]},"properties":{"id":"VUT/CA/18786","type":"VUT","group":"Completa","address":"CALLE MARQUES DE TARIFA Nº 17","postal_code":"11180","places":6,"units":2,"registered":"2023-09-09","catastro":"6088034TF5368N0001ES","holder":null,"holder_count":null}},{"type":"Feature","geometry":{"type":"Point","coordinates":[-5.722035,36.460982]},"properties":{"id":"VUT/CA/18847","type":"VUT","group":"Completa","address":"APARTAMENTO ALFONSO EL ONCENO Nº 1 Compl.Dom. PATIO Nº 1","postal_code":"11180","places":5,"units":5,"registered":"2023-09-22","catastro":"6388002TF5368N0001WS","holder":null,"holder_count":null}},{"type":"Feature","geometry":{"type":"Point","coordinates":[-5.720483,36.462068]},"properties":{"id":"VUT/CA/18945","type":"VUT","group":"Completa","address":"CALLE LOS POZOS Nº 18","postal_code":"11180","places":8,"units":4,"registered":"2023-10-16","catastro":"6288020TF5368N0001ES","holder":null,"holder_count":null}},{"type":"Feature","geometry":{"type":"Point","coordinates":[-5.722995,36.459936]},"properties":{"id":"VUT/CA/18963","type":"VUT","group":"Completa","address":"CALLE Larios Nº 1 Pta/Letra 8, puerta 8","postal_code":"11180","places":6,"units":3,"registered":"2023-10-20","catastro":"6186701TF5368N0008AL","holder":null,"holder_count":null}},{"type":"Feature","geometry":{"type":"Point","coordinates":[-5.726298,36.461286]},"properties":{"id":"VUT/CA/20097","type":"VUT","group":null,"address":"CALLE BENALUP CASAS VIEJAS Nº 2 Pta/Letra C Compl.Dom. LOCAL 8, puerta C","postal_code":"11180","places":4,"units":2,"registered":"2024-04-12","catastro":"5887101TF5358N0021XX","holder":"AUTOESCUELA EL PUERTO S.L.","holder_count":1}},{"type":"Feature","geometry":{"type":"Point","coordinates":[-5.720444,36.463858]},"properties":{"id":"VUT/CA/20281","type":"VUT","group":"Completa","address":"CALLE NUESTRA SEÑORA DE LOS SANTOS Nº 39 Plta/Piso 1 Pta/Letra 5, piso 1, puerta 5","postal_code":"11180","places":4,"units":1,"registered":"2024-04-15","catastro":"6390010TF5369S0005MK","holder":null,"holder_count":null}},{"type":"Feature","geometry":{"type":"Point","coordinates":[-5.724043,36.46292]},"properties":{"id":"VUT/CA/20731","type":"VUT","group":"Por habitaciones","address":"CALLE LAS MONJAS Nº 12","postal_code":"11180","places":3,"units":2,"registered":"2024-05-21","catastro":"6089001TF5368N0001XS","holder":null,"holder_count":null}},{"type":"Feature","geometry":{"type":"Point","coordinates":[-5.724241,36.462148]},"properties":{"id":"VUT/CA/20944","type":"VUT","group":"Completa","address":"CALLE Sanchez Diaz Nº 11","postal_code":"11180","places":8,"units":4,"registered":"2024-06-04","catastro":"5989029TF5358N0001BI","holder":null,"holder_count":null}},{"type":"Feature","geometry":{"type":"Point","coordinates":[-5.719821,36.46281]},"properties":{"id":"VUT/CA/21090","type":"VUT","group":"Completa","address":"CALLE SAN SEBASTIÁN Nº 9","postal_code":"11180","places":3,"units":2,"registered":"2024-06-15","catastro":"6389903TF5368N0001YS","holder":null,"holder_count":null}},{"type":"Feature","geometry":{"type":"Point","coordinates":[-5.724749,36.462175]},"properties":{"id":"VUT/CA/21228","type":"VUT","group":"Completa","address":"CALLE SANCHEZ DIAZ Nº 19","postal_code":"11180","places":4,"units":1,"registered":"2024-06-26","catastro":"5989026TF5358N0011MG","holder":null,"holder_count":null}},{"type":"Feature","geometry":{"type":"Point","coordinates":[-5.722995,36.459936]},"properties":{"id":"VUT/CA/22261","type":"VUT","group":"Completa","address":"CALLE pico del campo Nº 1 Pta/Letra 8, puerta 8","postal_code":"11180","places":6,"units":2,"registered":"2024-10-30","catastro":"6186701TF5368N0008AL","holder":null,"holder_count":null}},{"type":"Feature","geometry":{"type":"Point","coordinates":[-5.722995,36.459936]},"properties":{"id":"VUT/CA/24322","type":"VUT","group":"Completa","address":"CALLE larios Nº 1 Pta/Letra 9, puerta 9","postal_code":"11180","places":4,"units":1,"registered":"2025-05-24","catastro":"6186701TF5368N0009SB","holder":null,"holder_count":null}},{"type":"Feature","geometry":{"type":"Point","coordinates":[-5.722901,36.461719]},"properties":{"id":"VUT/CA/24409","type":"VUT","group":"Completa","address":"CALLE CHAMORRO Nº 3","postal_code":"11180","places":3,"units":1,"registered":"2025-06-02","catastro":"6188702TF5368N0003WF","holder":null,"holder_count":null}},{"type":"Feature","geometry":{"type":"Point","coordinates":[-5.725366,36.461811]},"properties":{"id":"VUT/CA/24490","type":"VUT","group":"Completa","address":"CALLE LAS BROZAS Nº 12","postal_code":"11180","places":4,"units":1,"registered":"2025-06-08","catastro":"5888204TF5358N0004QA","holder":null,"holder_count":null}},{"type":"Feature","geometry":{"type":"Point","coordinates":[-5.725366,36.461811]},"properties":{"id":"VUT/CA/24925","type":"VUT","group":"Completa","address":"CALLE LAS BROZAS Nº 12","postal_code":"11180","places":4,"units":1,"registered":"2025-07-11","catastro":"5888204TF5358N0004QA","holder":null,"holder_count":null}},{"type":"Feature","geometry":{"type":"Point","coordinates":[-5.72387,36.463192]},"properties":{"id":"VUT/CA/25186","type":"VUT","group":"Completa","address":"CALLE SAN VICENTE Nº 5 Plta/Piso 1 Pta/Letra DCHA, piso 1, puerta DCHA","postal_code":"11180","places":5,"units":3,"registered":"2025-09-01","catastro":"6089202TF5368N0008ML","holder":null,"holder_count":null}},{"type":"Feature","geometry":{"type":"Point","coordinates":[-5.725366,36.461811]},"properties":{"id":"VUT/CA/25324","type":"VUT","group":"Completa","address":"CALLE CAPITAN CORTES Nº 12 Plta/Piso 2 Pta/Letra 2, piso 2, puerta 2","postal_code":"11180","places":5,"units":2,"registered":"2025-10-09","catastro":"5888204TF5358N0007RF","holder":null,"holder_count":null}},{"type":"Feature","geometry":{"type":"Point","coordinates":[-5.721105,36.461772]},"properties":{"id":"VUT/CA/25348","type":"VUT","group":"Completa","address":"CALLE ARROYO Nº 6","postal_code":"11180","places":4,"units":5,"registered":"2025-10-15","catastro":"6288903TF5368N0004SG","holder":null,"holder_count":null}},{"type":"Feature","geometry":{"type":"Point","coordinates":[-5.730597,36.459844]},"properties":{"id":"VUT/CA/25535","type":"VUT","group":"Completa","address":"AVENIDA puerto de levante Nº 0 Blq. b Plta/Piso 2 Pta/Letra c Compl.Dom. edificio picacho, piso 2, puerta c","postal_code":"11180","places":2,"units":2,"registered":"2025-12-04","catastro":"5485601TF5358N0012SH","holder":null,"holder_count":null}},{"type":"Feature","geometry":{"type":"Point","coordinates":[-5.723568,36.463377]},"properties":{"id":"VUT/CA/25791","type":"VUT","group":"Completa","address":"CALLE CALZADA DE SAN VICENTE Nº 2 Pta/Letra 5, puerta 5","postal_code":"11180","places":4,"units":1,"registered":"2026-02-05","catastro":"6090809TF5369S0005TK","holder":null,"holder_count":null}},{"type":"Feature","geometry":{"type":"Point","coordinates":[-5.726039,36.462247]},"properties":{"id":"VUT/CA/25847","type":"VUT","group":"Completa","address":"CALLE CADIZ Nº 12 Pta/Letra B, puerta B","postal_code":"11180","places":4,"units":2,"registered":"2026-02-16","catastro":"5888213TF5358N0004OA","holder":null,"holder_count":null}},{"type":"Feature","geometry":{"type":"Point","coordinates":[-5.721073,36.462848]},"properties":{"id":"VUT/CA/25911","type":"VUT","group":"Completa","address":"CALLE NUESTRA SEÑORA DE LOS SANTOS Nº 17","postal_code":"11180","places":8,"units":4,"registered":"2026-02-26","catastro":"6390001TF5369S0001AF","holder":null,"holder_count":null}}]}