{"type":"FeatureCollection","municipio":{"slug":"alcala-del-valle","name":"Alcalá del Valle","total":1,"places":8,"source_updated_at":"2026-10-05"},"features":[{"type":"Feature","geometry":{"type":"Point","coordinates":[-5.162496,36.898069]},"properties":{"id":"VUT/CA/19071","type":"VUT","group":"Completa","address":"CARRETERA LAS ERRIZAS, POLIGONO 11, PARCELA 56 Km 1","postal_code":"11693","places":8,"units":3,"registered":"2023-11-08","catastro":"11002A011000560000UY","holder":null,"holder_count":null}}]}