{"type":"FeatureCollection","municipio":{"slug":"algar","name":"Algar","total":5,"places":32,"source_updated_at":"2026-10-05"},"features":[{"type":"Feature","geometry":{"type":"Point","coordinates":[-5.657008,36.656288]},"properties":{"id":"VUT/CA/12768","type":"VUT","group":"Completa","address":"CALLE Rafael Giron Taguas Nº 3","postal_code":"11639","places":4,"units":2,"registered":"2021-09-18","catastro":"2602111TF6620B0001LO","holder":null,"holder_count":null}},{"type":"Feature","geometry":{"type":"Point","coordinates":[-5.655073,36.65916]},"properties":{"id":"VUT/CA/13236","type":"VUT","group":"Completa","address":"CALLE PLAZA AUTOMIVILISMO Nº 1","postal_code":"11639","places":6,"units":3,"registered":"2022-01-12","catastro":"2805501TF6620N0005ZY","holder":null,"holder_count":null}},{"type":"Feature","geometry":{"type":"Point","coordinates":[-5.594849,36.701155]},"properties":{"id":"VUT/CA/22310","type":"VUT","group":"Completa","address":"CARRETERA ALGAR - EL BOSQUE KM. 7 Km 7 Compl.Dom. FINCA PALOMINO","postal_code":"11630","places":14,"units":6,"registered":"2024-11-06","catastro":"53006A030000100001FA","holder":"RUSTIARCOS SL","holder_count":1}},{"type":"Feature","geometry":{"type":"Point","coordinates":[-5.655938,36.655746]},"properties":{"id":"VUT/CA/22848","type":"VUT","group":"Completa","address":"CALLE ANTONIO SILVA Nº 20","postal_code":"11639","places":6,"units":3,"registered":"2025-01-30","catastro":"2701203TF6620B0001AO","holder":null,"holder_count":null}},{"type":"Feature","geometry":{"type":"Point","coordinates":[-5.654706,36.659215]},"properties":{"id":"VUT/CA/23459","type":"VUT","group":"Por habitaciones","address":"CALLE ESCUDERIA SUR Nº 10 Compl.Dom. URBANIZACION LOS OLIVOS","postal_code":"11639","places":2,"units":3,"registered":"2025-03-21","catastro":"2905016TF6620F0011SY","holder":null,"holder_count":null}}]}