{"type":"FeatureCollection","municipio":{"slug":"algeciras","name":"Algeciras","total":167,"places":859,"source_updated_at":"2026-10-05"},"features":[{"type":"Feature","geometry":{"type":"Point","coordinates":[-5.443889,36.106185]},"properties":{"id":"VUT/CA/00597","type":"VUT","group":"Completa","address":"CALLE FRAGATAS Nº 5 Plta/Piso 2 Pta/Letra D, piso 2, puerta D","postal_code":"11207","places":4,"units":2,"registered":"2016-06-29","catastro":"0186803TE8908N0012WQ","holder":null,"holder_count":null}},{"type":"Feature","geometry":{"type":"Point","coordinates":[-5.446044,36.091801]},"properties":{"id":"VUT/CA/00603","type":"VUT","group":"Completa","address":"URBANIZACION GETARES CHALET SAJAMA","postal_code":"11207","places":10,"units":4,"registered":"2016-06-29","catastro":"9970022TE7997S0001ZI","holder":null,"holder_count":null}},{"type":"Feature","geometry":{"type":"Point","coordinates":[-5.443206,36.115754]},"properties":{"id":"VUT/CA/00764","type":"VUT","group":"Por habitaciones","address":"URBANIZACION VILLA ROSA Nº 14","postal_code":"11207","places":6,"units":4,"registered":"2016-07-15","catastro":"02960L7TE8909n0001XP","holder":null,"holder_count":null}},{"type":"Feature","geometry":{"type":"Point","coordinates":[-5.43493,36.071911]},"properties":{"id":"VUT/CA/00889","type":"VUT","group":"Completa","address":"CALLE ORTIGAS Nº 177 Compl.Dom. ZONA PUNTA CARNERO","postal_code":"11207","places":5,"units":2,"registered":"2016-07-29","catastro":"07480H7TE8904N0001WJ","holder":null,"holder_count":null}},{"type":"Feature","geometry":{"type":"Point","coordinates":[-5.473451,36.104383]},"properties":{"id":"VUT/CA/01294","type":"VUT","group":"Completa","address":"CALLE ALMENDRALACHES Nº 63","postal_code":"11206","places":14,"units":7,"registered":"2016-09-27","catastro":"7486509TE7978N0001AO","holder":"DESPACHOS REUNIDOS, S.L.","holder_count":1}},{"type":"Feature","geometry":{"type":"Point","coordinates":[-5.440713,36.10736]},"properties":{"id":"VUT/CA/01610","type":"VUT","group":"Completa","address":"CALLE PEZ ESPADA Nº 16 Compl.Dom. VISTASUR II","postal_code":"11207","places":13,"units":4,"registered":"2016-11-08","catastro":"0488803TE8908N0007OX","holder":null,"holder_count":null}},{"type":"Feature","geometry":{"type":"Point","coordinates":[-5.438487,36.110381]},"properties":{"id":"VUT/CA/01638","type":"VUT","group":"Por habitaciones","address":"CALLE ALBACORA Nº 15","postal_code":"11207","places":2,"units":1,"registered":"2016-11-14","catastro":"0691214TE8909S0001SK","holder":null,"holder_count":null}},{"type":"Feature","geometry":{"type":"Point","coordinates":[-5.461487,36.153863]},"properties":{"id":"VUT/CA/01911","type":"VUT","group":"Por habitaciones","address":"CALLE LA PARRA Nº 37","postal_code":"11205","places":4,"units":2,"registered":"2016-12-23","catastro":"8640204TF7084S0001AG","holder":null,"holder_count":null}},{"type":"Feature","geometry":{"type":"Point","coordinates":[-5.454805,36.099583]},"properties":{"id":"VUT/CA/02321","type":"VUT","group":"Completa","address":"CALLE ESCUDO Nº 12 Compl.Dom. LA ALDEA DE ALGETARES","postal_code":"11207","places":6,"units":3,"registered":"2017-03-03","catastro":"9180007TE7998S0572SZ","holder":null,"holder_count":null}},{"type":"Feature","geometry":{"type":"Point","coordinates":[-5.500247,36.082514]},"properties":{"id":"VUT/CA/026178","type":"VUT","group":"Completa","address":"CALLE PEÑALARA Nº 22","postal_code":"11202","places":4,"units":2,"registered":"2026-04-10","catastro":"49618A0TE7946S0001GJ","holder":null,"holder_count":null}},{"type":"Feature","geometry":{"type":"Point","coordinates":[-5.45115,36.131659]},"properties":{"id":"VUT/CA/026231","type":"VUT","group":"Completa","address":"CALLE BUEN AIRE Nº 38","postal_code":"11201","places":8,"units":4,"registered":"2026-04-17","catastro":"9515213TF7091N0001YY","holder":null,"holder_count":null}},{"type":"Feature","geometry":{"type":"Point","coordinates":[-5.448274,36.137323]},"properties":{"id":"VUT/CA/026255","type":"VUT","group":"Completa","address":"CALLE Fray Tomás del Valle Nº 7 Plta/Piso 2 Pta/Letra C, piso 2, puerta C","postal_code":"11202","places":4,"units":3,"registered":"2026-04-21","catastro":"9821802TF7092S0012EH","holder":null,"holder_count":null}},{"type":"Feature","geometry":{"type":"Point","coordinates":[-5.449258,36.129035]},"properties":{"id":"VUT/CA/026909","type":"VUT","group":"Completa","address":"CALLE GENERAL CASTAÑOS Nº 51 Plta/Piso 2, piso 2","postal_code":"11201","places":4,"units":2,"registered":"2026-07-29","catastro":"9712922TF7091S0001AF","holder":"GESTION DE HOSPEDAJES DEL SUR SL","holder_count":1}},{"type":"Feature","geometry":{"type":"Point","coordinates":[-5.44716,36.129794]},"properties":{"id":"VUT/CA/03088","type":"VUT","group":"Completa","address":"CALLE BAILEN Nº 9 Plta/Piso 2 Pta/Letra A, piso 2, puerta A","postal_code":"11201","places":4,"units":2,"registered":"2017-06-22","catastro":"9913711TF7091S0012BX","holder":null,"holder_count":null}},{"type":"Feature","geometry":{"type":"Point","coordinates":[-5.437381,36.070441]},"properties":{"id":"VUT/CA/03090","type":"VUT","group":"Completa","address":"CALLE ORTIGAS Nº 236 Compl.Dom. PUNTA CARNERO","postal_code":"11207","places":6,"units":3,"registered":"2017-06-22","catastro":"07480N6TE8904N0001EJ","holder":null,"holder_count":null}},{"type":"Feature","geometry":{"type":"Point","coordinates":[-5.451283,36.127866]},"properties":{"id":"VUT/CA/03864","type":"VUT","group":"Completa","address":"AVENIDA Agustín Bálsamo Nº 12 Blq. 2 Plta/Piso 6 Pta/Letra A, piso 6, puerta A","postal_code":"11203","places":4,"units":3,"registered":"2017-10-06","catastro":"9511478TF7091S0288EF","holder":null,"holder_count":null}},{"type":"Feature","geometry":{"type":"Point","coordinates":[-5.441434,36.162161]},"properties":{"id":"VUT/CA/03976","type":"VUT","group":"Completa","address":"CALLE VIRGEN MARINERA Nº 6 Plta/Piso 1 Pta/Letra E Compl.Dom. CONJUNTO RESIDENCIAL MIRAMAR, piso 1, puerta E","postal_code":"11205","places":2,"units":1,"registered":"2017-10-20","catastro":"0449444TF8004N0012YK","holder":null,"holder_count":null}},{"type":"Feature","geometry":{"type":"Point","coordinates":[-5.447512,36.141562]},"properties":{"id":"VUT/CA/04494","type":"VUT","group":"Por habitaciones","address":"PASEO JUAN PEREZ ARRIETE Portal 25 Plta/Piso BAJO Pta/Letra B Compl.Dom. URB. ZARZAMORA III, piso BAJO, puerta B","postal_code":"11204","places":4,"units":3,"registered":"2018-02-07","catastro":"9826520TF7092N0003EW","holder":null,"holder_count":null}},{"type":"Feature","geometry":{"type":"Point","coordinates":[-5.455835,36.140034]},"properties":{"id":"VUT/CA/04624","type":"VUT","group":"Completa","address":"EDIFICIO PARQUE FERIA Blq. 3 Plta/Piso 1 Pta/Letra C Compl.Dom. AVDA. GUARDIA CIVIL, piso 1, puerta C","postal_code":"11204","places":3,"units":2,"registered":"2018-03-08","catastro":"9224906TF7092S0073AD","holder":null,"holder_count":null}},{"type":"Feature","geometry":{"type":"Point","coordinates":[-5.455835,36.140034]},"properties":{"id":"VUT/CA/04625","type":"VUT","group":"Completa","address":"EDIFICIO PARQUE FERIA Blq. 2 Plta/Piso 1º Pta/Letra B Compl.Dom. AVDA. DE LA GUARDIA CIVIL, piso 1º, puerta B","postal_code":"11204","places":2,"units":1,"registered":"2018-03-08","catastro":"9224906TF7092S0058WR","holder":null,"holder_count":null}},{"type":"Feature","geometry":{"type":"Point","coordinates":[-5.447539,36.13297]},"properties":{"id":"VUT/CA/05023","type":"VUT","group":"Completa","address":"CALLE Saenz de Laguna Nº 22 Plta/Piso 1 Pta/Letra C Compl.Dom. Edificio Al-Yazirat, piso 1, puerta C","postal_code":"11201","places":6,"units":3,"registered":"2018-05-10","catastro":"9817516TF7091N0074FS","holder":null,"holder_count":null}},{"type":"Feature","geometry":{"type":"Point","coordinates":[-5.451283,36.127866]},"properties":{"id":"VUT/CA/05025","type":"VUT","group":"Completa","address":"AVENIDA Agustin Balsamo Nº 12 Portal 4 Plta/Piso 2 Pta/Letra B Compl.Dom. Residencial Parque del Estrecho, piso 2, puerta B","postal_code":"11203","places":4,"units":1,"registered":"2018-05-10","catastro":"9511478TF7091S0331PZ","holder":null,"holder_count":null}},{"type":"Feature","geometry":{"type":"Point","coordinates":[-5.448373,36.096398]},"properties":{"id":"VUT/CA/05441","type":"VUT","group":"Completa","address":"RESIDENCIAL LOS CAMAROTES DE GETARES FASE III Blq. 3 Plta/Piso 2 Pta/Letra 4, piso 2, puerta 4","postal_code":"11207","places":2,"units":1,"registered":"2018-06-27","catastro":"9776201TE7997N0115MF","holder":null,"holder_count":null}},{"type":"Feature","geometry":{"type":"Point","coordinates":[-5.454047,36.141383]},"properties":{"id":"VUT/CA/05784","type":"VUT","group":"Completa","address":"AVENIDA VIRGEN DEL CARMEN Nº 62 Blq. 4 Plta/Piso A Pta/Letra C Compl.Dom. EDIFICIO NUEVO CENTRO, piso A, puerta C","postal_code":"11202","places":2,"units":1,"registered":"2018-08-16","catastro":"9226702TF7092N0107RO","holder":null,"holder_count":null}},{"type":"Feature","geometry":{"type":"Point","coordinates":[-5.448373,36.096398]},"properties":{"id":"VUT/CA/05789","type":"VUT","group":"Completa","address":"URBANIZACION Camarotes de Algetares Modulo Numero Uno Nº 29","postal_code":"11204","places":4,"units":1,"registered":"2018-08-17","catastro":"9776201TE7997N0245QG","holder":null,"holder_count":null}},{"type":"Feature","geometry":{"type":"Point","coordinates":[-5.450033,36.134534]},"properties":{"id":"VUT/CA/06029","type":"VUT","group":"Completa","address":"AVENIDA FUERZAS ARMADAS Nº 13 Plta/Piso 4 Pta/Letra A, piso 4, puerta A","postal_code":"11202","places":4,"units":1,"registered":"2018-09-25","catastro":"9618901TF7091N0026WW","holder":null,"holder_count":null}},{"type":"Feature","geometry":{"type":"Point","coordinates":[-5.448801,36.141408]},"properties":{"id":"VUT/CA/06221","type":"VUT","group":"Por habitaciones","address":"CALLE ISAAC ALBENIZ Nº 27","postal_code":"11204","places":10,"units":4,"registered":"2018-10-26","catastro":"9726904TF7092N0003YW","holder":null,"holder_count":null}},{"type":"Feature","geometry":{"type":"Point","coordinates":[-5.437588,36.071072]},"properties":{"id":"VUT/CA/06285","type":"VUT","group":"Por habitaciones","address":"CALLE ERIZOS Nº 329","postal_code":"11207","places":6,"units":4,"registered":"2018-11-07","catastro":"07480W9TE8904N0001HJ","holder":null,"holder_count":null}},{"type":"Feature","geometry":{"type":"Point","coordinates":[-5.446302,36.133819]},"properties":{"id":"VUT/CA/06733","type":"VUT","group":"Completa","address":"CALLE BALUARTE-EDIFICIO BLASQUEZ Portal 3 Plta/Piso 9 Pta/Letra B, piso 9, puerta B","postal_code":"11205","places":6,"units":3,"registered":"2019-01-31","catastro":"9917601TF7091N0194AY","holder":null,"holder_count":null}},{"type":"Feature","geometry":{"type":"Point","coordinates":[-5.439962,36.070229]},"properties":{"id":"VUT/CA/06734","type":"VUT","group":"Completa","address":"LUGAR Getares, Punta Carnero Nº 390 Compl.Dom. Calle Centolla 390","postal_code":"11207","places":8,"units":4,"registered":"2019-01-31","catastro":"07480BETE8904N0001BJ","holder":null,"holder_count":null}},{"type":"Feature","geometry":{"type":"Point","coordinates":[-5.432381,36.073135]},"properties":{"id":"VUT/CA/06852","type":"VUT","group":"Completa","address":"CALLE CENTOLLA Nº 195","postal_code":"11207","places":4,"units":1,"registered":"2019-02-12","catastro":"07480J5TE8904N0001KJ","holder":null,"holder_count":null}},{"type":"Feature","geometry":{"type":"Point","coordinates":[-5.448483,36.159622]},"properties":{"id":"VUT/CA/07692","type":"VUT","group":"Completa","address":"CALLE CABO COPE Nº S/N Pta/Letra 5 Compl.Dom. URB BELLAVISTA FASE 3, puerta 5","postal_code":"11205","places":3,"units":3,"registered":"2019-05-18","catastro":"9846643TF7094N0005WG","holder":null,"holder_count":null}},{"type":"Feature","geometry":{"type":"Point","coordinates":[-5.448483,36.159622]},"properties":{"id":"VUT/CA/07696","type":"VUT","group":"Completa","address":"CALLE CABO COPE Nº S/N Pta/Letra 5 Compl.Dom. URB BELLAVISTA FASE 3, puerta 5","postal_code":"11205","places":4,"units":3,"registered":"2019-05-19","catastro":"9846643TF7094N0005WG","holder":null,"holder_count":null}},{"type":"Feature","geometry":{"type":"Point","coordinates":[-5.448373,36.096398]},"properties":{"id":"VUT/CA/08020","type":"VUT","group":"Completa","address":"URBANIZACION LOS CAMAROTES Nº 4 Portal 1A Plta/Piso 1 Pta/Letra 11, piso 1, puerta 11","postal_code":"11207","places":4,"units":1,"registered":"2019-06-17","catastro":"9776201TE7997N0193IX","holder":null,"holder_count":null}},{"type":"Feature","geometry":{"type":"Point","coordinates":[-5.449164,36.140289]},"properties":{"id":"VUT/CA/08202","type":"VUT","group":"Completa","address":"CALLE JACINTO BENAVENTE Nº 19 Plta/Piso 3 Pta/Letra H, piso 3, puerta H","postal_code":"11204","places":4,"units":2,"registered":"2019-07-02","catastro":"9725822TF7092N0053WF","holder":null,"holder_count":null}},{"type":"Feature","geometry":{"type":"Point","coordinates":[-5.452345,36.108984]},"properties":{"id":"VUT/CA/08886","type":"VUT","group":"Completa","address":"CALLE TORRE DEL DIABLO Km 7","postal_code":"11207","places":6,"units":3,"registered":"2019-10-15","catastro":"9490207TE7999S0032AK","holder":null,"holder_count":null}},{"type":"Feature","geometry":{"type":"Point","coordinates":[-5.453212,36.130219]},"properties":{"id":"VUT/CA/09097","type":"VUT","group":"Completa","address":"CALLE Salamanca Nº 3 Pta/Letra B Compl.Dom. Izda, puerta B","postal_code":"11203","places":5,"units":3,"registered":"2019-11-11","catastro":"9314338TF7091S0002OG","holder":null,"holder_count":null}},{"type":"Feature","geometry":{"type":"Point","coordinates":[-5.276253,36.28783]},"properties":{"id":"VUT/CA/09437","type":"VUT","group":"Completa","address":"AVENIDA LA MARINA Nº 3 Portal B Plta/Piso 1 Pta/Letra 20, piso 1, puerta 20","postal_code":"11201","places":4,"units":2,"registered":"2019-12-10","catastro":"5484913TF9158S0020DZ","holder":null,"holder_count":null}},{"type":"Feature","geometry":{"type":"Point","coordinates":[-5.448801,36.141408]},"properties":{"id":"VUT/CA/09458","type":"VUT","group":"Completa","address":"CALLE ISAAC ALBENIZ Nº 27","postal_code":"11204","places":10,"units":4,"registered":"2019-12-11","catastro":"9726904TF7092N0002TQ","holder":"HOSTELERIA RAMAGA SL","holder_count":1}},{"type":"Feature","geometry":{"type":"Point","coordinates":[-5.450033,36.134534]},"properties":{"id":"VUT/CA/09627","type":"VUT","group":"Completa","address":"AVENIDA FUERZAS ARMADAS Nº 13 Plta/Piso 1 Pta/Letra B, piso 1, puerta B","postal_code":"11202","places":2,"units":1,"registered":"2020-01-14","catastro":"9618901TF7091N0018BB","holder":null,"holder_count":null}},{"type":"Feature","geometry":{"type":"Point","coordinates":[-5.438578,36.069962]},"properties":{"id":"VUT/CA/09654","type":"VUT","group":"Completa","address":"CALLE Ortigas Calif.Nº 243-244","postal_code":"11207","places":8,"units":4,"registered":"2020-01-17","catastro":"07480O4TE8904N0001LJ","holder":null,"holder_count":null}},{"type":"Feature","geometry":{"type":"Point","coordinates":[-5.451283,36.127866]},"properties":{"id":"VUT/CA/09712","type":"VUT","group":"Completa","address":"AVENIDA AGUSTIN BALSAMO Nº 12 Portal 8 Plta/Piso 6 Pta/Letra A, piso 6, puerta A","postal_code":"11201","places":3,"units":1,"registered":"2020-01-22","catastro":"9511478TF7091S0437LU","holder":null,"holder_count":null}},{"type":"Feature","geometry":{"type":"Point","coordinates":[-5.459371,36.145372]},"properties":{"id":"VUT/CA/09930","type":"VUT","group":"Completa","address":"CALLE SUECIA Nº 3 Esc. 1 Pta/Letra 6, puerta 6","postal_code":"11202","places":6,"units":3,"registered":"2020-02-11","catastro":"8630611TF7083S0006PE","holder":null,"holder_count":null}},{"type":"Feature","geometry":{"type":"Point","coordinates":[-5.447547,36.165049]},"properties":{"id":"VUT/CA/09931","type":"VUT","group":"Completa","address":"CALLE CABO TRES FORCAS Nº 7","postal_code":"11205","places":6,"units":3,"registered":"2020-02-11","catastro":"9852807TF7095S0001SD","holder":null,"holder_count":null}},{"type":"Feature","geometry":{"type":"Point","coordinates":[-5.455982,36.138534]},"properties":{"id":"VUT/CA/09967","type":"VUT","group":"Completa","address":"URBANIZACION PARQUE ALEMAN Blq. 1 Plta/Piso 11 Pta/Letra C, piso 11, puerta C","postal_code":"11204","places":6,"units":3,"registered":"2020-02-17","catastro":"9022902TF7092S0046OK","holder":null,"holder_count":null}},{"type":"Feature","geometry":{"type":"Point","coordinates":[-5.448316,36.123659]},"properties":{"id":"VUT/CA/10238","type":"VUT","group":"Completa","address":"CALLE Carteya Nº 6a Plta/Piso Bajo Pta/Letra 5, piso Bajo, puerta 5","postal_code":"11207","places":2,"units":1,"registered":"2020-03-31","catastro":"9706623TF7090N0006ZJ","holder":null,"holder_count":null}},{"type":"Feature","geometry":{"type":"Point","coordinates":[-5.453574,36.130538]},"properties":{"id":"VUT/CA/10372","type":"VUT","group":"Completa","address":"CALLE FUENTENUEVA Nº 47 Plta/Piso 1 Pta/Letra D, piso 1, puerta D","postal_code":"11203","places":2,"units":1,"registered":"2020-05-12","catastro":"9314352tf7091s0008kz","holder":null,"holder_count":null}},{"type":"Feature","geometry":{"type":"Point","coordinates":[-5.44318,36.100745]},"properties":{"id":"VUT/CA/10386","type":"VUT","group":"Completa","address":"CALLE BOREAL Nº 8","postal_code":"11204","places":8,"units":4,"registered":"2020-05-18","catastro":"0180401te8908s0019fh","holder":"BAVARIA INVEST, SOCIEDAD LIMITADA","holder_count":2}},{"type":"Feature","geometry":{"type":"Point","coordinates":[-5.476784,36.118265]},"properties":{"id":"VUT/CA/11059","type":"VUT","group":"Completa","address":"TRAVESIA DEL COBRE Nº 1","postal_code":"11206","places":6,"units":2,"registered":"2020-10-09","catastro":"7100301TF7070S0001DS","holder":null,"holder_count":null}},{"type":"Feature","geometry":{"type":"Point","coordinates":[-5.441883,36.100429]},"properties":{"id":"VUT/CA/11095","type":"VUT","group":"Completa","address":"PASEO Playa Getares Nº 1 Blq. 1 Portal 1 Plta/Piso 1 Pta/Letra 43 Compl.Dom. Playa Getares, piso 1, puerta 43","postal_code":"11201","places":6,"units":2,"registered":"2020-10-21","catastro":"0281709TE8908S0043KI","holder":null,"holder_count":null}},{"type":"Feature","geometry":{"type":"Point","coordinates":[-5.431696,36.072809]},"properties":{"id":"VUT/CA/11119","type":"VUT","group":"Completa","address":"URBANIZACION PLAYA GETARES Nº 87 Compl.Dom. URB. PLAYA GETARES 87 T  OD OS ALGECIRAS","postal_code":"11207","places":10,"units":4,"registered":"2020-10-28","catastro":"0748087TE8904N0001WJ","holder":null,"holder_count":null}},{"type":"Feature","geometry":{"type":"Point","coordinates":[-5.448373,36.096398]},"properties":{"id":"VUT/CA/11131","type":"VUT","group":"Completa","address":"URBANIZACION CAMAROTES DE ALGETARES Blq. 4 Esc. 1 Pta/Letra 6, puerta 6","postal_code":"11207","places":4,"units":2,"registered":"2020-11-05","catastro":"9776201TE7997N0160UZ","holder":null,"holder_count":null}},{"type":"Feature","geometry":{"type":"Point","coordinates":[-5.459673,36.148775]},"properties":{"id":"VUT/CA/11132","type":"VUT","group":"Completa","address":"AVENIDA DE LAS FLORES Nº 82","postal_code":"11204","places":5,"units":3,"registered":"2020-11-05","catastro":"8734918TF7083S0001MZ","holder":null,"holder_count":null}},{"type":"Feature","geometry":{"type":"Point","coordinates":[-5.450957,36.161499]},"properties":{"id":"VUT/CA/11370","type":"VUT","group":"Completa","address":"URBANIZACION LOS TUCANES Nº 32","postal_code":"11205","places":4,"units":2,"registered":"2021-02-22","catastro":"9648832TF7094N0001YA","holder":null,"holder_count":null}},{"type":"Feature","geometry":{"type":"Point","coordinates":[-5.448373,36.096398]},"properties":{"id":"VUT/CA/12027","type":"VUT","group":"Completa","address":"URBANIZACION Los Camarotes de Algetares, nueva generación 2 Blq. 3 Portal 2 Esc. 3 Plta/Piso 3, piso 3","postal_code":"11207","places":5,"units":2,"registered":"2021-06-06","catastro":"9776201TE7997N0145ZS","holder":null,"holder_count":null}},{"type":"Feature","geometry":{"type":"Point","coordinates":[-5.448373,36.096398]},"properties":{"id":"VUT/CA/12317","type":"VUT","group":"Completa","address":"CARRETERA Carretera del Faro - Punta Carnero Blq. 3 Portal 3 Plta/Piso 2 Compl.Dom. Urbanización Los Camarotes de Getares, piso 2","postal_code":"11207","places":4,"units":1,"registered":"2021-07-02","catastro":"9776201TE7997N0114XD","holder":null,"holder_count":null}},{"type":"Feature","geometry":{"type":"Point","coordinates":[-5.452636,36.129986]},"properties":{"id":"VUT/CA/12382","type":"VUT","group":"Completa","address":"CALLE MARIA AUXILIADORA Nº 17 A Plta/Piso 3 Pta/Letra C, piso 3, puerta C","postal_code":"11203","places":4,"units":2,"registered":"2021-07-09","catastro":"9413626TF7091S0020IR","holder":null,"holder_count":null}},{"type":"Feature","geometry":{"type":"Point","coordinates":[-5.447371,36.136392]},"properties":{"id":"VUT/CA/12495","type":"VUT","group":"Completa","address":"AVENIDA PERIODISTA PEPE VALLECILLO Nº 1 Portal 3 Plta/Piso BAJO Pta/Letra DCHA, piso BAJO, puerta DCHA","postal_code":"11203","places":3,"units":2,"registered":"2021-07-26","catastro":"9919830TF7091N0024LM","holder":null,"holder_count":null}},{"type":"Feature","geometry":{"type":"Point","coordinates":[-5.462873,36.136314]},"properties":{"id":"VUT/CA/12950","type":"VUT","group":"Completa","address":"URBANIZACION MIRADOR DE LA BAHÍA Blq. 8 Portal 8 Plta/Piso 2 Pta/Letra 6, piso 2, puerta 6","postal_code":"11204","places":4,"units":2,"registered":"2021-11-03","catastro":"8420902TF7082S0026OM","holder":null,"holder_count":null}},{"type":"Feature","geometry":{"type":"Point","coordinates":[-5.44318,36.100745]},"properties":{"id":"VUT/CA/12987","type":"VUT","group":"Completa","address":"CALLE BOREAL Nº 6 Compl.Dom. GETARES","postal_code":"11207","places":8,"units":4,"registered":"2021-11-15","catastro":"0180401TE8908S0017SF","holder":"BAVARIA INVEST, SOCIEDAD LIMITADA","holder_count":2}},{"type":"Feature","geometry":{"type":"Point","coordinates":[-5.455835,36.140034]},"properties":{"id":"VUT/CA/13258","type":"VUT","group":"Completa","address":"AVENIDA GUARDIA CIVIL Nº 6 Blq. 2 Portal 2 Plta/Piso 1º Pta/Letra B, piso 1º, puerta B","postal_code":"11204","places":4,"units":2,"registered":"2022-01-15","catastro":"9224906TF7092S0058WR","holder":null,"holder_count":null}},{"type":"Feature","geometry":{"type":"Point","coordinates":[-5.448887,36.130477]},"properties":{"id":"VUT/CA/13867","type":"VUT","group":"Completa","address":"CALLE JUAN MORRISON Nº 12","postal_code":"11201","places":6,"units":5,"registered":"2022-04-04","catastro":"9714709TF7091s0001LF","holder":null,"holder_count":null}},{"type":"Feature","geometry":{"type":"Point","coordinates":[-5.437901,36.070887]},"properties":{"id":"VUT/CA/14486","type":"VUT","group":"Completa","address":"CALLE ERIZOS Nº 260 Compl.Dom. Urb. Punta Carnero","postal_code":"11207","places":4,"units":2,"registered":"2022-06-02","catastro":"07480Q0TE8904N0001JJ","holder":null,"holder_count":null}},{"type":"Feature","geometry":{"type":"Point","coordinates":[-5.447844,36.134402]},"properties":{"id":"VUT/CA/14568","type":"VUT","group":"Por habitaciones","address":"AVENIDA CAPITÁN ONTAÑÓN, S/N Portal 2 Plta/Piso 6º Pta/Letra C Compl.Dom. EDIFICIO MARÍA CRISTINA, piso 6º, puerta C","postal_code":"11202","places":5,"units":2,"registered":"2022-06-07","catastro":"9819703TF7091N0054BZ","holder":null,"holder_count":null}},{"type":"Feature","geometry":{"type":"Point","coordinates":[-5.443302,36.160194]},"properties":{"id":"VUT/CA/14864","type":"VUT","group":"Completa","address":"CALLE CABO CREUS Nº 8 Pta/Letra 2, puerta 2","postal_code":"11205","places":6,"units":2,"registered":"2022-06-27","catastro":"0347434TF8004N0002EA","holder":null,"holder_count":null}},{"type":"Feature","geometry":{"type":"Point","coordinates":[-5.451283,36.127866]},"properties":{"id":"VUT/CA/14896","type":"VUT","group":"Por habitaciones","address":"AVENIDA AGUSTIN BALSAMO Nº 12 Blq. 4 Plta/Piso 3 Pta/Letra A, piso 3, puerta A","postal_code":"11203","places":4,"units":2,"registered":"2022-06-29","catastro":"9511478TF7091S0333SM","holder":null,"holder_count":null}},{"type":"Feature","geometry":{"type":"Point","coordinates":[-5.443363,36.102668]},"properties":{"id":"VUT/CA/15270","type":"VUT","group":"Por habitaciones","address":"URBANIZACION SPECIAL GETARES Nº 3","postal_code":"11207","places":2,"units":1,"registered":"2022-08-03","catastro":"0183701TE8908S0003TE","holder":null,"holder_count":null}},{"type":"Feature","geometry":{"type":"Point","coordinates":[-5.447181,36.124942]},"properties":{"id":"VUT/CA/15274","type":"VUT","group":"Completa","address":"CALLE ANIBAL Nº 32","postal_code":"11207","places":6,"units":4,"registered":"2022-08-04","catastro":"9807212TF7090N0001JS","holder":null,"holder_count":null}},{"type":"Feature","geometry":{"type":"Point","coordinates":[-5.438308,36.112999]},"properties":{"id":"VUT/CA/15511","type":"VUT","group":"Completa","address":"CALLE ROSA DE LOS VIENTOS Nº 67 Compl.Dom. URB. CAMPO DE GOLF","postal_code":"11207","places":8,"units":4,"registered":"2022-09-12","catastro":"0695510TE8909N0001IP","holder":null,"holder_count":null}},{"type":"Feature","geometry":{"type":"Point","coordinates":[-5.451239,36.130302]},"properties":{"id":"VUT/CA/15650","type":"VUT","group":"Completa","address":"CALLE TENIENTE MIRANDA Nº 29","postal_code":"11201","places":2,"units":1,"registered":"2022-09-29","catastro":"9514519TF7091S0001ZF","holder":null,"holder_count":null}},{"type":"Feature","geometry":{"type":"Point","coordinates":[-5.448036,36.129624]},"properties":{"id":"VUT/CA/15853","type":"VUT","group":"Completa","address":"CALLE GENERAL CASTAÑOS Nº 23 Plta/Piso 2 Pta/Letra B, piso 2, puerta B","postal_code":"11201","places":4,"units":2,"registered":"2022-11-11","catastro":"9812229TF7091S0006BL","holder":null,"holder_count":null}},{"type":"Feature","geometry":{"type":"Point","coordinates":[-5.447808,36.13113]},"properties":{"id":"VUT/CA/16044","type":"VUT","group":"Completa","address":"CALLE santisimo Nº 2","postal_code":"11201","places":14,"units":7,"registered":"2022-12-22","catastro":"9814103TF7091S0001WF","holder":"ipoint comunicacion masiva,S.L.","holder_count":1}},{"type":"Feature","geometry":{"type":"Point","coordinates":[-5.452662,36.160244]},"properties":{"id":"VUT/CA/16170","type":"VUT","group":"Completa","address":"CALLE FLAMENCO Nº 20","postal_code":"11205","places":15,"units":12,"registered":"2023-01-18","catastro":"9547011TF7094N0001EA","holder":"UNOVI, S.L.","holder_count":1}},{"type":"Feature","geometry":{"type":"Point","coordinates":[-5.44742,36.101385]},"properties":{"id":"VUT/CA/16213","type":"VUT","group":"Completa","address":"URBANIZACION JARDINES DE ALGETARES Nº 29 Plta/Piso 3 Pta/Letra B, piso 3, puerta B","postal_code":"11207","places":4,"units":2,"registered":"2023-01-25","catastro":"9782202TE7998S0174LA","holder":null,"holder_count":null}},{"type":"Feature","geometry":{"type":"Point","coordinates":[-5.452636,36.129986]},"properties":{"id":"VUT/CA/16287","type":"VUT","group":"Por habitaciones","address":"CALLE MARIA AUXILIADORA Nº 17 Esc. 1 Plta/Piso 3 Pta/Letra C, piso 3, puerta C","postal_code":"11203","places":4,"units":2,"registered":"2023-02-02","catastro":"9413626TF7091S0020IR","holder":null,"holder_count":null}},{"type":"Feature","geometry":{"type":"Point","coordinates":[-5.448373,36.096398]},"properties":{"id":"VUT/CA/16728","type":"VUT","group":"Completa","address":"URBANIZACION LOS CAMAROTES DEL RIO PICARO Nº 3 Blq. 5 Esc. 2 Pta/Letra 8, puerta 8","postal_code":"11207","places":2,"units":1,"registered":"2023-03-14","catastro":"9776201TE7997N0043HU","holder":null,"holder_count":null}},{"type":"Feature","geometry":{"type":"Point","coordinates":[-5.446624,36.129519]},"properties":{"id":"VUT/CA/17181","type":"VUT","group":"Por habitaciones","address":"CALLE Teniente Serra Nº 5 Plta/Piso 2 Pta/Letra B, piso 2, puerta B","postal_code":"11201","places":1,"units":1,"registered":"2023-04-21","catastro":"9912212TF7091S0008EZ","holder":null,"holder_count":null}},{"type":"Feature","geometry":{"type":"Point","coordinates":[-5.452788,36.132913]},"properties":{"id":"VUT/CA/17457","type":"VUT","group":"Completa","address":"CALLE FUENTENUEVA Nº 6 Plta/Piso 2 Pta/Letra 13, piso 2, puerta 13","postal_code":"11201","places":2,"units":1,"registered":"2023-05-10","catastro":"9416112TF7091N0014HH","holder":"JOSÉ FUENTES MARTÍNEZ, S.L.","holder_count":1}},{"type":"Feature","geometry":{"type":"Point","coordinates":[-5.448373,36.096398]},"properties":{"id":"VUT/CA/17818","type":"VUT","group":"Completa","address":"URBANIZACION LOS CAMAROTES DEL RIO PICARO 3 FASE Blq. 5 Portal 1 Esc. 0 Plta/Piso 2 Pta/Letra 8, piso 2, puerta 8","postal_code":"11207","places":2,"units":1,"registered":"2023-06-05","catastro":"9776201TE7997N0043HU","holder":null,"holder_count":null}},{"type":"Feature","geometry":{"type":"Point","coordinates":[-5.453112,36.134009]},"properties":{"id":"VUT/CA/17936","type":"VUT","group":"Completa","address":"CALLE LANZAROTE Nº 1 Blq. 4 Plta/Piso 3 Pta/Letra A, piso 3, puerta A","postal_code":"11203","places":4,"units":2,"registered":"2023-06-12","catastro":"9317601TF7091N0040JP","holder":null,"holder_count":null}},{"type":"Feature","geometry":{"type":"Point","coordinates":[-5.451694,36.143742]},"properties":{"id":"VUT/CA/18596","type":"VUT","group":"Completa","address":"CALLE MAESTRO MILLAN PICAZO Nº 50 Blq. 4 Portal D Plta/Piso 2 Pta/Letra G, piso 2, puerta G","postal_code":"11204","places":6,"units":3,"registered":"2023-08-08","catastro":"9530023TF7093S0096DQ","holder":null,"holder_count":null}},{"type":"Feature","geometry":{"type":"Point","coordinates":[-5.45189,36.121712]},"properties":{"id":"VUT/CA/18627","type":"VUT","group":"Por habitaciones","address":"CALLE Guadalquivir Nº 3 Plta/Piso 4 Pta/Letra A, piso 4, puerta A","postal_code":"11206","places":6,"units":4,"registered":"2023-08-13","catastro":"9403201TF7090S0018JA","holder":null,"holder_count":null}},{"type":"Feature","geometry":{"type":"Point","coordinates":[-5.451283,36.127866]},"properties":{"id":"VUT/CA/18716","type":"VUT","group":"Completa","address":"AVENIDA Agustín Bálsamo Nº 12 Portal 3 Plta/Piso 1 Pta/Letra B, piso 1, puerta B","postal_code":"11203","places":2,"units":1,"registered":"2023-08-28","catastro":"9511478TF7091S0298PZ","holder":null,"holder_count":null}},{"type":"Feature","geometry":{"type":"Point","coordinates":[-5.452032,36.128304]},"properties":{"id":"VUT/CA/18902","type":"VUT","group":"Completa","address":"CALLE DON BOSCO Nº 18 Plta/Piso 2 Pta/Letra C Compl.Dom. EDIFICIO ALFOR, piso 2, puerta C","postal_code":"11203","places":5,"units":3,"registered":"2023-10-04","catastro":"9511481TF7091S0020HR","holder":null,"holder_count":null}},{"type":"Feature","geometry":{"type":"Point","coordinates":[-5.432659,36.073174]},"properties":{"id":"VUT/CA/19406","type":"VUT","group":"Completa","address":"CALLE CENTOLLA Nº 194","postal_code":"11207","places":6,"units":3,"registered":"2024-01-12","catastro":"07480J4TE8904N0001OJ","holder":null,"holder_count":null}},{"type":"Feature","geometry":{"type":"Point","coordinates":[-5.451956,36.147437]},"properties":{"id":"VUT/CA/19468","type":"VUT","group":"Completa","address":"AVENIDA ESPAÑA Portal 4 Plta/Piso 7 Pta/Letra C, piso 7, puerta C","postal_code":"11205","places":7,"units":3,"registered":"2024-01-21","catastro":"9432304TF7093S0034BE","holder":null,"holder_count":null}},{"type":"Feature","geometry":{"type":"Point","coordinates":[-5.449453,36.12875]},"properties":{"id":"VUT/CA/19498","type":"VUT","group":"Completa","address":"CALLE TENIENTE MIRANDA Nº 82 Esc. 1 Pta/Letra 2, puerta 2","postal_code":"11201","places":2,"units":1,"registered":"2024-01-23","catastro":"9711130TF7091S0003ZH","holder":"NERMIRA PATRIMONIAL, S.L.","holder_count":1}},{"type":"Feature","geometry":{"type":"Point","coordinates":[-5.468347,36.141448]},"properties":{"id":"VUT/CA/19502","type":"VUT","group":"Completa","address":"CALLE AMERICA -RES LOS CARMENES Nº 139","postal_code":"11204","places":5,"units":3,"registered":"2024-01-23","catastro":"8137303TF7083N0142OX","holder":null,"holder_count":null}},{"type":"Feature","geometry":{"type":"Point","coordinates":[-5.452395,36.13161]},"properties":{"id":"VUT/CA/20230","type":"VUT","group":"Completa","address":"CALLE RUIZ ZORRILLA Nº 26 Plta/Piso 1 Pta/Letra C, piso 1, puerta C","postal_code":"11203","places":6,"units":2,"registered":"2024-04-09","catastro":"9314309TF7091S0004GJ","holder":null,"holder_count":null}},{"type":"Feature","geometry":{"type":"Point","coordinates":[-5.453298,36.127772]},"properties":{"id":"VUT/CA/20243","type":"VUT","group":"Completa","address":"CALLE AGUSTIN BALSAMO Nº 46 Calif.Nº 1-2 Compl.Dom. ESQUINA CON CALLE DOMINGO SAVIO","postal_code":"11203","places":3,"units":1,"registered":"2024-04-10","catastro":"9311701TF7091S1002OD","holder":null,"holder_count":null}},{"type":"Feature","geometry":{"type":"Point","coordinates":[-5.442951,36.124495]},"properties":{"id":"VUT/CA/20283","type":"VUT","group":"Completa","address":"PASEO CONFERENCIA Nº 13 Esc. 2 Plta/Piso 6 Pta/Letra J, piso 6, puerta J","postal_code":"11207","places":3,"units":2,"registered":"2024-04-16","catastro":"0207608TF8000N0016DM","holder":"MULTISERVICIOS Y PUBLICIDAD ONLINE S.L.","holder_count":2}},{"type":"Feature","geometry":{"type":"Point","coordinates":[-5.448373,36.096398]},"properties":{"id":"VUT/CA/20293","type":"VUT","group":"Completa","address":"URBANIZACION LOS CAMAROTES DE ALGETARES, NUEVA  GENERACION Nº 3 Blq. 3 Plta/Piso 2 Pta/Letra 30, piso 2, puerta 30","postal_code":"11207","places":4,"units":1,"registered":"2024-04-16","catastro":"9776201TE7997N0141JI","holder":null,"holder_count":null}},{"type":"Feature","geometry":{"type":"Point","coordinates":[-5.446277,36.126946]},"properties":{"id":"VUT/CA/20538","type":"VUT","group":"Completa","address":"CALLE SEGISMUNDO MOVET Nº 10","postal_code":"11401","places":13,"units":4,"registered":"2024-05-07","catastro":"9910608TF7091S0001HF","holder":null,"holder_count":null}},{"type":"Feature","geometry":{"type":"Point","coordinates":[-5.455771,36.129081]},"properties":{"id":"VUT/CA/20553","type":"VUT","group":"Completa","address":"CALLE Prolongación Murcia 2 / Calle urbanización los Arcos 2 Nº 2 Blq. 2 Plta/Piso 6 Pta/Letra D, piso 6, puerta D","postal_code":"11203","places":8,"units":4,"registered":"2024-05-08","catastro":"9013041TF7091S0028DS","holder":null,"holder_count":null}},{"type":"Feature","geometry":{"type":"Point","coordinates":[-5.443458,36.160073]},"properties":{"id":"VUT/CA/20954","type":"VUT","group":"Completa","address":"CALLE CABO CREUS Nº 9 Esc. 1 Plta/Piso BAJO Pta/Letra D, piso BAJO, puerta D","postal_code":"11205","places":4,"units":2,"registered":"2024-06-05","catastro":"0246146TF8004N0004ID","holder":null,"holder_count":null}},{"type":"Feature","geometry":{"type":"Point","coordinates":[-5.447573,36.131513]},"properties":{"id":"VUT/CA/21337","type":"VUT","group":"Por habitaciones","address":"PLAZA ALTA Nº 4 Plta/Piso 1, piso 1","postal_code":"11201","places":6,"units":3,"registered":"2024-07-04","catastro":"9815906TF7091N0002ZU","holder":null,"holder_count":null}},{"type":"Feature","geometry":{"type":"Point","coordinates":[-5.464211,36.148225]},"properties":{"id":"VUT/CA/21424","type":"VUT","group":"Completa","address":"CALLE adalides Nº 9 Pta/Letra 9, puerta 9","postal_code":"11204","places":4,"units":1,"registered":"2024-07-11","catastro":"8534033TF7083S0032FB","holder":null,"holder_count":null}},{"type":"Feature","geometry":{"type":"Point","coordinates":[-5.450542,36.127355]},"properties":{"id":"VUT/CA/21546","type":"VUT","group":"Por habitaciones","address":"AVENIDA Agustín bálsamo Nº 10 Blq. 1 Portal 1 Plta/Piso 3º Pta/Letra Dch, piso 3º, puerta Dch","postal_code":"11203","places":6,"units":4,"registered":"2024-07-23","catastro":"9511416TF7091S0007RB","holder":null,"holder_count":null}},{"type":"Feature","geometry":{"type":"Point","coordinates":[-5.453046,36.132971]},"properties":{"id":"VUT/CA/21565","type":"VUT","group":"Completa","address":"URBANIZACION SAN FRANCISCO Nº 5 Blq. 1 Esc. 1 Plta/Piso 2 Pta/Letra 1, piso 2, puerta 1","postal_code":"11203","places":4,"units":1,"registered":"2024-07-24","catastro":"9317608TF7091N0004PO","holder":null,"holder_count":null}},{"type":"Feature","geometry":{"type":"Point","coordinates":[-5.450217,36.135718]},"properties":{"id":"VUT/CA/21579","type":"VUT","group":"Por habitaciones","address":"AVENIDA FUERZAS ARMADAS Nº 20 Plta/Piso 4 Pta/Letra B, piso 4, puerta B","postal_code":"11202","places":6,"units":4,"registered":"2024-07-25","catastro":"9619201TF7091N0020LL","holder":null,"holder_count":null}},{"type":"Feature","geometry":{"type":"Point","coordinates":[-5.452063,36.159843]},"properties":{"id":"VUT/CA/21621","type":"VUT","group":"Completa","address":"CALLE MANDARÍN Nº 1","postal_code":"11205","places":4,"units":2,"registered":"2024-07-29","catastro":"9547021TF7094N0001BA","holder":"UNOVI PROYECTOS Y DESARROLLOS, S.L.","holder_count":1}},{"type":"Feature","geometry":{"type":"Point","coordinates":[-5.447206,36.1304]},"properties":{"id":"VUT/CA/21719","type":"VUT","group":"Completa","address":"CALLE joaquin costa Nº 5","postal_code":"11201","places":14,"units":8,"registered":"2024-08-07","catastro":"9914707TF7091S0001IF","holder":"HAWKINS REAL STATE SL","holder_count":1}},{"type":"Feature","geometry":{"type":"Point","coordinates":[-5.446592,36.098309]},"properties":{"id":"VUT/CA/21822","type":"VUT","group":"Completa","address":"CALLE Orion Nº 8 Blq. 3 Pta/Letra H, puerta H","postal_code":"11207","places":4,"units":2,"registered":"2024-08-20","catastro":"97809L3TE7998S0025YB","holder":null,"holder_count":null}},{"type":"Feature","geometry":{"type":"Point","coordinates":[-5.444509,36.112999]},"properties":{"id":"VUT/CA/21858","type":"VUT","group":"Completa","address":"CALLE Venus Nº 23 Compl.Dom. Las Lomas de San Garcia","postal_code":"11207","places":5,"units":3,"registered":"2024-08-24","catastro":"0094701TE8909S0087ZA","holder":null,"holder_count":null}},{"type":"Feature","geometry":{"type":"Point","coordinates":[-5.437211,36.070474]},"properties":{"id":"VUT/CA/21899","type":"VUT","group":"Completa","address":"CALLE ortigas Nº 235","postal_code":"11207","places":6,"units":3,"registered":"2024-08-30","catastro":"07480N5TE8904N0001JJ","holder":null,"holder_count":null}},{"type":"Feature","geometry":{"type":"Point","coordinates":[-5.442978,36.124767]},"properties":{"id":"VUT/CA/21911","type":"VUT","group":"Completa","address":"CALLE PASEO DE LA CONFERENCIA Nº 11 Plta/Piso 7 Pta/Letra A, piso 7, puerta A","postal_code":"11207","places":8,"units":2,"registered":"2024-09-02","catastro":"0207607TF8000N0012ML","holder":null,"holder_count":null}},{"type":"Feature","geometry":{"type":"Point","coordinates":[-5.454318,36.142451]},"properties":{"id":"VUT/CA/21973","type":"VUT","group":"Completa","address":"AVENIDA VIRGEN DEL CARMEN Nº 58 Portal D Plta/Piso 1 Pta/Letra DRCH, piso 1, puerta DRCH","postal_code":"11206","places":7,"units":3,"registered":"2024-09-12","catastro":"9227346TF7092N0041QT","holder":null,"holder_count":null}},{"type":"Feature","geometry":{"type":"Point","coordinates":[-5.454318,36.142451]},"properties":{"id":"VUT/CA/22017","type":"VUT","group":"Completa","address":"AVENIDA VIRGEN DEL CARMEN Nº 58 Portal D Plta/Piso 1 Pta/Letra DCHA, piso 1, puerta DCHA","postal_code":"11204","places":7,"units":3,"registered":"2024-09-19","catastro":"9227346TF7092N0041QT","holder":null,"holder_count":null}},{"type":"Feature","geometry":{"type":"Point","coordinates":[-5.44458,36.160514]},"properties":{"id":"VUT/CA/22036","type":"VUT","group":"Completa","address":"CALLE CABO CREUS Nº 16 Portal 2 Plta/Piso 2 Pta/Letra B Compl.Dom. APARTAMENTOS DANY, piso 2, puerta B","postal_code":"11205","places":8,"units":3,"registered":"2024-09-24","catastro":"0248718TF8004N0037PF","holder":null,"holder_count":null}},{"type":"Feature","geometry":{"type":"Point","coordinates":[-5.446687,36.131865]},"properties":{"id":"VUT/CA/22055","type":"VUT","group":"Completa","address":"CALLE PABLO MAYAYO Nº 34 Plta/Piso 3 Pta/Letra B, piso 3, puerta B","postal_code":"11201","places":2,"units":1,"registered":"2024-09-26","catastro":"9915802TF7091N0068ZO","holder":null,"holder_count":null}},{"type":"Feature","geometry":{"type":"Point","coordinates":[-5.434975,36.070814]},"properties":{"id":"VUT/CA/22167","type":"VUT","group":"Completa","address":"CALLE CARACOLAS Nº 115","postal_code":"11207","places":9,"units":3,"registered":"2024-10-16","catastro":"07480B5TE8904N0001BJ","holder":"PARRAGA PROPERTIES","holder_count":1}},{"type":"Feature","geometry":{"type":"Point","coordinates":[-5.453951,36.148115]},"properties":{"id":"VUT/CA/22183","type":"VUT","group":"Completa","address":"AVENIDA Farcia Portal 4 Plta/Piso 9 Pta/Letra A, piso 9, puerta A","postal_code":"11205","places":4,"units":2,"registered":"2024-10-18","catastro":"9334503TF7093S0043BO","holder":null,"holder_count":null}},{"type":"Feature","geometry":{"type":"Point","coordinates":[-5.446687,36.131865]},"properties":{"id":"VUT/CA/22197","type":"VUT","group":"Completa","address":"CALLE PABLO MAYAYO Nº 34 Esc. 3 Plta/Piso 3 Pta/Letra C, piso 3, puerta C","postal_code":"11201","places":2,"units":1,"registered":"2024-10-21","catastro":"9915802TF7091N0069XP","holder":null,"holder_count":null}},{"type":"Feature","geometry":{"type":"Point","coordinates":[-5.447449,36.135509]},"properties":{"id":"VUT/CA/22205","type":"VUT","group":"Completa","address":"AVENIDA CAPITÁN ONTAÑÓN Nº S/N Portal 10 Plta/Piso 7 Pta/Letra F Compl.Dom. EDIFICIO PLAZA MAYOR, piso 7, puerta F","postal_code":"11202","places":6,"units":2,"registered":"2024-10-22","catastro":"9819704TF7091N0112WJ","holder":null,"holder_count":null}},{"type":"Feature","geometry":{"type":"Point","coordinates":[-5.613647,36.019371]},"properties":{"id":"VUT/CA/22206","type":"VUT","group":"Completa","address":"AVENIDA CAPITÁN ONTAÑÓN EDIFICIO PLAZA MAYOR Portal 12 Plta/Piso 7 Pta/Letra G-2, piso 7, puerta G-2","postal_code":"11202","places":6,"units":2,"registered":"2024-10-22","catastro":"4594701TE6849S0002KY","holder":null,"holder_count":null}},{"type":"Feature","geometry":{"type":"Point","coordinates":[-5.450423,36.139643]},"properties":{"id":"VUT/CA/22240","type":"VUT","group":"Completa","address":"CALLE Jacinto Benavente Blq. 2 Plta/Piso B Pta/Letra E, piso B, puerta E","postal_code":"11204","places":4,"units":2,"registered":"2024-10-27","catastro":"9623308TF7092S0005DS","holder":null,"holder_count":null}},{"type":"Feature","geometry":{"type":"Point","coordinates":[-5.445046,36.159977]},"properties":{"id":"VUT/CA/22369","type":"VUT","group":"Completa","address":"URBANIZACION BAHÍA AZUL Nº 28","postal_code":"11205","places":6,"units":4,"registered":"2024-11-17","catastro":"0246137TF8004N0001BP","holder":null,"holder_count":null}},{"type":"Feature","geometry":{"type":"Point","coordinates":[-5.452464,36.132814]},"properties":{"id":"VUT/CA/22392","type":"VUT","group":"Completa","address":"CALLE Ruiz zorrilla Esc. 1 Pta/Letra b Compl.Dom. Edificio cachafeiro, puerta b","postal_code":"11203","places":5,"units":3,"registered":"2024-11-20","catastro":"9314301TF7091S0010GB","holder":null,"holder_count":null}},{"type":"Feature","geometry":{"type":"Point","coordinates":[-5.445135,36.099272]},"properties":{"id":"VUT/CA/22501","type":"VUT","group":"Completa","address":"URBANIZACION PLAYA DE GETARES Nº 107","postal_code":"11207","places":6,"units":3,"registered":"2024-12-10","catastro":"97809A7TE7998S0001ZW","holder":null,"holder_count":null}},{"type":"Feature","geometry":{"type":"Point","coordinates":[-5.450858,36.147357]},"properties":{"id":"VUT/CA/22575","type":"VUT","group":"Completa","address":"AVENIDA ESPAÑA Nº 3 Esc. 1 Plta/Piso 10 Pta/Letra B, piso 10, puerta B","postal_code":"11205","places":7,"units":3,"registered":"2024-12-19","catastro":"9632107TF7093S0076UP","holder":"INVERSIONES CATEO SL","holder_count":1}},{"type":"Feature","geometry":{"type":"Point","coordinates":[-5.445887,36.133661]},"properties":{"id":"VUT/CA/22689","type":"VUT","group":"Completa","address":"AVENIDA VIRGEN DEL CARMEN Nº 45 Plta/Piso 5 Pta/Letra H Compl.Dom. EDIFICIO ROTABEL, piso 5, puerta H","postal_code":"11201","places":6,"units":2,"registered":"2025-01-13","catastro":"9917603TF7091N0093WW","holder":null,"holder_count":null}},{"type":"Feature","geometry":{"type":"Point","coordinates":[-5.446423,36.168029]},"properties":{"id":"VUT/CA/22728","type":"VUT","group":"Completa","address":"CARRETERA De la Mediana Nº SN Pta/Letra Parcela 11, puerta Parcela 11","postal_code":"11205","places":4,"units":1,"registered":"2025-01-17","catastro":"11004A003000080000GW","holder":null,"holder_count":null}},{"type":"Feature","geometry":{"type":"Point","coordinates":[-5.438222,36.071393]},"properties":{"id":"VUT/CA/22981","type":"VUT","group":"Por habitaciones","address":"LUGAR GETARES. CALLE CENTOLLO Nº 338","postal_code":"11207","places":6,"units":2,"registered":"2025-02-14","catastro":"07480N9TE8904N0001UJ","holder":null,"holder_count":null}},{"type":"Feature","geometry":{"type":"Point","coordinates":[-5.448373,36.096398]},"properties":{"id":"VUT/CA/23049","type":"VUT","group":"Completa","address":"RESIDENCIAL Los camarotes de algetares, nueva generacion Blq. 2 Plta/Piso 1 Pta/Letra 1, piso 1, puerta 1","postal_code":"11207","places":4,"units":3,"registered":"2025-02-20","catastro":"9776201TE7997N0265GY","holder":null,"holder_count":null}},{"type":"Feature","geometry":{"type":"Point","coordinates":[-5.449062,36.149514]},"properties":{"id":"VUT/CA/23165","type":"VUT","group":"Completa","address":"AVENIDA ITALIA Nº 2 Plta/Piso 7 Pta/Letra B, piso 7, puerta B","postal_code":"11205","places":6,"units":3,"registered":"2025-03-04","catastro":"9736010TF7093N0034IK","holder":null,"holder_count":null}},{"type":"Feature","geometry":{"type":"Point","coordinates":[-5.449062,36.149514]},"properties":{"id":"VUT/CA/23166","type":"VUT","group":"Completa","address":"AVENIDA ITALIA Nº 2 Plta/Piso 7 Pta/Letra C, piso 7, puerta C","postal_code":"11205","places":6,"units":4,"registered":"2025-03-04","catastro":"9736010TF7093N0035OL","holder":null,"holder_count":null}},{"type":"Feature","geometry":{"type":"Point","coordinates":[-5.449412,36.131137]},"properties":{"id":"VUT/CA/23254","type":"VUT","group":"Completa","address":"CALLE Rocha Nº 26 Blq. 3","postal_code":"11201","places":8,"units":10,"registered":"2025-03-08","catastro":"9714110TF7091S0001MF","holder":null,"holder_count":null}},{"type":"Feature","geometry":{"type":"Point","coordinates":[-5.448504,36.131699]},"properties":{"id":"VUT/CA/23419","type":"VUT","group":"Completa","address":"CALLE REGINO MARTINEZ Nº 30 Plta/Piso 3, piso 3","postal_code":"11201","places":2,"units":2,"registered":"2025-03-19","catastro":"9715904TF7091N0009KF","holder":null,"holder_count":null}},{"type":"Feature","geometry":{"type":"Point","coordinates":[-5.445978,36.131114]},"properties":{"id":"VUT/CA/23482","type":"VUT","group":"Completa","address":"AVENIDA VIRGEN DEL CARMEN Nº 29 Calif.Nº BIS Plta/Piso 12 Pta/Letra D Compl.Dom. EDIFICIO ATLÁNTIDA, piso 12, puerta D","postal_code":"11201","places":2,"units":1,"registered":"2025-03-21","catastro":"0014701TF8001S0093BO","holder":null,"holder_count":null}},{"type":"Feature","geometry":{"type":"Point","coordinates":[-5.452558,36.135507]},"properties":{"id":"VUT/CA/23780","type":"VUT","group":"Completa","address":"URBANIZACION Carteya Blq. 2 Plta/Piso 2 Pta/Letra D, piso 2, puerta D","postal_code":"11202","places":5,"units":2,"registered":"2025-04-01","catastro":"9420904TF7092S0038ED","holder":null,"holder_count":null}},{"type":"Feature","geometry":{"type":"Point","coordinates":[-5.451445,36.13438]},"properties":{"id":"VUT/CA/23795","type":"VUT","group":"Completa","address":"PLAZA INMACULADA Nº 1 Blq. B Esc. 5 Plta/Piso 7 Pta/Letra D, piso 7, puerta D","postal_code":"11202","places":6,"units":4,"registered":"2025-04-01","catastro":"9518706TF7091N0422OP","holder":null,"holder_count":null}},{"type":"Feature","geometry":{"type":"Point","coordinates":[-5.454812,36.133808]},"properties":{"id":"VUT/CA/23860","type":"VUT","group":"Completa","address":"PROLONGACION SANTA ISABEL Nº 2A","postal_code":"11203","places":6,"units":2,"registered":"2025-04-02","catastro":"9218703TF7091N0001WY","holder":"CARPINTERIA ALGECIREÑA, S.L.","holder_count":4}},{"type":"Feature","geometry":{"type":"Point","coordinates":[-5.454812,36.133808]},"properties":{"id":"VUT/CA/23865","type":"VUT","group":"Completa","address":"PROLONGACION SANTA ISABEL Nº 2B","postal_code":"11203","places":4,"units":1,"registered":"2025-04-02","catastro":"9218703TF7091N0001WY","holder":"CARPINTERIA ALGECIREÑA, S.L.","holder_count":4}},{"type":"Feature","geometry":{"type":"Point","coordinates":[-5.454812,36.133808]},"properties":{"id":"VUT/CA/23871","type":"VUT","group":"Completa","address":"PROLONGACION SANTA ISABEL Nº 2C","postal_code":"11203","places":4,"units":1,"registered":"2025-04-02","catastro":"9218703TF7091N0001WY","holder":"CARPINTERIA ALGECIREÑA, S.L.","holder_count":4}},{"type":"Feature","geometry":{"type":"Point","coordinates":[-5.434147,36.072912]},"properties":{"id":"VUT/CA/24023","type":"VUT","group":"Por habitaciones","address":"CALLE Ortigas Nº 216","postal_code":"11207","places":2,"units":1,"registered":"2025-04-08","catastro":"07480L6TE8904N0001GJ","holder":null,"holder_count":null}},{"type":"Feature","geometry":{"type":"Point","coordinates":[-5.444509,36.112999]},"properties":{"id":"VUT/CA/24211","type":"VUT","group":"Completa","address":"CALLE Venus Nº 23 Compl.Dom. Urbanización Las Lomas de San Garcia","postal_code":"11207","places":5,"units":3,"registered":"2025-05-09","catastro":"0094701TE8909S0087ZA","holder":null,"holder_count":null}},{"type":"Feature","geometry":{"type":"Point","coordinates":[-5.436587,36.07126]},"properties":{"id":"VUT/CA/24229","type":"VUT","group":"Por habitaciones","address":"CALLE ERIZOS Nº 267","postal_code":"11207","places":6,"units":3,"registered":"2025-05-14","catastro":"07480Q7TE8904N0001AJ","holder":null,"holder_count":null}},{"type":"Feature","geometry":{"type":"Point","coordinates":[-5.448677,36.109503]},"properties":{"id":"VUT/CA/24373","type":"VUT","group":"Completa","address":"CALLE Torre del Fraile Nº 4 Compl.Dom. Urbanización Sotorebolo","postal_code":"11207","places":6,"units":4,"registered":"2025-05-28","catastro":"9690603TE7999S0003QZ","holder":null,"holder_count":null}},{"type":"Feature","geometry":{"type":"Point","coordinates":[-5.451872,36.125136]},"properties":{"id":"VUT/CA/24485","type":"VUT","group":"Completa","address":"CALLE Río la Miel Nº 40","postal_code":"11206","places":5,"units":1,"registered":"2025-06-08","catastro":"9407305TF7090N0001JS","holder":null,"holder_count":null}},{"type":"Feature","geometry":{"type":"Point","coordinates":[-5.446592,36.098309]},"properties":{"id":"VUT/CA/24500","type":"VUT","group":"Completa","address":"CALLE orion Blq. 4 Plta/Piso 2 Pta/Letra G, piso 2, puerta G","postal_code":"11207","places":4,"units":2,"registered":"2025-06-09","catastro":"97809L3TE7998S0035DR","holder":null,"holder_count":null}},{"type":"Feature","geometry":{"type":"Point","coordinates":[-5.441554,36.102431]},"properties":{"id":"VUT/CA/24504","type":"VUT","group":"Completa","address":"CALLE DEL LINCE Esc. 1 Plta/Piso 1 Pta/Letra 8 Compl.Dom. RESIDENCIAL LOS DELFINES, piso 1, puerta 8","postal_code":"11207","places":3,"units":1,"registered":"2025-06-10","catastro":"09889J3TE8908N0042TX","holder":"AHUMADA INVERSIONES SL","holder_count":1}},{"type":"Feature","geometry":{"type":"Point","coordinates":[-5.448966,36.138074]},"properties":{"id":"VUT/CA/24563","type":"VUT","group":"Por habitaciones","address":"AVENIDA VIRGEN DEL CARMEN Nº 81 Plta/Piso 1 Pta/Letra C Compl.Dom. ESQUINA  C/ CAPITÁN ONTAÑÓN, piso 1, puerta C","postal_code":"11201","places":6,"units":4,"registered":"2025-06-13","catastro":"9722501TF7092S0008JG","holder":null,"holder_count":null}},{"type":"Feature","geometry":{"type":"Point","coordinates":[-5.448966,36.138074]},"properties":{"id":"VUT/CA/24565","type":"VUT","group":"Completa","address":"AVENIDA VIRGEN DEL CARMEN Nº 81 Plta/Piso 1 Pta/Letra B, piso 1, puerta B","postal_code":"11201","places":8,"units":2,"registered":"2025-06-13","catastro":"9722501TF7092S0007HF","holder":null,"holder_count":null}},{"type":"Feature","geometry":{"type":"Point","coordinates":[-5.459669,36.130779]},"properties":{"id":"VUT/CA/24650","type":"VUT","group":"Completa","address":"CALLE SANTA MARIA MICAELA Nº 54","postal_code":"11203","places":4,"units":4,"registered":"2025-06-26","catastro":"8714215TF7081S0001DP","holder":null,"holder_count":null}},{"type":"Feature","geometry":{"type":"Point","coordinates":[-5.443388,36.159362]},"properties":{"id":"VUT/CA/24741","type":"VUT","group":"Completa","address":"URBANIZACION BAHIA AZUL Nº 42","postal_code":"11205","places":6,"units":2,"registered":"2025-06-26","catastro":"0245222TF8004N0001EP","holder":"LAGAR DE MONIGOTE S.L.","holder_count":1}},{"type":"Feature","geometry":{"type":"Point","coordinates":[-5.452472,36.125099]},"properties":{"id":"VUT/CA/25009","type":"VUT","group":"Completa","address":"CALLE ANDALUCIA Nº 52","postal_code":"11206","places":5,"units":2,"registered":"2025-07-24","catastro":"9407358TF7090N0001FS","holder":"MULTISERVICIOS Y PUBLICIDAD ONLINE S.L.","holder_count":2}},{"type":"Feature","geometry":{"type":"Point","coordinates":[-5.446672,36.157298]},"properties":{"id":"VUT/CA/25011","type":"VUT","group":"Completa","address":"CALLE CABO SANTA POLA Nº 2","postal_code":"11204","places":5,"units":3,"registered":"2025-07-25","catastro":"9643637TF7094S0001KL","holder":"GLOBAL 3 EUROPEAN SERVICES S.L.","holder_count":1}},{"type":"Feature","geometry":{"type":"Point","coordinates":[-5.447566,36.151309]},"properties":{"id":"VUT/CA/25047","type":"VUT","group":"Completa","address":"AVENIDA JESUS SANCHEZ MADERO Nº 19 Esc. 1","postal_code":"11205","places":5,"units":1,"registered":"2025-07-31","catastro":"9931011TF7093S0020AG","holder":null,"holder_count":null}},{"type":"Feature","geometry":{"type":"Point","coordinates":[-5.466459,36.104548]},"properties":{"id":"VUT/CA/25101","type":"VUT","group":"Completa","address":"CALLE HUSKI Nº 25","postal_code":"11206","places":6,"units":3,"registered":"2025-08-11","catastro":"8085217TE7988N0001GD","holder":null,"holder_count":null}},{"type":"Feature","geometry":{"type":"Point","coordinates":[-5.440229,36.06963]},"properties":{"id":"VUT/CA/25165","type":"VUT","group":"Completa","address":"CALLE ERIZOS Nº 393","postal_code":"11207","places":8,"units":4,"registered":"2025-08-26","catastro":"07480BHTE8904N0001QJ","holder":"NERMIRA PATRIMONIAL SL","holder_count":1}},{"type":"Feature","geometry":{"type":"Point","coordinates":[-5.442951,36.124495]},"properties":{"id":"VUT/CA/25199","type":"VUT","group":"Completa","address":"PASEO DE LA CONFERENCIA Nº 13 Plta/Piso 6 Pta/Letra L, piso 6, puerta L","postal_code":"11207","places":2,"units":1,"registered":"2025-09-03","catastro":"0207608TF8000N0018GW","holder":null,"holder_count":null}},{"type":"Feature","geometry":{"type":"Point","coordinates":[-5.431519,36.071763]},"properties":{"id":"VUT/CA/25210","type":"VUT","group":"Por habitaciones","address":"CALLE OSTRAS Nº 62","postal_code":"11207","places":3,"units":1,"registered":"2025-09-05","catastro":"0748062TE8904N0001GJ","holder":null,"holder_count":null}},{"type":"Feature","geometry":{"type":"Point","coordinates":[-5.447494,36.132194]},"properties":{"id":"VUT/CA/25254","type":"VUT","group":"Completa","address":"CALLE Alfonso XI Nº 19 Plta/Piso 2 Pta/Letra G, piso 2, puerta G","postal_code":"11201","places":4,"units":3,"registered":"2025-09-19","catastro":"9916710TF7091N0022PZ","holder":null,"holder_count":null}},{"type":"Feature","geometry":{"type":"Point","coordinates":[-5.466464,36.139805]},"properties":{"id":"VUT/CA/25256","type":"VUT","group":"Completa","address":"URBANIZACION LAS LOMAS DE SAN BERNABÉ Nº 38 Blq. 2","postal_code":"11204","places":6,"units":3,"registered":"2025-09-21","catastro":"8124601TF7082S0038KO","holder":"RENTAL MANAGER SL","holder_count":4}},{"type":"Feature","geometry":{"type":"Point","coordinates":[-5.453562,36.133701]},"properties":{"id":"VUT/CA/25282","type":"VUT","group":"Completa","address":"CALLE CALLE LANZAROTE Nº 5 Plta/Piso 2 Pta/Letra A, piso 2, puerta A","postal_code":"11203","places":6,"units":3,"registered":"2025-09-26","catastro":"9317661TF7091N0005RP","holder":null,"holder_count":null}},{"type":"Feature","geometry":{"type":"Point","coordinates":[-5.447052,36.129153]},"properties":{"id":"VUT/CA/25354","type":"VUT","group":"Completa","address":"CALLE CRISTOBAL COLON Nº 32 Plta/Piso 1, piso 1","postal_code":"11201","places":4,"units":2,"registered":"2025-10-15","catastro":"9812902TF7091S0004KJ","holder":null,"holder_count":null}},{"type":"Feature","geometry":{"type":"Point","coordinates":[-5.454812,36.133808]},"properties":{"id":"VUT/CA/25387","type":"VUT","group":"Completa","address":"PROLONGACION CALLE SANTA ISABEL Nº 2E","postal_code":"11203","places":4,"units":1,"registered":"2025-10-24","catastro":"9218703TF7091N0001WY","holder":"CARPINTERIA ALGECIREÑA, S.L.","holder_count":4}},{"type":"Feature","geometry":{"type":"Point","coordinates":[-5.446641,36.131313]},"properties":{"id":"VUT/CA/25485","type":"VUT","group":"Completa","address":"PLAZA ALTA Nº 8","postal_code":"11201","places":1,"units":1,"registered":"2025-11-18","catastro":"9915410TF7091N0232YA","holder":null,"holder_count":null}},{"type":"Feature","geometry":{"type":"Point","coordinates":[-5.454812,36.133808]},"properties":{"id":"VUT/CA/25513","type":"VUT","group":"Completa","address":"CALLE SANTA ISABEL Nº 2 Pta/Letra E, puerta E","postal_code":"11203","places":4,"units":1,"registered":"2025-11-26","catastro":"9218703TF7091N0005YP","holder":"RENTAL MANAGER SL","holder_count":4}},{"type":"Feature","geometry":{"type":"Point","coordinates":[-5.452472,36.125099]},"properties":{"id":"VUT/CA/25633","type":"VUT","group":"Completa","address":"CALLE Andalucia Nº 52","postal_code":"11206","places":5,"units":2,"registered":"2026-01-03","catastro":"9407358TF7090N0001FS","holder":"RENTAL MANAGER SL","holder_count":4}},{"type":"Feature","geometry":{"type":"Point","coordinates":[-5.448373,36.096398]},"properties":{"id":"VUT/CA/25661","type":"VUT","group":"Completa","address":"AREA Conjunto Residencial Camarotes de Algetares Nº 5 Blq. 1 Compl.Dom. Modulo 1","postal_code":"11207","places":3,"units":1,"registered":"2026-01-14","catastro":"9776201TE7997N0187TL","holder":null,"holder_count":null}},{"type":"Feature","geometry":{"type":"Point","coordinates":[-5.44294,36.107372]},"properties":{"id":"VUT/CA/25699","type":"VUT","group":"Completa","address":"CALLE Fragata Blq. 9 Pta/Letra 12, puerta 12","postal_code":"11206","places":8,"units":4,"registered":"2026-01-21","catastro":"0188916TE8908N0012FQ","holder":"Prados Arana Gestiones SL","holder_count":1}},{"type":"Feature","geometry":{"type":"Point","coordinates":[-5.446662,36.129285]},"properties":{"id":"VUT/CA/25716","type":"VUT","group":"Por habitaciones","address":"CALLE EMILIO CASTELAR, 6 Nº 6 Plta/Piso BJ, piso BJ","postal_code":"11201","places":6,"units":4,"registered":"2026-01-23","catastro":"9912206TF7091S0001GF","holder":null,"holder_count":null}},{"type":"Feature","geometry":{"type":"Point","coordinates":[-5.446858,36.133072]},"properties":{"id":"VUT/CA/25746","type":"VUT","group":"Completa","address":"CALLE SAEZ DE LAGUNA Nº N Calif.Nº 6 Portal B","postal_code":"11201","places":6,"units":2,"registered":"2026-01-29","catastro":"9917908TF7091N0001JY","holder":null,"holder_count":null}},{"type":"Feature","geometry":{"type":"Point","coordinates":[-5.453754,36.125501]},"properties":{"id":"VUT/CA/25942","type":"VUT","group":"Completa","address":"CALLE ANDALUCIA Nº 68","postal_code":"11206","places":2,"units":1,"registered":"2026-03-05","catastro":"9208305TF7090N0001GS","holder":"RENTAL MANAGER SL","holder_count":4}},{"type":"Feature","geometry":{"type":"Point","coordinates":[-5.44798,36.128444]},"properties":{"id":"VUT/CA/26068","type":"VUT","group":"Completa","address":"CALLE EMILIO CASTELAR Nº 41 Plta/Piso 2º, piso 2º","postal_code":"11201","places":2,"units":2,"registered":"2026-03-23","catastro":"9811319TF7091S0003XH","holder":null,"holder_count":null}},{"type":"Feature","geometry":{"type":"Point","coordinates":[-5.44798,36.128444]},"properties":{"id":"VUT/CA/26069","type":"VUT","group":"Completa","address":"CALLE EMILIO CASTELAR Nº 41 Plta/Piso 1º, piso 1º","postal_code":"11201","places":4,"units":2,"registered":"2026-03-23","catastro":"9811319TF7091S0002ZG","holder":null,"holder_count":null}}]}