{"type":"FeatureCollection","municipio":{"slug":"algodonales","name":"Algodonales","total":20,"places":106,"source_updated_at":"2026-10-05"},"features":[{"type":"Feature","geometry":{"type":"Point","coordinates":[-5.457442,36.86495]},"properties":{"id":"VUT/CA/09143","type":"VUT","group":"Completa","address":"LUGAR MADRIGUERAS Pol 19 Parc 79-80 Nº S/N","postal_code":"11680","places":8,"units":3,"registered":"2019-11-14","catastro":"11005A019000800001BO","holder":null,"holder_count":null}},{"type":"Feature","geometry":{"type":"Point","coordinates":[-5.403642,36.884334]},"properties":{"id":"VUT/CA/12486","type":"VUT","group":"Completa","address":"CALLE Cabezadas Nº 27","postal_code":"11680","places":4,"units":2,"registered":"2021-07-25","catastro":"62490A1TF8864G0001ZA","holder":null,"holder_count":null}},{"type":"Feature","geometry":{"type":"Point","coordinates":[-5.409527,36.879932]},"properties":{"id":"VUT/CA/12789","type":"VUT","group":"Completa","address":"CALLE LAVANDERAS Nº 1","postal_code":"11680","places":10,"units":4,"registered":"2021-09-22","catastro":"5445617TF8854E0001RS","holder":null,"holder_count":null}},{"type":"Feature","geometry":{"type":"Point","coordinates":[-5.409527,36.879932]},"properties":{"id":"VUT/CA/12928","type":"VUT","group":"Completa","address":"CALLE LAS LAVANDERAS Nº 5 Calif.Nº A Compl.Dom. ANTIGUA CALLE ALTILLO 5A","postal_code":"11680","places":6,"units":3,"registered":"2021-11-02","catastro":"5445617TF8854E0001RS","holder":null,"holder_count":null}},{"type":"Feature","geometry":{"type":"Point","coordinates":[-5.409527,36.879932]},"properties":{"id":"VUT/CA/12930","type":"VUT","group":"Por habitaciones","address":"CALLE LAS LAVANDERAS Nº 5 Calif.Nº B Compl.Dom. ANTIGUA CALLE ALTILLO 5B","postal_code":"11680","places":6,"units":3,"registered":"2021-11-02","catastro":"5445617TF8854E0001RS","holder":null,"holder_count":null}},{"type":"Feature","geometry":{"type":"Point","coordinates":[-5.407328,36.880927]},"properties":{"id":"VUT/CA/13560","type":"VUT","group":"Completa","address":"CALLE RODEO Nº 1","postal_code":"11680","places":5,"units":3,"registered":"2022-03-01","catastro":"5546327tf8854f0001yz","holder":null,"holder_count":null}},{"type":"Feature","geometry":{"type":"Point","coordinates":[-5.403357,36.878361]},"properties":{"id":"VUT/CA/14858","type":"VUT","group":"Completa","address":"CALLE MANCHONCILLOS Nº 20 Plta/Piso 1, piso 1","postal_code":"11680","places":6,"units":3,"registered":"2022-06-27","catastro":"5943049TF8854D0001XE","holder":null,"holder_count":null}},{"type":"Feature","geometry":{"type":"Point","coordinates":[-5.408538,36.880778]},"properties":{"id":"VUT/CA/15141","type":"VUT","group":"Completa","address":"CALLE ALCAIDIA Nº 19 Esc. 1 Plta/Piso -1 Pta/Letra 05, piso -1, puerta 05","postal_code":"11680","places":4,"units":1,"registered":"2022-07-19","catastro":"5545802TF8854F0006HE","holder":null,"holder_count":null}},{"type":"Feature","geometry":{"type":"Point","coordinates":[-5.34048,36.886075]},"properties":{"id":"VUT/CA/18569","type":"VUT","group":"Completa","address":"FINCA LAS COLUMNAS Nº 18","postal_code":"11680","places":6,"units":3,"registered":"2023-08-04","catastro":"11005A010000180000LP","holder":null,"holder_count":null}},{"type":"Feature","geometry":{"type":"Point","coordinates":[-5.407603,36.8819]},"properties":{"id":"VUT/CA/19773","type":"VUT","group":"Completa","address":"CALLE Posito Nº 47","postal_code":"11680","places":5,"units":2,"registered":"2024-02-19","catastro":"5546304TF8854F0001FZ","holder":null,"holder_count":null}},{"type":"Feature","geometry":{"type":"Point","coordinates":[-5.407603,36.8819]},"properties":{"id":"VUT/CA/19774","type":"VUT","group":"Completa","address":"CALLE Posito Nº 47","postal_code":"11680","places":2,"units":2,"registered":"2024-02-19","catastro":"5546304TF8854F0001FZ","holder":null,"holder_count":null}},{"type":"Feature","geometry":{"type":"Point","coordinates":[-5.405401,36.883006]},"properties":{"id":"VUT/CA/20115","type":"VUT","group":"Completa","address":"CALLE Ermita Nº 7","postal_code":"11680","places":4,"units":1,"registered":"2024-03-27","catastro":"5848822TF8854H0001DH","holder":null,"holder_count":null}},{"type":"Feature","geometry":{"type":"Point","coordinates":[-5.40547,36.881147]},"properties":{"id":"VUT/CA/20432","type":"VUT","group":"Completa","address":"AVENIDA PIEDRA Nº 1","postal_code":"11680","places":8,"units":8,"registered":"2024-04-26","catastro":"5746015TF8854F1002AB","holder":null,"holder_count":null}},{"type":"Feature","geometry":{"type":"Point","coordinates":[-5.403407,36.881973]},"properties":{"id":"VUT/CA/22488","type":"VUT","group":"Completa","address":"CALLE GUITARRISTA GUILLLERMO BORREGO Nº 3 Portal 3 Pta/Letra 3, puerta 3","postal_code":"11680","places":4,"units":2,"registered":"2024-12-04","catastro":"5948157TF8854H0000EG","holder":null,"holder_count":null}},{"type":"Feature","geometry":{"type":"Point","coordinates":[-5.4035,36.881861]},"properties":{"id":"VUT/CA/22962","type":"VUT","group":"Completa","address":"CALLE EUROPA Nº 2","postal_code":"11680","places":6,"units":3,"registered":"2025-02-13","catastro":"5948110TF8854H0004FL","holder":null,"holder_count":null}},{"type":"Feature","geometry":{"type":"Point","coordinates":[-5.401999,36.88156]},"properties":{"id":"VUT/CA/23054","type":"VUT","group":"Completa","address":"CALLE RAMON Y CAJAL Nº 11 Pta/Letra B, puerta B","postal_code":"11680","places":4,"units":3,"registered":"2025-02-21","catastro":"61470P9TF8864E0001KH","holder":null,"holder_count":null}},{"type":"Feature","geometry":{"type":"Point","coordinates":[-5.408927,36.880957]},"properties":{"id":"VUT/CA/23278","type":"VUT","group":"Completa","address":"CALLE CALVARIO Nº 3","postal_code":"11680","places":6,"units":2,"registered":"2025-03-10","catastro":"5345478TF8854E0001MS","holder":null,"holder_count":null}},{"type":"Feature","geometry":{"type":"Point","coordinates":[-5.403416,36.880556]},"properties":{"id":"VUT/CA/23691","type":"VUT","group":"Completa","address":"AVENIDA ANDALUCIA Nº 28 Pta/Letra 12, puerta 12","postal_code":"11680","places":5,"units":3,"registered":"2025-01-20","catastro":"5945115TF8854F0053OS","holder":null,"holder_count":null}},{"type":"Feature","geometry":{"type":"Point","coordinates":[-5.405869,36.881487]},"properties":{"id":"VUT/CA/24176","type":"VUT","group":"Completa","address":"CALLE PIEDRA Nº 13","postal_code":"11680","places":4,"units":2,"registered":"2025-05-05","catastro":"5746009TF8854F0001IZ","holder":null,"holder_count":null}},{"type":"Feature","geometry":{"type":"Point","coordinates":[-5.400277,36.882265]},"properties":{"id":"VUT/CA/25086","type":"VUT","group":"Completa","address":"AVENIDA ANDALUCIA Nº 1 Calif.Nº B Blq. 3 Pta/Letra 5, puerta 5","postal_code":"11680","places":3,"units":3,"registered":"2025-08-07","catastro":"61470P1TF8864E0005LB","holder":null,"holder_count":null}}]}