{"type":"FeatureCollection","municipio":{"slug":"arcos-de-la-frontera","name":"Arcos de la Frontera","total":241,"places":1246,"source_updated_at":"2026-10-05"},"features":[{"type":"Feature","geometry":{"type":"Point","coordinates":[-5.792916,36.697547]},"properties":{"id":"VUT/CA/00352","type":"VUT","group":"Completa","address":"CALLE Lomas de Alcala","postal_code":"11630","places":6,"units":3,"registered":"2016-06-02","catastro":"53006A039000580000DO","holder":null,"holder_count":null}},{"type":"Feature","geometry":{"type":"Point","coordinates":[-5.808835,36.75555]},"properties":{"id":"VUT/CA/00956","type":"VUT","group":"Completa","address":"BLOQUE PUERTO REAL Nº 1 Portal 7 Plta/Piso BAJO Pta/Letra B, piso BAJO, puerta B","postal_code":"11630","places":4,"units":2,"registered":"2016-08-09","catastro":"9416704TF4791N0046KG","holder":"OLE SOLUTIONS HOLIDAY RENTALS S.L.","holder_count":4}},{"type":"Feature","geometry":{"type":"Point","coordinates":[-5.80506,36.748206]},"properties":{"id":"VUT/CA/01122","type":"VUT","group":"Completa","address":"CALLE Higinio Capote Nº 19 Pta/Letra A, puerta A","postal_code":"11630","places":2,"units":1,"registered":"2016-09-09","catastro":"9608612TF4790N0001IA","holder":null,"holder_count":null}},{"type":"Feature","geometry":{"type":"Point","coordinates":[-5.809156,36.755823]},"properties":{"id":"VUT/CA/01341","type":"VUT","group":"Completa","address":"CALLE JUAN PABLO II Nº 2 Portal 4 Plta/Piso BAJO Pta/Letra C, piso BAJO, puerta C","postal_code":"11630","places":4,"units":2,"registered":"2016-09-29","catastro":"9416701TF4791N0019LB","holder":null,"holder_count":null}},{"type":"Feature","geometry":{"type":"Point","coordinates":[-5.801855,36.745734]},"properties":{"id":"VUT/CA/01432","type":"VUT","group":"Completa","address":"CALLE CALLEJAS Nº 22 Plta/Piso BAJO, piso BAJO","postal_code":"11630","places":4,"units":2,"registered":"2016-10-14","catastro":"9905805TF4790N0001PA","holder":null,"holder_count":null}},{"type":"Feature","geometry":{"type":"Point","coordinates":[-5.813938,36.753763]},"properties":{"id":"VUT/CA/01433","type":"VUT","group":"Completa","address":"CALLE CUCARRO Nº 17/09 Portal D Plta/Piso ATICO, piso ATICO","postal_code":"11630","places":4,"units":2,"registered":"2016-10-14","catastro":"8814508TF4781S0090BW","holder":null,"holder_count":null}},{"type":"Feature","geometry":{"type":"Point","coordinates":[-5.801855,36.745734]},"properties":{"id":"VUT/CA/01435","type":"VUT","group":"Completa","address":"CALLE CALLEJAS Nº 22 Plta/Piso 1, piso 1","postal_code":"11630","places":2,"units":1,"registered":"2016-10-14","catastro":"9905805TF4790N0002AS","holder":null,"holder_count":null}},{"type":"Feature","geometry":{"type":"Point","coordinates":[-5.771626,36.763086]},"properties":{"id":"VUT/CA/01653","type":"VUT","group":"Completa","address":"AVENIDA EL CORREDIGOR (PARCELA 134) Nº 17 Compl.Dom. UR. DOMINIO EL SANTISCAL","postal_code":"11638","places":12,"units":3,"registered":"2016-11-15","catastro":"2624511TF5722S0001MF","holder":null,"holder_count":null}},{"type":"Feature","geometry":{"type":"Point","coordinates":[-5.813938,36.753763]},"properties":{"id":"VUT/CA/02087","type":"VUT","group":"Completa","address":"CALLE CUCARRO Nº 19 Blq. A Plta/Piso 2 Pta/Letra 8, piso 2, puerta 8","postal_code":"11630","places":4,"units":2,"registered":"2017-02-01","catastro":"8814508TF4781S0066TP","holder":null,"holder_count":null}},{"type":"Feature","geometry":{"type":"Point","coordinates":[-5.80471,36.747175]},"properties":{"id":"VUT/CA/02122","type":"VUT","group":"Completa","address":"CALLE MALDONADO Nº 14 Plta/Piso 1, piso 1","postal_code":"11630","places":2,"units":1,"registered":"2017-02-06","catastro":"9607709TF4790N0003OD","holder":null,"holder_count":null}},{"type":"Feature","geometry":{"type":"Point","coordinates":[-5.810347,36.751114]},"properties":{"id":"VUT/CA/026509","type":"VUT","group":"Completa","address":"CALLE CAMINO DE LAS NIEVES Nº 27 Plta/Piso 1 Pta/Letra A, piso 1, puerta A","postal_code":"11630","places":4,"units":2,"registered":"2026-05-22","catastro":"9111532TF4791S0003AG","holder":"OLE SOLUTIONS HOLIDAY RENTALS S.L.","holder_count":4}},{"type":"Feature","geometry":{"type":"Point","coordinates":[-5.786454,36.753186]},"properties":{"id":"VUT/CA/026544","type":"VUT","group":"Completa","address":"LUGAR MESA DE LA PLATA Nº S/N","postal_code":"11630","places":5,"units":2,"registered":"2026-05-26","catastro":"53006A102001570001MX","holder":null,"holder_count":null}},{"type":"Feature","geometry":{"type":"Point","coordinates":[-5.801494,36.745088]},"properties":{"id":"VUT/CA/026613","type":"VUT","group":"Por habitaciones","address":"CALLE SAN JUAN Nº 12","postal_code":"11630","places":4,"units":2,"registered":"2026-06-04","catastro":"0004702TF5700S0001ZK","holder":null,"holder_count":null}},{"type":"Feature","geometry":{"type":"Point","coordinates":[-5.816904,36.750709]},"properties":{"id":"VUT/CA/026671","type":"VUT","group":"Por habitaciones","address":"AVENIDA MIGUEL MANCHEÑO Nº 3","postal_code":"11630","places":6,"units":4,"registered":"2026-06-12","catastro":"8511710TF4781S0003FA","holder":null,"holder_count":null}},{"type":"Feature","geometry":{"type":"Point","coordinates":[-5.804303,36.747663]},"properties":{"id":"VUT/CA/026730","type":"VUT","group":"Completa","address":"CALLE BOVEDAS Nº 6","postal_code":"11630","places":3,"units":2,"registered":"2026-06-22","catastro":"9707903TF4790N0001XA","holder":null,"holder_count":null}},{"type":"Feature","geometry":{"type":"Point","coordinates":[-5.807196,36.748942]},"properties":{"id":"VUT/CA/027001","type":"VUT","group":"Completa","address":"CALLE VALDESPINO Nº 3 Esc. 1 Plta/Piso 1 Pta/Letra 2, piso 1, puerta 2","postal_code":"11630","places":8,"units":4,"registered":"2026-08-28","catastro":"9408503TF4790N0004GF","holder":null,"holder_count":null}},{"type":"Feature","geometry":{"type":"Point","coordinates":[-5.813292,36.750757]},"properties":{"id":"VUT/CA/027045","type":"VUT","group":"Completa","address":"PLAZA ESPAÑA Nº 3 Plta/Piso 1 Pta/Letra 5, piso 1, puerta 5","postal_code":"11630","places":3,"units":2,"registered":"2026-09-14","catastro":"8911711TF4781S0008LH","holder":null,"holder_count":null}},{"type":"Feature","geometry":{"type":"Point","coordinates":[-5.790123,36.757439]},"properties":{"id":"VUT/CA/02781","type":"VUT","group":"Completa","address":"CALLE PINTOR RIBALTA Nº 2","postal_code":"11638","places":14,"units":6,"registered":"2017-05-16","catastro":"1017604TF5711N0001YI","holder":"LUXURY STONE INSTALLERS, SOCIEDAD LIMITADA","holder_count":1}},{"type":"Feature","geometry":{"type":"Point","coordinates":[-5.809156,36.755823]},"properties":{"id":"VUT/CA/03271","type":"VUT","group":"Completa","address":"CALLE JUAN PABLO II Nº 2 Blq. 2 Portal 4 Plta/Piso 2 Pta/Letra A, piso 2, puerta A","postal_code":"11630","places":6,"units":3,"registered":"2017-07-11","catastro":"9416701TF4791N0025XM","holder":null,"holder_count":null}},{"type":"Feature","geometry":{"type":"Point","coordinates":[-5.814895,36.752786]},"properties":{"id":"VUT/CA/03422","type":"VUT","group":"Completa","address":"CALLE ALTA Nº 63","postal_code":"11630","places":6,"units":4,"registered":"2017-08-05","catastro":"8912303TF4781S0001WO","holder":null,"holder_count":null}},{"type":"Feature","geometry":{"type":"Point","coordinates":[-5.75062,36.72413]},"properties":{"id":"VUT/CA/04493","type":"VUT","group":"Completa","address":"CALLE LOS ALCORNOCALES Nº A2 Compl.Dom. URB. ARCOS GARDENS","postal_code":"11630","places":4,"units":2,"registered":"2018-02-07","catastro":"4381129TF5648S0014YF","holder":null,"holder_count":null}},{"type":"Feature","geometry":{"type":"Point","coordinates":[-5.8045,36.747773]},"properties":{"id":"VUT/CA/04646","type":"VUT","group":"Por habitaciones","address":"CALLE BOVEDAS Nº 1","postal_code":"11630","places":2,"units":1,"registered":"2018-03-11","catastro":"9707409TF4790N0004DF","holder":null,"holder_count":null}},{"type":"Feature","geometry":{"type":"Point","coordinates":[-5.802067,36.746064]},"properties":{"id":"VUT/CA/04659","type":"VUT","group":"Completa","address":"CALLE CALLEJAS Nº 19","postal_code":"11630","places":10,"units":5,"registered":"2018-03-13","catastro":"9906111TF4790N0001FA","holder":null,"holder_count":null}},{"type":"Feature","geometry":{"type":"Point","coordinates":[-5.807134,36.749415]},"properties":{"id":"VUT/CA/04866","type":"VUT","group":"Completa","address":"CALLE MARIA CRUZ BERNAL Nº 4 Plta/Piso BJ, piso BJ","postal_code":"11630","places":4,"units":1,"registered":"2018-04-18","catastro":"9509802TF4790N0001SA","holder":null,"holder_count":null}},{"type":"Feature","geometry":{"type":"Point","coordinates":[-5.803383,36.746404]},"properties":{"id":"VUT/CA/04918","type":"VUT","group":"Por habitaciones","address":"CALLE JESUS NAZARENO Nº 2","postal_code":"11630","places":6,"units":3,"registered":"2018-04-24","catastro":"9805908TF4790N0001EA","holder":null,"holder_count":null}},{"type":"Feature","geometry":{"type":"Point","coordinates":[-5.80401,36.747566]},"properties":{"id":"VUT/CA/05210","type":"VUT","group":"Completa","address":"CALLE BOVEDAS Nº 10","postal_code":"11630","places":8,"units":4,"registered":"2018-05-29","catastro":"9707905TF4790N0001JA","holder":null,"holder_count":null}},{"type":"Feature","geometry":{"type":"Point","coordinates":[-5.807134,36.749415]},"properties":{"id":"VUT/CA/05368","type":"VUT","group":"Completa","address":"CALLE MARIA CRUZ BERNAL Nº 4 Plta/Piso 1, piso 1","postal_code":"11630","places":4,"units":1,"registered":"2018-06-18","catastro":"9509802TF4790N0001SA","holder":null,"holder_count":null}},{"type":"Feature","geometry":{"type":"Point","coordinates":[-5.812178,36.75043]},"properties":{"id":"VUT/CA/05488","type":"VUT","group":"Completa","address":"PASEO DE BOLICHES Nº 7","postal_code":"11630","places":4,"units":2,"registered":"2018-07-04","catastro":"9010402TF4791S0003TG","holder":null,"holder_count":null}},{"type":"Feature","geometry":{"type":"Point","coordinates":[-5.81504,36.753081]},"properties":{"id":"VUT/CA/05490","type":"VUT","group":"Completa","address":"CALLE ROMERO GAGO Nº 31","postal_code":"11630","places":2,"units":1,"registered":"2018-07-04","catastro":"8813901TF4781S0004QS","holder":null,"holder_count":null}},{"type":"Feature","geometry":{"type":"Point","coordinates":[-5.8032,36.747455]},"properties":{"id":"VUT/CA/05495","type":"VUT","group":"Completa","address":"CALLE MARTIN MONTERO Nº 14","postal_code":"11630","places":4,"units":2,"registered":"2018-07-04","catastro":"9806904TF4790N0001KA","holder":null,"holder_count":null}},{"type":"Feature","geometry":{"type":"Point","coordinates":[-5.814976,36.751217]},"properties":{"id":"VUT/CA/05944","type":"VUT","group":"Completa","address":"CALLE MUÑOZ VAZQUEZ Nº 18","postal_code":"11630","places":4,"units":2,"registered":"2018-09-11","catastro":"8611674TF4781S0066QP","holder":null,"holder_count":null}},{"type":"Feature","geometry":{"type":"Point","coordinates":[-5.814976,36.751217]},"properties":{"id":"VUT/CA/05945","type":"VUT","group":"Completa","address":"CALLE PASEO DE BOLICHES Nº 3 Esc. PT 1 Plta/Piso SM Pta/Letra IZ, piso SM, puerta IZ","postal_code":"11630","places":4,"units":2,"registered":"2018-09-11","catastro":"8611674TF4781S0066QP","holder":null,"holder_count":null}},{"type":"Feature","geometry":{"type":"Point","coordinates":[-5.810372,36.752871]},"properties":{"id":"VUT/CA/05955","type":"VUT","group":"Completa","address":"CALLE ALGODONALES Nº 5 Plta/Piso 1 Pta/Letra A, piso 1, puerta A","postal_code":"11630","places":3,"units":2,"registered":"2018-09-13","catastro":"9113701TF4791S0003GG","holder":null,"holder_count":null}},{"type":"Feature","geometry":{"type":"Point","coordinates":[-5.802833,36.745842]},"properties":{"id":"VUT/CA/06030","type":"VUT","group":"Completa","address":"CALLE CUESTA DEL SOCORRO Nº 26 Pta/Letra 3, puerta 3","postal_code":"11630","places":3,"units":1,"registered":"2018-09-25","catastro":"9805916TF4790N0003RD","holder":null,"holder_count":null}},{"type":"Feature","geometry":{"type":"Point","coordinates":[-5.777446,36.73896]},"properties":{"id":"VUT/CA/06052","type":"VUT","group":"Por habitaciones","address":"DISEMINADO CUESTA LA ROSA Nº 3","postal_code":"11630","places":4,"units":1,"registered":"2018-09-27","catastro":"53006A083002440001FO","holder":null,"holder_count":null}},{"type":"Feature","geometry":{"type":"Point","coordinates":[-5.80504,36.748216]},"properties":{"id":"VUT/CA/06202","type":"VUT","group":"Completa","address":"CALLE HIGINIO CAPOTE Nº 19","postal_code":"11630","places":4,"units":2,"registered":"2018-10-24","catastro":"9608612TF4790N0006DH","holder":null,"holder_count":null}},{"type":"Feature","geometry":{"type":"Point","coordinates":[-5.80813,36.74894]},"properties":{"id":"VUT/CA/06230","type":"VUT","group":"Completa","address":"CALLE CUESTA DE BELEN Nº 9","postal_code":"11630","places":2,"units":1,"registered":"2018-10-29","catastro":"9408402TF4790N0001XA","holder":"TABERNA JOVENES FLAMENCOS S.L.","holder_count":1}},{"type":"Feature","geometry":{"type":"Point","coordinates":[-5.804087,36.747688]},"properties":{"id":"VUT/CA/06349","type":"VUT","group":"Completa","address":"CALLE BOVEDAS Nº 7 Plta/Piso 1º Pta/Letra IZQU., piso 1º, puerta IZQU.","postal_code":"11630","places":4,"units":1,"registered":"2018-11-14","catastro":"9707407TF4790N0005LG","holder":null,"holder_count":null}},{"type":"Feature","geometry":{"type":"Point","coordinates":[-5.758567,36.725299]},"properties":{"id":"VUT/CA/06395","type":"VUT","group":"Completa","address":"CARRETERA ARCOS-ALGAR Km 4 Pta/Letra E3, puerta E3","postal_code":"11630","places":4,"units":2,"registered":"2018-11-22","catastro":"4381107TF5648S0019TL","holder":"PROMOCIONES OSAMPER, S.A.","holder_count":1}},{"type":"Feature","geometry":{"type":"Point","coordinates":[-5.758567,36.725299]},"properties":{"id":"VUT/CA/06462","type":"VUT","group":"Completa","address":"URBANIZACION Fariways Gardens Nº G3","postal_code":"11630","places":4,"units":2,"registered":"2018-12-05","catastro":"4381107TF5648S0027PQ","holder":null,"holder_count":null}},{"type":"Feature","geometry":{"type":"Point","coordinates":[-5.775072,36.764504]},"properties":{"id":"VUT/CA/06469","type":"VUT","group":"Completa","address":"CALLE PINTOR EDUARDO CANO Nº 8","postal_code":"11630","places":5,"units":2,"registered":"2018-12-07","catastro":"2424316TF5722S0001UF","holder":null,"holder_count":null}},{"type":"Feature","geometry":{"type":"Point","coordinates":[-5.758567,36.725299]},"properties":{"id":"VUT/CA/06641","type":"VUT","group":"Completa","address":"URBANIZACION CONDOMINIOS FAYRWAY GARDENS Nº 1 Calif.Nº D Compl.Dom. CTRA. ALGAR KM 3.5 - CAMPO DE GOLF ARCOS GARDENS COUNTRY STATE","postal_code":"11630","places":4,"units":2,"registered":"2019-01-18","catastro":"4381107TF5648S0013XD","holder":null,"holder_count":null}},{"type":"Feature","geometry":{"type":"Point","coordinates":[-5.758567,36.725299]},"properties":{"id":"VUT/CA/06662","type":"VUT","group":"Completa","address":"URBANIZACION CONDOMINIOS FAIRWAYS GARDENS Nº SN Blq. K Pta/Letra 1, puerta 1","postal_code":"11630","places":4,"units":2,"registered":"2019-01-21","catastro":"4381107TF5648S0041KO","holder":null,"holder_count":null}},{"type":"Feature","geometry":{"type":"Point","coordinates":[-5.758567,36.725299]},"properties":{"id":"VUT/CA/06810","type":"VUT","group":"Completa","address":"CALLE BULEVAR ALCORNOCALES Nº H4 Compl.Dom. URBANIZACION CONDOMINIO FAIRWAYS GARDENS","postal_code":"11630","places":4,"units":4,"registered":"2019-02-08","catastro":"4381107TF5648S0032SE","holder":"ARCOS GOLF INVERSIONES SL","holder_count":1}},{"type":"Feature","geometry":{"type":"Point","coordinates":[-5.813636,36.754057]},"properties":{"id":"VUT/CA/06912","type":"VUT","group":"Completa","address":"CALLE ECUADOR Nº 4 Plta/Piso 2º, piso 2º","postal_code":"11630","places":4,"units":2,"registered":"2019-02-20","catastro":"8914407TF4781S0002UP","holder":null,"holder_count":null}},{"type":"Feature","geometry":{"type":"Point","coordinates":[-5.813636,36.754057]},"properties":{"id":"VUT/CA/06913","type":"VUT","group":"Completa","address":"CALLE ECUADOR Nº 4 Plta/Piso 1º, piso 1º","postal_code":"11630","places":4,"units":2,"registered":"2019-02-20","catastro":"8914407TF4781S0002UP","holder":null,"holder_count":null}},{"type":"Feature","geometry":{"type":"Point","coordinates":[-5.801903,36.745339]},"properties":{"id":"VUT/CA/06916","type":"VUT","group":"Completa","address":"CALLE SAN JUAN Nº 1","postal_code":"11630","places":5,"units":3,"registered":"2019-02-20","catastro":"0104160TF5700S0001RK","holder":null,"holder_count":null}},{"type":"Feature","geometry":{"type":"Point","coordinates":[-5.750615,36.72414]},"properties":{"id":"VUT/CA/06966","type":"VUT","group":"Completa","address":"AVENIDA DE LOS OLIVOS Nº 21 Compl.Dom. ARCOS GARDENS - URBANIZACION GRAZALEMA 1","postal_code":"11630","places":8,"units":4,"registered":"2019-03-06","catastro":"4381129TF5648S0003ZY","holder":null,"holder_count":null}},{"type":"Feature","geometry":{"type":"Point","coordinates":[-5.799303,36.742365]},"properties":{"id":"VUT/CA/07029","type":"VUT","group":"Completa","address":"CALLE EXTRAMUROS DE ALGARROBO Nº 15 Plta/Piso 5 Compl.Dom. URBANIZACION BARRIO BAJO, piso 5","postal_code":"11630","places":2,"units":3,"registered":"2019-03-19","catastro":"0101503TF5700S0005EX","holder":null,"holder_count":null}},{"type":"Feature","geometry":{"type":"Point","coordinates":[-5.768651,36.763702]},"properties":{"id":"VUT/CA/07116","type":"VUT","group":"Completa","address":"CALLE PINTOR BARTOLOME BERMEJO Nº 8","postal_code":"11630","places":9,"units":4,"registered":"2019-04-11","catastro":"2923322TF5722S0001SF","holder":null,"holder_count":null}},{"type":"Feature","geometry":{"type":"Point","coordinates":[-5.813114,36.750817]},"properties":{"id":"VUT/CA/07179","type":"VUT","group":"Completa","address":"CALLE PASEO BOLICHES Nº 53","postal_code":"11630","places":2,"units":2,"registered":"2019-04-22","catastro":"8911712TF4781S0002XP","holder":null,"holder_count":null}},{"type":"Feature","geometry":{"type":"Point","coordinates":[-5.773541,36.763088]},"properties":{"id":"VUT/CA/07257","type":"VUT","group":"Completa","address":"AVENIDA EL CORREGIDOR Nº 11","postal_code":"11630","places":12,"units":4,"registered":"2019-04-22","catastro":"2524312TF5722S0001OF","holder":null,"holder_count":null}},{"type":"Feature","geometry":{"type":"Point","coordinates":[-5.818545,36.750798]},"properties":{"id":"VUT/CA/07440","type":"VUT","group":"Completa","address":"CALLE MORENO DE VILLAR Nº 3 Plta/Piso 1 Pta/Letra A, piso 1, puerta A","postal_code":"11630","places":4,"units":2,"registered":"2019-04-23","catastro":"8411702TF4781S0003MA","holder":null,"holder_count":null}},{"type":"Feature","geometry":{"type":"Point","coordinates":[-5.80396,36.746765]},"properties":{"id":"VUT/CA/07686","type":"VUT","group":"Completa","address":"CALLE San Pedro Nº 6 Plta/Piso 3 Pta/Letra 13 Compl.Dom. C/ San Pedro 6, numero 13, 11630 Arcos De La Frontera, Cadiz, piso 3, puerta 13","postal_code":"11630","places":4,"units":2,"registered":"2019-05-17","catastro":"9706601tf4790n0015zx","holder":null,"holder_count":null}},{"type":"Feature","geometry":{"type":"Point","coordinates":[-5.809142,36.749474]},"properties":{"id":"VUT/CA/07767","type":"VUT","group":"Completa","address":"CALLE CORREDERA Nº 11 Plta/Piso BAJO Pta/Letra BAJO, piso BAJO, puerta BAJO","postal_code":"11630","places":7,"units":3,"registered":"2019-05-27","catastro":"9309701tf4790n0004kf","holder":null,"holder_count":null}},{"type":"Feature","geometry":{"type":"Point","coordinates":[-5.80597,36.748282]},"properties":{"id":"VUT/CA/07879","type":"VUT","group":"Completa","address":"CALLE PESAS DEL RELOJ Nº 10","postal_code":"11630","places":4,"units":2,"registered":"2019-06-04","catastro":"9608101TF4790N0002OS","holder":null,"holder_count":null}},{"type":"Feature","geometry":{"type":"Point","coordinates":[-5.788254,36.757612]},"properties":{"id":"VUT/CA/07919","type":"VUT","group":"Completa","address":"CALLE PINTOR VELAZQUEZ Nº 1 Compl.Dom. URBANIZACION EL SANTISCAL","postal_code":"11630","places":8,"units":4,"registered":"2019-06-07","catastro":"1218701TF5711N0001KI","holder":null,"holder_count":null}},{"type":"Feature","geometry":{"type":"Point","coordinates":[-5.753808,36.726604]},"properties":{"id":"VUT/CA/08121","type":"VUT","group":"Completa","address":"CALLE ALCORNOCALES Blq. O Portal 3","postal_code":"11630","places":4,"units":2,"registered":"2019-06-25","catastro":"4381123TF5648S0001AR","holder":null,"holder_count":null}},{"type":"Feature","geometry":{"type":"Point","coordinates":[-5.81778,36.75038]},"properties":{"id":"VUT/CA/08281","type":"VUT","group":"Completa","address":"AVENIDA DUQUE DE ARCOS Nº 5","postal_code":"11630","places":6,"units":4,"registered":"2019-07-09","catastro":"8511730TF4781S0001MO","holder":null,"holder_count":null}},{"type":"Feature","geometry":{"type":"Point","coordinates":[-5.814976,36.751217]},"properties":{"id":"VUT/CA/08339","type":"VUT","group":"Completa","address":"CALLE MUÑOZ VÁZQUEZ Nº 18 Portal A Plta/Piso 1 Pta/Letra 6, piso 1, puerta 6","postal_code":"11630","places":3,"units":2,"registered":"2019-07-18","catastro":"8611674TF4781S0023HW","holder":null,"holder_count":null}},{"type":"Feature","geometry":{"type":"Point","coordinates":[-5.758567,36.725299]},"properties":{"id":"VUT/CA/08706","type":"VUT","group":"Completa","address":"URBANIZACION CONDOMINIOS FAIRWAYS GARDENS Nº 4 Calif.Nº O Compl.Dom. CTRA- ALGAR KM 3.5- CAMPO DE GOLF ARCOS GARDENS COUNTRY ESTATE","postal_code":"11630","places":4,"units":2,"registered":"2019-09-04","catastro":"4381107TF5648S0060IX","holder":null,"holder_count":null}},{"type":"Feature","geometry":{"type":"Point","coordinates":[-5.758567,36.725299]},"properties":{"id":"VUT/CA/08707","type":"VUT","group":"Completa","address":"URBANIZACION CONDOMINIOS FAIRWAYS GARDENS Nº 4 Calif.Nº E Compl.Dom. CTRA-ALGAR KM 3.5-CAMPO DE GOLF ARCOS GARDENS COUNTRY ESTATE","postal_code":"11630","places":4,"units":2,"registered":"2019-09-04","catastro":"4381107TF5648S0020EJ","holder":null,"holder_count":null}},{"type":"Feature","geometry":{"type":"Point","coordinates":[-5.772529,36.763437]},"properties":{"id":"VUT/CA/08755","type":"VUT","group":"Completa","address":"CALLE PINTOR PANTOJA DE LA CRUZ Nº 3","postal_code":"11630","places":9,"units":5,"registered":"2019-09-16","catastro":"2524510TF5722S0001XF","holder":"MAR SERVICIOS MEDIOAMBIENTALES, S.L.","holder_count":1}},{"type":"Feature","geometry":{"type":"Point","coordinates":[-5.786034,36.759855]},"properties":{"id":"VUT/CA/09448","type":"VUT","group":"Completa","address":"AVENIDA EL SANTISCAL Nº 295 Compl.Dom. URBANIZACION EL SANTISCAL","postal_code":"11638","places":8,"units":2,"registered":"2019-12-10","catastro":"1321709TF5712S0001DP","holder":null,"holder_count":null}},{"type":"Feature","geometry":{"type":"Point","coordinates":[-5.80396,36.746765]},"properties":{"id":"VUT/CA/09547","type":"VUT","group":"Completa","address":"CALLE San Pedro Nº 6 Plta/Piso 1, piso 1","postal_code":"11630","places":4,"units":2,"registered":"2019-12-18","catastro":"9706601TF4790N0008JK","holder":null,"holder_count":null}},{"type":"Feature","geometry":{"type":"Point","coordinates":[-5.806001,36.749786]},"properties":{"id":"VUT/CA/09982","type":"VUT","group":"Completa","address":"CALLE PUERTA CARMONA Nº 19","postal_code":"11630","places":8,"units":4,"registered":"2020-02-19","catastro":"9609613TF4790N0001XA","holder":null,"holder_count":null}},{"type":"Feature","geometry":{"type":"Point","coordinates":[-5.820804,36.749753]},"properties":{"id":"VUT/CA/10129","type":"VUT","group":"Completa","address":"AVENIDA MIGUEL MANCHEÑO Nº 34 Compl.Dom. DUPLEX","postal_code":"11630","places":8,"units":3,"registered":"2020-03-05","catastro":"8210802TF4781S0009ZJ","holder":null,"holder_count":null}},{"type":"Feature","geometry":{"type":"Point","coordinates":[-5.787432,36.75946]},"properties":{"id":"VUT/CA/10245","type":"VUT","group":"Completa","address":"AVENIDA Sombrero de tres picos Nº 6 Compl.Dom. Urb el Santiscal","postal_code":"11630","places":12,"units":5,"registered":"2020-03-31","catastro":"1320410TF5712S0001QP","holder":"HIDALMAR SOC. COOP ANDALUZA","holder_count":1}},{"type":"Feature","geometry":{"type":"Point","coordinates":[-5.803165,36.746507]},"properties":{"id":"VUT/CA/10310","type":"VUT","group":"Por habitaciones","address":"CALLE VALDERRAMA Nº 9","postal_code":"11630","places":6,"units":3,"registered":"2020-04-14","catastro":"9806928TF4790N0001LA","holder":null,"holder_count":null}},{"type":"Feature","geometry":{"type":"Point","coordinates":[-5.803165,36.746507]},"properties":{"id":"VUT/CA/10914","type":"VUT","group":"Completa","address":"CALLE VALDERRAMA Nº 9","postal_code":"11630","places":6,"units":3,"registered":"2020-08-28","catastro":"9806928TF4790N0001LA","holder":null,"holder_count":null}},{"type":"Feature","geometry":{"type":"Point","coordinates":[-5.813722,36.751296]},"properties":{"id":"VUT/CA/11070","type":"VUT","group":"Por habitaciones","address":"CALLE DEBAJO DEL CORRAL Nº 18 Blq. H Esc. 1 Plta/Piso 1 Pta/Letra H4, piso 1, puerta H4","postal_code":"11630","places":4,"units":2,"registered":"2020-10-16","catastro":"8912101TF4781S0004WS","holder":null,"holder_count":null}},{"type":"Feature","geometry":{"type":"Point","coordinates":[-5.758567,36.725299]},"properties":{"id":"VUT/CA/11157","type":"VUT","group":"Completa","address":"CALLE Alcornocales Nº 1 Blq. I","postal_code":"11630","places":4,"units":2,"registered":"2020-11-20","catastro":"4381107TF5648S0033DR","holder":"ARCOS FAIRWAYS S.L.U.","holder_count":1}},{"type":"Feature","geometry":{"type":"Point","coordinates":[-5.811691,36.750292]},"properties":{"id":"VUT/CA/11271","type":"VUT","group":"Completa","address":"CALLE PASEO DE BOLICHES Nº 32 Esc. IZQ Plta/Piso 1 Pta/Letra IZQ, piso 1, puerta IZQ","postal_code":"11630","places":5,"units":3,"registered":"2021-01-21","catastro":"9010510TF4791S0005PJ","holder":null,"holder_count":null}},{"type":"Feature","geometry":{"type":"Point","coordinates":[-5.750303,36.723545]},"properties":{"id":"VUT/CA/11378","type":"VUT","group":"Completa","address":"URBANIZACION Grazalema Nº 22 Compl.Dom. Arcos Gardens","postal_code":"11630","places":8,"units":3,"registered":"2021-02-23","catastro":"4381133TF5648S0009DS","holder":"Arroyal Millan Inversiones SL","holder_count":1}},{"type":"Feature","geometry":{"type":"Point","coordinates":[-5.774378,36.765219]},"properties":{"id":"VUT/CA/11433","type":"VUT","group":"Completa","address":"AVENIDA EL SANTISCAL Nº 107","postal_code":"11638","places":6,"units":3,"registered":"2021-03-09","catastro":"2426103TF5722N0005GP","holder":null,"holder_count":null}},{"type":"Feature","geometry":{"type":"Point","coordinates":[-5.758567,36.725299]},"properties":{"id":"VUT/CA/11776","type":"VUT","group":"Completa","address":"URBANIZACION CONDOMINIOS FAIRWAY (CARRETERA ALGAR) Km 3 Compl.Dom. F4","postal_code":"11630","places":4,"units":2,"registered":"2021-05-12","catastro":"4381107TF5648S0024UZ","holder":null,"holder_count":null}},{"type":"Feature","geometry":{"type":"Point","coordinates":[-5.798504,36.751126]},"properties":{"id":"VUT/CA/12231","type":"VUT","group":"Completa","address":"CALLE FUENTE DEL RIO Nº 28 Esc. 2 Plta/Piso - 2 Pta/Letra B, piso - 2, puerta B","postal_code":"11630","places":6,"units":3,"registered":"2021-06-24","catastro":"0210403TF5701S0019OR","holder":null,"holder_count":null}},{"type":"Feature","geometry":{"type":"Point","coordinates":[-5.802537,36.746576]},"properties":{"id":"VUT/CA/12449","type":"VUT","group":"Completa","address":"CALLE PIEDRA DEL MOLINO Nº 9","postal_code":"11630","places":8,"units":3,"registered":"2021-07-19","catastro":"9906121TF4790N0001IA","holder":null,"holder_count":null}},{"type":"Feature","geometry":{"type":"Point","coordinates":[-5.803457,36.747212]},"properties":{"id":"VUT/CA/12491","type":"VUT","group":"Por habitaciones","address":"CALLE CADENAS Nº 11 Plta/Piso 1, piso 1","postal_code":"11630","places":6,"units":4,"registered":"2021-07-26","catastro":"9806939TF4790N0002MS","holder":null,"holder_count":null}},{"type":"Feature","geometry":{"type":"Point","coordinates":[-5.750303,36.723545]},"properties":{"id":"VUT/CA/12516","type":"VUT","group":"Completa","address":"CALLE LOS OLIVOS Nº 22","postal_code":"11630","places":8,"units":3,"registered":"2021-07-29","catastro":"4381133TF5648S0009DS","holder":"ARROYAL MILLAN INVERSIONES SL","holder_count":1}},{"type":"Feature","geometry":{"type":"Point","coordinates":[-5.802601,36.747841]},"properties":{"id":"VUT/CA/12980","type":"VUT","group":"Completa","address":"CALLE Peña Vieja Nº 5","postal_code":"11630","places":4,"units":2,"registered":"2021-11-11","catastro":"9908107tf4790n0004kf","holder":null,"holder_count":null}},{"type":"Feature","geometry":{"type":"Point","coordinates":[-5.758567,36.725299]},"properties":{"id":"VUT/CA/13209","type":"VUT","group":"Completa","address":"URBANIZACION CONDOMINIOS FAIRWAYS GARDENS Nº 2 Blq. L","postal_code":"11630","places":8,"units":2,"registered":"2022-01-04","catastro":"4381107TF5648S0046MF","holder":"FINCA MESINES, SL","holder_count":1}},{"type":"Feature","geometry":{"type":"Point","coordinates":[-5.808873,36.750556]},"properties":{"id":"VUT/CA/13402","type":"VUT","group":"Completa","address":"CALLE CAMINO DE LAS NIEVES Nº 32 Plta/Piso 2 Pta/Letra A, piso 2, puerta A","postal_code":"11630","places":6,"units":3,"registered":"2022-02-07","catastro":"9310617TF4791S0003TG","holder":null,"holder_count":null}},{"type":"Feature","geometry":{"type":"Point","coordinates":[-5.808873,36.750556]},"properties":{"id":"VUT/CA/13403","type":"VUT","group":"Completa","address":"CALLE CAMINO DE LAS NIEVES Nº 32 Plta/Piso 2 Pta/Letra B, piso 2, puerta B","postal_code":"11630","places":6,"units":3,"registered":"2022-02-07","catastro":"9310617TF4791S0004YH","holder":null,"holder_count":null}},{"type":"Feature","geometry":{"type":"Point","coordinates":[-5.775941,36.766372]},"properties":{"id":"VUT/CA/13950","type":"VUT","group":"Completa","address":"AVENIDA PRÍNCIPE DE ESPAÑA Nº 25B Pta/Letra C, puerta C","postal_code":"11638","places":4,"units":3,"registered":"2022-04-15","catastro":"2227808TF5722N0003GI","holder":null,"holder_count":null}},{"type":"Feature","geometry":{"type":"Point","coordinates":[-5.80484,36.748215]},"properties":{"id":"VUT/CA/13957","type":"VUT","group":"Completa","address":"CALLE LEAL Nº 1","postal_code":"11630","places":3,"units":2,"registered":"2022-04-18","catastro":"9608610TF4790N0001DA","holder":null,"holder_count":null}},{"type":"Feature","geometry":{"type":"Point","coordinates":[-5.758567,36.725299]},"properties":{"id":"VUT/CA/14176","type":"VUT","group":"Completa","address":"URBANIZACION Condominios Fairway Gardens Nº 1 Calif.Nº L Compl.Dom. Carretera Algar kilómetro 3,5 Campo de Golf Arcos Gardens","postal_code":"11630","places":4,"units":2,"registered":"2022-05-09","catastro":"4381107TF5648S0045XD","holder":null,"holder_count":null}},{"type":"Feature","geometry":{"type":"Point","coordinates":[-5.803487,36.746713]},"properties":{"id":"VUT/CA/14490","type":"VUT","group":"Completa","address":"CALLE Socorro Nº 5","postal_code":"11630","places":4,"units":2,"registered":"2022-06-02","catastro":"9806935TF4790N0001OA","holder":null,"holder_count":null}},{"type":"Feature","geometry":{"type":"Point","coordinates":[-5.758567,36.725299]},"properties":{"id":"VUT/CA/14693","type":"VUT","group":"Completa","address":"CARRETERA Arcos - Algar Nº 1 Blq. G Compl.Dom. Arcos Gardens - Urbanizacion Fairway Gardens","postal_code":"11630","places":4,"units":2,"registered":"2022-06-15","catastro":"4381107TF5648S0025IX","holder":null,"holder_count":null}},{"type":"Feature","geometry":{"type":"Point","coordinates":[-5.788138,36.757272]},"properties":{"id":"VUT/CA/14728","type":"VUT","group":"Completa","address":"CALLE PINTOR VELAZQUEZ Nº 4","postal_code":"11638","places":8,"units":3,"registered":"2022-06-17","catastro":"1117712TF5711N0001QI","holder":null,"holder_count":null}},{"type":"Feature","geometry":{"type":"Point","coordinates":[-5.811713,36.750961]},"properties":{"id":"VUT/CA/14946","type":"VUT","group":"Completa","address":"CALLE Corredera Nº 68","postal_code":"11630","places":3,"units":1,"registered":"2022-07-04","catastro":"9111211TF4791S0002QF","holder":null,"holder_count":null}},{"type":"Feature","geometry":{"type":"Point","coordinates":[-5.802815,36.746747]},"properties":{"id":"VUT/CA/15003","type":"VUT","group":"Completa","address":"CALLE piedra del molino Nº 8","postal_code":"11630","places":5,"units":3,"registered":"2022-07-07","catastro":"9806921TF4790N0001WA","holder":null,"holder_count":null}},{"type":"Feature","geometry":{"type":"Point","coordinates":[-5.758567,36.725299]},"properties":{"id":"VUT/CA/15024","type":"VUT","group":"Por habitaciones","address":"CALLE Los Alcornocales Nº 1 Pta/Letra T Compl.Dom. Urbanización Arcos Gardens, puerta T","postal_code":"11630","places":6,"units":3,"registered":"2022-07-09","catastro":"4381107TF5648S0077XD","holder":null,"holder_count":null}},{"type":"Feature","geometry":{"type":"Point","coordinates":[-5.783729,36.764061]},"properties":{"id":"VUT/CA/15079","type":"VUT","group":"Completa","address":"AVENIDA DE LOS TRES PICOS Nº 83","postal_code":"11638","places":6,"units":3,"registered":"2022-07-13","catastro":"1624701TF5712S0001QP","holder":null,"holder_count":null}},{"type":"Feature","geometry":{"type":"Point","coordinates":[-5.755911,36.722894]},"properties":{"id":"VUT/CA/15129","type":"VUT","group":"Completa","address":"AVENIDA DE LOS OLIVOS Nº 7 Compl.Dom. URBANIZACION JACARANDAS - ARCOS GARDEN","postal_code":"11630","places":10,"units":5,"registered":"2022-07-19","catastro":"4381130TF5648S0005TI","holder":"MATALOBOS INVERSIONES, S.L.","holder_count":1}},{"type":"Feature","geometry":{"type":"Point","coordinates":[-5.803692,36.746436]},"properties":{"id":"VUT/CA/15158","type":"VUT","group":"Completa","address":"CALLE ABADES Nº 11","postal_code":"11630","places":8,"units":3,"registered":"2022-07-21","catastro":"9805941tf4790n0001ia","holder":null,"holder_count":null}},{"type":"Feature","geometry":{"type":"Point","coordinates":[-5.758567,36.725299]},"properties":{"id":"VUT/CA/15569","type":"VUT","group":"Completa","address":"CARRETERA ARCOS - ALGAR Nº R2 Compl.Dom. CAMPO DE GOLF ARCOS GARDENS","postal_code":"11630","places":4,"units":2,"registered":"2022-09-19","catastro":"4381107TF5648S0070GY","holder":"INVERSIONES Y PATRIMONIO HERMANOS ALBA S.L.","holder_count":2}},{"type":"Feature","geometry":{"type":"Point","coordinates":[-5.758567,36.725299]},"properties":{"id":"VUT/CA/15570","type":"VUT","group":"Completa","address":"CARRETERA ARCOS - ALGAR Nº R3 Compl.Dom. CAMPO DE GOLF ARCOS GARDENS","postal_code":"11630","places":4,"units":2,"registered":"2022-09-19","catastro":"4381107TF5648S0071HU","holder":"INVERSIONES Y PATRIMONIO HERMANOS ALBA S.L.","holder_count":2}},{"type":"Feature","geometry":{"type":"Point","coordinates":[-5.758567,36.725299]},"properties":{"id":"VUT/CA/15694","type":"VUT","group":"Completa","address":"DE LOS ALCORNOCALES Pta/Letra A4 Compl.Dom. URBANIZACION ARCOS GARDENS GOLF  CTRA. ARCOS-ALGAR KM 3,5, puerta A4","postal_code":"11630","places":4,"units":2,"registered":"2022-10-07","catastro":"4381107TF5648S0004HU","holder":null,"holder_count":null}},{"type":"Feature","geometry":{"type":"Point","coordinates":[-5.758567,36.725299]},"properties":{"id":"VUT/CA/15695","type":"VUT","group":"Completa","address":"DE LOS ALCORNOCALES Pta/Letra E1 Compl.Dom. URBANIZACION ARCOS GARDENS GOLF CTRA. ARCOS-ALGAR  KM 3,5, puerta E1","postal_code":"11630","places":4,"units":2,"registered":"2022-10-07","catastro":"4381107TF5648S0017EJ","holder":null,"holder_count":null}},{"type":"Feature","geometry":{"type":"Point","coordinates":[-5.817079,36.753887]},"properties":{"id":"VUT/CA/15893","type":"VUT","group":"Completa","address":"CALLE MOLINO Nº 5","postal_code":"11630","places":6,"units":2,"registered":"2022-11-20","catastro":"8415729TF4781N0005RT","holder":null,"holder_count":null}},{"type":"Feature","geometry":{"type":"Point","coordinates":[-5.80504,36.748216]},"properties":{"id":"VUT/CA/15899","type":"VUT","group":"Completa","address":"CALLE HIGINO CAPOTE Nº 19 Plta/Piso 01 Pta/Letra 03, piso 01, puerta 03","postal_code":"11630","places":6,"units":2,"registered":"2022-11-21","catastro":"9608612TF4790N0005SG","holder":"TRIANITA APARTAMENTOS,S.L.U.","holder_count":1}},{"type":"Feature","geometry":{"type":"Point","coordinates":[-5.811691,36.750292]},"properties":{"id":"VUT/CA/15917","type":"VUT","group":"Completa","address":"CALLE PASEO DE BOLICHES Nº 32 Esc. IZQ Plta/Piso 2, piso 2","postal_code":"11630","places":6,"units":3,"registered":"2022-11-23","catastro":"9010510TF4791S0006AK","holder":null,"holder_count":null}},{"type":"Feature","geometry":{"type":"Point","coordinates":[-5.809124,36.751219]},"properties":{"id":"VUT/CA/15932","type":"VUT","group":"Completa","address":"CALLE ALCALA DE LOS GAZULES Nº 1 Plta/Piso 2, piso 2","postal_code":"11630","places":5,"units":3,"registered":"2022-11-24","catastro":"9111557TF4791S0056DU","holder":null,"holder_count":null}},{"type":"Feature","geometry":{"type":"Point","coordinates":[-5.813631,36.75128]},"properties":{"id":"VUT/CA/15942","type":"VUT","group":"Completa","address":"URBANIZACION CERRO DE LA REINA Nº 30","postal_code":"11630","places":4,"units":2,"registered":"2022-11-27","catastro":"8912501TF4781S0005LD","holder":"GABINETE DE INGENIERIA DE ESTRUCTURAS E INSTALACIONES, S.L.U.","holder_count":1}},{"type":"Feature","geometry":{"type":"Point","coordinates":[-5.798698,36.750884]},"properties":{"id":"VUT/CA/16009","type":"VUT","group":"Completa","address":"CALLE CAMINO DE SAN ANTON Nº 12","postal_code":"11630","places":10,"units":5,"registered":"2022-12-13","catastro":"0210405TF5701S0001SS","holder":null,"holder_count":null}},{"type":"Feature","geometry":{"type":"Point","coordinates":[-5.806869,36.748544]},"properties":{"id":"VUT/CA/16027","type":"VUT","group":"Completa","address":"CALLE NUEVA Nº 1","postal_code":"11630","places":4,"units":2,"registered":"2022-12-16","catastro":"9508201TF4790N0005QG","holder":null,"holder_count":null}},{"type":"Feature","geometry":{"type":"Point","coordinates":[-5.802752,36.74789]},"properties":{"id":"VUT/CA/16073","type":"VUT","group":"Completa","address":"CALLE PEÑA VIEJA Nº 2","postal_code":"11630","places":3,"units":1,"registered":"2023-01-03","catastro":"9807603TF4790N0001WA","holder":"ALQUILERES Y CONSTRUCCIONES PALACIOS MARTIN","holder_count":1}},{"type":"Feature","geometry":{"type":"Point","coordinates":[-5.80471,36.747175]},"properties":{"id":"VUT/CA/16093","type":"VUT","group":"Completa","address":"CALLE MALDONADO Nº 14","postal_code":"11630","places":2,"units":1,"registered":"2023-01-09","catastro":"9607709TF4790N0001UA","holder":null,"holder_count":null}},{"type":"Feature","geometry":{"type":"Point","coordinates":[-5.799937,36.745045]},"properties":{"id":"VUT/CA/16122","type":"VUT","group":"Por habitaciones","address":"CALLE MATRERA ARRIBA Nº 8","postal_code":"11630","places":6,"units":3,"registered":"2023-01-13","catastro":"0104123TF5700S0001OK","holder":null,"holder_count":null}},{"type":"Feature","geometry":{"type":"Point","coordinates":[-5.810571,36.755068]},"properties":{"id":"VUT/CA/16183","type":"VUT","group":"Completa","address":"CALLE ZARZALEÑA Nº 5 Plta/Piso bajo Pta/Letra a, piso bajo, puerta a","postal_code":"11630","places":6,"units":3,"registered":"2023-01-19","catastro":"9215318TF4791N0009KD","holder":null,"holder_count":null}},{"type":"Feature","geometry":{"type":"Point","coordinates":[-5.776253,36.764089]},"properties":{"id":"VUT/CA/16283","type":"VUT","group":"Completa","address":"CALLE PINTOR SOROLLA Nº 12","postal_code":"11638","places":5,"units":2,"registered":"2023-02-01","catastro":"2324419TF5722S0001MF","holder":null,"holder_count":null}},{"type":"Feature","geometry":{"type":"Point","coordinates":[-5.811562,36.750979]},"properties":{"id":"VUT/CA/16397","type":"VUT","group":"Por habitaciones","address":"CALLE CORREDERA Nº 66","postal_code":"11630","places":6,"units":4,"registered":"2023-02-13","catastro":"9111210TF4791S0001FD","holder":null,"holder_count":null}},{"type":"Feature","geometry":{"type":"Point","coordinates":[-5.804009,36.747421]},"properties":{"id":"VUT/CA/16491","type":"VUT","group":"Completa","address":"CALLE CUNA Nº 4 Plta/Piso BAJO Pta/Letra IZQUIERDA, piso BAJO, puerta IZQUIERDA","postal_code":"11630","places":4,"units":1,"registered":"2023-02-21","catastro":"9707707TF4790N0003YD","holder":null,"holder_count":null}},{"type":"Feature","geometry":{"type":"Point","coordinates":[-5.750303,36.723545]},"properties":{"id":"VUT/CA/16643","type":"VUT","group":"Completa","address":"CALLE DE LOS OLIVOS Nº 36","postal_code":"11630","places":6,"units":3,"registered":"2023-03-07","catastro":"4381133TF5648S0002YT","holder":"OLE SOLUTIONS HOLIDAY RENTALS S.L.","holder_count":4}},{"type":"Feature","geometry":{"type":"Point","coordinates":[-5.808072,36.748585]},"properties":{"id":"VUT/CA/16790","type":"VUT","group":"Completa","address":"CALLE MURETE Nº 11","postal_code":"11630","places":2,"units":1,"registered":"2023-03-18","catastro":"9309713TF4790N0001RA","holder":null,"holder_count":null}},{"type":"Feature","geometry":{"type":"Point","coordinates":[-5.80456,36.746955]},"properties":{"id":"VUT/CA/16889","type":"VUT","group":"Completa","address":"CALLE Maldonado Nº 16 Esc. 01 Plta/Piso 00 Pta/Letra 04, piso 00, puerta 04","postal_code":"11630","places":3,"units":2,"registered":"2023-03-28","catastro":"9607710TF4790N0007KJ","holder":null,"holder_count":null}},{"type":"Feature","geometry":{"type":"Point","coordinates":[-5.769419,36.763639]},"properties":{"id":"VUT/CA/16964","type":"VUT","group":"Completa","address":"CALLE PINTOR ANTOLINEZ Nº 7","postal_code":"11638","places":8,"units":2,"registered":"2023-04-03","catastro":"2923312TF5722S0001KF","holder":null,"holder_count":null}},{"type":"Feature","geometry":{"type":"Point","coordinates":[-5.798029,36.745234]},"properties":{"id":"VUT/CA/17456","type":"VUT","group":"Completa","address":"CALLE CARDENAL ESPINOLA Nº 2","postal_code":"11630","places":10,"units":6,"registered":"2023-05-10","catastro":"0204508TF5700S0000RJ","holder":null,"holder_count":null}},{"type":"Feature","geometry":{"type":"Point","coordinates":[-5.758567,36.725299]},"properties":{"id":"VUT/CA/17601","type":"VUT","group":"Completa","address":"CARRETERA ARCOS A ALGAR Nº KM3 Compl.Dom. URBANIZACION ARCOS GARDENS CASA M1","postal_code":"11630","places":4,"units":2,"registered":"2023-05-22","catastro":"4381107TF5648S0049EJ","holder":null,"holder_count":null}},{"type":"Feature","geometry":{"type":"Point","coordinates":[-5.808393,36.750017]},"properties":{"id":"VUT/CA/17700","type":"VUT","group":"Completa","address":"CALLE Tras los Molinos Nº 4","postal_code":"11630","places":6,"units":3,"registered":"2023-05-28","catastro":"9310637TF4791S0001FD","holder":null,"holder_count":null}},{"type":"Feature","geometry":{"type":"Point","coordinates":[-5.758694,36.72543]},"properties":{"id":"VUT/CA/17949","type":"VUT","group":"Completa","address":"CARRETERA Arcos Algar Km 7","postal_code":"11630","places":4,"units":2,"registered":"2023-06-13","catastro":"4381107TF5648S0016WH","holder":"MATUBER, SL","holder_count":1}},{"type":"Feature","geometry":{"type":"Point","coordinates":[-5.816298,36.753269]},"properties":{"id":"VUT/CA/18412","type":"VUT","group":"Completa","address":"CALLE GOMELES Nº 29","postal_code":"11630","places":3,"units":1,"registered":"2023-07-19","catastro":"8713410TF4781S0003LA","holder":null,"holder_count":null}},{"type":"Feature","geometry":{"type":"Point","coordinates":[-5.802378,36.745768]},"properties":{"id":"VUT/CA/18499","type":"VUT","group":"Por habitaciones","address":"CALLE ALANISES Nº 9","postal_code":"11630","places":6,"units":3,"registered":"2023-07-28","catastro":"9905206TF4790N0003BD","holder":null,"holder_count":null}},{"type":"Feature","geometry":{"type":"Point","coordinates":[-5.803205,36.747539]},"properties":{"id":"VUT/CA/18518","type":"VUT","group":"Completa","address":"CALLE CILLA Nº 2 Plta/Piso BAJO Pta/Letra 3, piso BAJO, puerta 3","postal_code":"11650","places":4,"units":2,"registered":"2023-07-31","catastro":"9807620TF4790N0003AD","holder":null,"holder_count":null}},{"type":"Feature","geometry":{"type":"Point","coordinates":[-5.804552,36.74801]},"properties":{"id":"VUT/CA/18522","type":"VUT","group":"Completa","address":"CALLE PLATERA Nº 5 Plta/Piso 1ª Pta/Letra 2, piso 1ª, puerta 2","postal_code":"11630","places":4,"units":2,"registered":"2023-07-31","catastro":"9707307TF4790N0001AA","holder":"HERENCIA YACENTE LEONOR DE LA ROSA","holder_count":2}},{"type":"Feature","geometry":{"type":"Point","coordinates":[-5.804552,36.74801]},"properties":{"id":"VUT/CA/18523","type":"VUT","group":"Completa","address":"CALLE PLATERA Nº 5 Plta/Piso 1ª Pta/Letra 3, piso 1ª, puerta 3","postal_code":"11630","places":4,"units":2,"registered":"2023-07-31","catastro":"9707307TF4790N0001AA","holder":"HERENCIA YACENTE LEONOR DE LA ROSA","holder_count":2}},{"type":"Feature","geometry":{"type":"Point","coordinates":[-5.813599,36.752079]},"properties":{"id":"VUT/CA/18640","type":"VUT","group":"Completa","address":"CALLE ALTA Nº 29","postal_code":"11630","places":3,"units":1,"registered":"2023-08-16","catastro":"8912320TF4781s0001OO","holder":null,"holder_count":null}},{"type":"Feature","geometry":{"type":"Point","coordinates":[-5.811671,36.750708]},"properties":{"id":"VUT/CA/18815","type":"VUT","group":"Completa","address":"CALLE CORREDERA Nº 69","postal_code":"11630","places":3,"units":1,"registered":"2023-09-14","catastro":"9011806TF4791S0001FD","holder":"TODOCOM CONSTRUCCION 2000, S.L.","holder_count":1}},{"type":"Feature","geometry":{"type":"Point","coordinates":[-5.812401,36.75155]},"properties":{"id":"VUT/CA/18835","type":"VUT","group":"Completa","address":"PEÑA PICADA Nº 7","postal_code":"11630","places":2,"units":1,"registered":"2023-09-19","catastro":"8912420TF4781S0002FP","holder":null,"holder_count":null}},{"type":"Feature","geometry":{"type":"Point","coordinates":[-5.807282,36.749397]},"properties":{"id":"VUT/CA/19226","type":"VUT","group":"Completa","address":"CALLE CUESTA DEL PERRO Nº 4-5","postal_code":"11630","places":6,"units":3,"registered":"2023-12-11","catastro":"9509820TF4790N0001TA","holder":null,"holder_count":null}},{"type":"Feature","geometry":{"type":"Point","coordinates":[-5.787469,36.75867]},"properties":{"id":"VUT/CA/19254","type":"VUT","group":"Completa","address":"AVENIDA EL SANTISCAL Nº 13","postal_code":"11630","places":8,"units":4,"registered":"2023-12-15","catastro":"1219906TF5711N0001UI","holder":null,"holder_count":null}},{"type":"Feature","geometry":{"type":"Point","coordinates":[-5.800665,36.745077]},"properties":{"id":"VUT/CA/19346","type":"VUT","group":"Completa","address":"CALLE CALLEJAS Nº 38 Plta/Piso 0 Pta/Letra 1 Compl.Dom. LETRA A N2-40, piso 0, puerta 1","postal_code":"11630","places":7,"units":3,"registered":"2024-01-04","catastro":"0104113TF5700S0002HL","holder":null,"holder_count":null}},{"type":"Feature","geometry":{"type":"Point","coordinates":[-5.805384,36.748377]},"properties":{"id":"VUT/CA/19398","type":"VUT","group":"Completa","address":"CALLE Benito Gatica Nº 2 Plta/Piso 1 Pta/Letra 3, piso 1, puerta 3","postal_code":"11630","places":2,"units":1,"registered":"2024-01-11","catastro":"9608614TF4790N0002RS","holder":null,"holder_count":null}},{"type":"Feature","geometry":{"type":"Point","coordinates":[-5.758567,36.725299]},"properties":{"id":"VUT/CA/19411","type":"VUT","group":"Completa","address":"CARRETERA Arcos Algar Km 3 Blq. K Pta/Letra 2 Compl.Dom. Urbanización-Condominios Fairways Gardens, puerta 2","postal_code":"11630","places":4,"units":2,"registered":"2024-01-13","catastro":"4381107TF5648S0042LP","holder":null,"holder_count":null}},{"type":"Feature","geometry":{"type":"Point","coordinates":[-5.799554,36.742571]},"properties":{"id":"VUT/CA/19580","type":"VUT","group":"Completa","address":"CALLE EXTRAMURO DE ALGARROBO Nº 5 Plta/Piso 1 Pta/Letra I, piso 1, puerta I","postal_code":"11630","places":4,"units":2,"registered":"2024-01-30","catastro":"0101506TF5700S0003TB","holder":null,"holder_count":null}},{"type":"Feature","geometry":{"type":"Point","coordinates":[-5.80504,36.748216]},"properties":{"id":"VUT/CA/19654","type":"VUT","group":"Completa","address":"CALLE HIGINIO CAPOTE Nº 19 Plta/Piso 1 Pta/Letra 03, piso 1, puerta 03","postal_code":"11630","places":6,"units":2,"registered":"2024-02-06","catastro":"9608612TF4790N0005SG","holder":"TRIANITA APARTAMENTOS SL","holder_count":1}},{"type":"Feature","geometry":{"type":"Point","coordinates":[-5.810493,36.752475]},"properties":{"id":"VUT/CA/19880","type":"VUT","group":"Completa","address":"CALLE Espera Nº 22 Pta/Letra A, puerta A","postal_code":"11630","places":5,"units":2,"registered":"2024-03-04","catastro":"9213111TF4791S0002XF","holder":null,"holder_count":null}},{"type":"Feature","geometry":{"type":"Point","coordinates":[-5.811878,36.751044]},"properties":{"id":"VUT/CA/19884","type":"VUT","group":"Completa","address":"CALLE CORREDERA Nº 72","postal_code":"11630","places":11,"units":5,"registered":"2024-03-05","catastro":"9111213TF4791S0004ZH","holder":"ESCAYOLAS Y DECORACION CASTRO SL","holder_count":1}},{"type":"Feature","geometry":{"type":"Point","coordinates":[-5.816852,36.754122]},"properties":{"id":"VUT/CA/19947","type":"VUT","group":"Completa","address":"CALLE SOL Nº 1","postal_code":"11630","places":8,"units":2,"registered":"2024-03-12","catastro":"8515719TF4781N0001ZQ","holder":null,"holder_count":null}},{"type":"Feature","geometry":{"type":"Point","coordinates":[-5.758694,36.72543]},"properties":{"id":"VUT/CA/19982","type":"VUT","group":"Completa","address":"URBANIZACION CONDOMINIOS FAIRWAYS GARDENS Nº 3 Blq. A","postal_code":"11630","places":4,"units":6,"registered":"2024-03-15","catastro":"4381107TF5648S0003GY","holder":"GEOAGRICOLA S.L.","holder_count":1}},{"type":"Feature","geometry":{"type":"Point","coordinates":[-5.785591,36.745206]},"properties":{"id":"VUT/CA/20014","type":"VUT","group":"Completa","address":"LUGAR LA PLATA Nº S/N","postal_code":"11630","places":4,"units":6,"registered":"2024-03-19","catastro":"53006A102000480001MP","holder":null,"holder_count":null}},{"type":"Feature","geometry":{"type":"Point","coordinates":[-5.758694,36.72543]},"properties":{"id":"VUT/CA/20052","type":"VUT","group":"Completa","address":"BLOQUE GARDEN GOLF FAIRWAYS Nº J1 Pta/Letra J1, puerta J1","postal_code":"11630","places":4,"units":2,"registered":"2024-03-21","catastro":"4381107TF5648S0037JI","holder":null,"holder_count":null}},{"type":"Feature","geometry":{"type":"Point","coordinates":[-5.928639,36.722837]},"properties":{"id":"VUT/CA/20076","type":"VUT","group":"Completa","address":"CALLE COOPERATIVA JECO Nº 1 Blq. 1 Plta/Piso BAJA Pta/Letra A, piso BAJA, puerta A","postal_code":"11620","places":6,"units":3,"registered":"2024-03-23","catastro":"8683801TF3688S0001WL","holder":null,"holder_count":null}},{"type":"Feature","geometry":{"type":"Point","coordinates":[-5.813643,36.753541]},"properties":{"id":"VUT/CA/20134","type":"VUT","group":"Completa","address":"CALLE CUCARRO Nº 26 Plta/Piso 1 Pta/Letra A, piso 1, puerta A","postal_code":"11630","places":3,"units":1,"registered":"2024-03-30","catastro":"8914903TF4781S0006KF","holder":null,"holder_count":null}},{"type":"Feature","geometry":{"type":"Point","coordinates":[-5.803468,36.748426]},"properties":{"id":"VUT/CA/20160","type":"VUT","group":"Completa","address":"CALLE JUEGO PADILLA Nº 7 Pta/Letra 7 Compl.Dom. PLAZA MARCELO, puerta 7","postal_code":"11630","places":6,"units":2,"registered":"2024-04-03","catastro":"9808804TF4790N0001QA","holder":null,"holder_count":null}},{"type":"Feature","geometry":{"type":"Point","coordinates":[-5.803468,36.748426]},"properties":{"id":"VUT/CA/20329","type":"VUT","group":"Completa","address":"CALLE JUEGO PADILLA Nº 7 Pta/Letra 7, puerta 7","postal_code":"11630","places":6,"units":2,"registered":"2024-04-18","catastro":"9808804TF4790N0001QA","holder":null,"holder_count":null}},{"type":"Feature","geometry":{"type":"Point","coordinates":[-5.80456,36.746955]},"properties":{"id":"VUT/CA/20377","type":"VUT","group":"Completa","address":"CALLE MALDONADO Nº 16","postal_code":"11630","places":5,"units":4,"registered":"2024-04-23","catastro":"9607710TF4790N0003FD","holder":null,"holder_count":null}},{"type":"Feature","geometry":{"type":"Point","coordinates":[-5.771713,36.763653]},"properties":{"id":"VUT/CA/20469","type":"VUT","group":"Completa","address":"CALLE PINTOR CLAUDIO COELLO Nº 5","postal_code":"11630","places":10,"units":3,"registered":"2024-04-30","catastro":"2624508TF5722S0001MF","holder":null,"holder_count":null}},{"type":"Feature","geometry":{"type":"Point","coordinates":[-5.811668,36.752269]},"properties":{"id":"VUT/CA/20474","type":"VUT","group":"Completa","address":"CALLE PINSAPAR Blq. 2 Plta/Piso 1 Pta/Letra E, piso 1, puerta E","postal_code":"11630","places":4,"units":2,"registered":"2024-04-30","catastro":"9112124TF4791S0010TL","holder":null,"holder_count":null}},{"type":"Feature","geometry":{"type":"Point","coordinates":[-5.79982,36.744718]},"properties":{"id":"VUT/CA/20584","type":"VUT","group":"Completa","address":"CALLE RAFAEL PÉREZ MAYOLÍN Nº 7","postal_code":"11630","places":4,"units":2,"registered":"2024-05-09","catastro":"0104131TF5700S0001IK","holder":null,"holder_count":null}},{"type":"Feature","geometry":{"type":"Point","coordinates":[-5.809925,36.754987]},"properties":{"id":"VUT/CA/20670","type":"VUT","group":"Completa","address":"CALLE JUAN PABLO II Portal 1 Plta/Piso 1 Pta/Letra 4, piso 1, puerta 4","postal_code":"11630","places":7,"units":2,"registered":"2024-05-15","catastro":"9215322TF4791N0031JE","holder":null,"holder_count":null}},{"type":"Feature","geometry":{"type":"Point","coordinates":[-5.818073,36.757155]},"properties":{"id":"VUT/CA/20711","type":"VUT","group":"Por habitaciones","address":"CALLE PICASSO Nº 13 Plta/Piso 2 Pta/Letra B, piso 2, puerta B","postal_code":"11630","places":11,"units":3,"registered":"2024-05-19","catastro":"8518607TF4781N0012TO","holder":null,"holder_count":null}},{"type":"Feature","geometry":{"type":"Point","coordinates":[-5.80396,36.746765]},"properties":{"id":"VUT/CA/20745","type":"VUT","group":"Completa","address":"CALLE san pedro Nº 6 Plta/Piso 2 Pta/Letra 6, piso 2, puerta 6","postal_code":"11630","places":2,"units":1,"registered":"2024-05-21","catastro":"9706601TF4790N0016XM","holder":null,"holder_count":null}},{"type":"Feature","geometry":{"type":"Point","coordinates":[-5.798531,36.743812]},"properties":{"id":"VUT/CA/20905","type":"VUT","group":"Completa","address":"CALLE PEREZ GALDOS Nº 18","postal_code":"11630","places":5,"units":2,"registered":"2024-06-01","catastro":"0202405TF5700S0001PK","holder":null,"holder_count":null}},{"type":"Feature","geometry":{"type":"Point","coordinates":[-5.81465,36.752551]},"properties":{"id":"VUT/CA/21040","type":"VUT","group":"Completa","address":"CALLE ALTA Nº 53","postal_code":"11630","places":2,"units":2,"registered":"2024-06-12","catastro":"8912308TF4781S0001QO","holder":null,"holder_count":null}},{"type":"Feature","geometry":{"type":"Point","coordinates":[-5.810347,36.751114]},"properties":{"id":"VUT/CA/21124","type":"VUT","group":"Completa","address":"CAMINO camino de las nieves Nº 27 Pta/Letra d, puerta d","postal_code":"11630","places":7,"units":3,"registered":"2024-06-18","catastro":"9111532TF4791S0006FK","holder":null,"holder_count":null}},{"type":"Feature","geometry":{"type":"Point","coordinates":[-5.802923,36.747083]},"properties":{"id":"VUT/CA/21334","type":"VUT","group":"Completa","address":"CALLE MARTÍN MONTERO Nº 30 Compl.Dom. CASCO ANTIGUO","postal_code":"11630","places":4,"units":1,"registered":"2024-07-04","catastro":"9806911TF4790N0006DH","holder":null,"holder_count":null}},{"type":"Feature","geometry":{"type":"Point","coordinates":[-5.799821,36.744758]},"properties":{"id":"VUT/CA/21436","type":"VUT","group":"Completa","address":"CALLE RAFAEL PEREZ MAYOLIN Nº 3","postal_code":"11630","places":5,"units":3,"registered":"2024-07-12","catastro":"0104129TF5700S0001JK","holder":null,"holder_count":null}},{"type":"Feature","geometry":{"type":"Point","coordinates":[-5.758694,36.72543]},"properties":{"id":"VUT/CA/21440","type":"VUT","group":"Completa","address":"CARRETERA ARCOS-ALGAR Km 3 Pta/Letra N3 Compl.Dom. CAMPO DE GOLF, puerta N3","postal_code":"11630","places":6,"units":2,"registered":"2024-07-13","catastro":"4381107TF5648S0055YB","holder":null,"holder_count":null}},{"type":"Feature","geometry":{"type":"Point","coordinates":[-5.807615,36.748805]},"properties":{"id":"VUT/CA/21472","type":"VUT","group":"Completa","address":"CALLE CUESTA DE BELÉN Nº 1 Plta/Piso BAJO Compl.Dom. ENTRADA INDEPENDIENTE POR CALLE NUEVA, Nº5, piso BAJO","postal_code":"11630","places":5,"units":3,"registered":"2024-07-16","catastro":"9408406TF4790N0001SA","holder":null,"holder_count":null}},{"type":"Feature","geometry":{"type":"Point","coordinates":[-5.807615,36.748805]},"properties":{"id":"VUT/CA/21473","type":"VUT","group":"Completa","address":"CALLE CUESTA DE BELÉN Nº 1 Plta/Piso BAJO Compl.Dom. ENTRADA INDEPENDIENTE POR CALLE NUEVA, Nº5, piso BAJO","postal_code":"11630","places":5,"units":3,"registered":"2024-07-16","catastro":"9408406TF4790N0001SA","holder":null,"holder_count":null}},{"type":"Feature","geometry":{"type":"Point","coordinates":[-5.758694,36.72543]},"properties":{"id":"VUT/CA/21479","type":"VUT","group":"Completa","address":"CALLE ALCORNOCALES Nº 4 Portal C","postal_code":"11630","places":12,"units":2,"registered":"2024-07-17","catastro":"4381107TF5648S0012ZS","holder":"VALORES DE IBIZA, SLU","holder_count":1}},{"type":"Feature","geometry":{"type":"Point","coordinates":[-5.810185,36.751036]},"properties":{"id":"VUT/CA/21487","type":"VUT","group":"Completa","address":"CALLE CAMINO DE LAS NIEVES Nº 31","postal_code":"11630","places":4,"units":2,"registered":"2024-07-18","catastro":"9111530TF4791S0002GF","holder":null,"holder_count":null}},{"type":"Feature","geometry":{"type":"Point","coordinates":[-5.809343,36.749811]},"properties":{"id":"VUT/CA/21488","type":"VUT","group":"Completa","address":"CALLE Corredera Calif.Nº 16","postal_code":"11630","places":3,"units":2,"registered":"2024-07-18","catastro":"9310112tf4791s0001ud","holder":null,"holder_count":null}},{"type":"Feature","geometry":{"type":"Point","coordinates":[-5.807591,36.7486]},"properties":{"id":"VUT/CA/21791","type":"VUT","group":"Completa","address":"CALLE NUEVA Nº 5","postal_code":"11630","places":5,"units":2,"registered":"2024-08-16","catastro":"9408408TF4790N0001UA","holder":null,"holder_count":null}},{"type":"Feature","geometry":{"type":"Point","coordinates":[-5.802815,36.746747]},"properties":{"id":"VUT/CA/21826","type":"VUT","group":"Completa","address":"CALLE PIEDRA DEL MOLINO Nº 8 Portal 2 Plta/Piso BAJA Pta/Letra DERECHA, piso BAJA, puerta DERECHA","postal_code":"11630","places":2,"units":1,"registered":"2024-08-20","catastro":"9806921TF4790N0002ES","holder":null,"holder_count":null}},{"type":"Feature","geometry":{"type":"Point","coordinates":[-5.802815,36.746747]},"properties":{"id":"VUT/CA/21827","type":"VUT","group":"Completa","address":"CALLE PIEDRA DEL MOLINO Nº 8 Portal 1 Plta/Piso BAJA Pta/Letra 2, piso BAJA, puerta 2","postal_code":"11630","places":2,"units":1,"registered":"2024-08-20","catastro":"9806921TF4790N0007IJ","holder":null,"holder_count":null}},{"type":"Feature","geometry":{"type":"Point","coordinates":[-5.802815,36.746747]},"properties":{"id":"VUT/CA/21829","type":"VUT","group":"Completa","address":"CALLE PIEDRA DEL MOLINO Nº 8 Portal 2 Esc. 1 Plta/Piso 1 Pta/Letra 1, piso 1, puerta 1","postal_code":"11630","places":3,"units":1,"registered":"2024-08-20","catastro":"9806921TF4790N0008OK","holder":null,"holder_count":null}},{"type":"Feature","geometry":{"type":"Point","coordinates":[-5.807486,36.749062]},"properties":{"id":"VUT/CA/21846","type":"VUT","group":"Completa","address":"CALLE Juan del Valle Nº 1","postal_code":"11630","places":2,"units":1,"registered":"2024-08-22","catastro":"9409801tf4790n0002ss","holder":null,"holder_count":null}},{"type":"Feature","geometry":{"type":"Point","coordinates":[-5.816368,36.750968]},"properties":{"id":"VUT/CA/21870","type":"VUT","group":"Completa","address":"CALLE Muñoz Vázquez Nº 24 Blq. 3 Plta/Piso 3 Pta/Letra 1, piso 3, puerta 1","postal_code":"11630","places":4,"units":1,"registered":"2024-08-27","catastro":"8611615TF4781S0150DM","holder":null,"holder_count":null}},{"type":"Feature","geometry":{"type":"Point","coordinates":[-5.816368,36.750968]},"properties":{"id":"VUT/CA/21878","type":"VUT","group":"Completa","address":"CALLE Muñoz Vázquez Nº 26 Blq. 3 Plta/Piso 3 Pta/Letra 1, piso 3, puerta 1","postal_code":"11630","places":4,"units":1,"registered":"2024-08-28","catastro":"8611615TF4781S0150DM","holder":null,"holder_count":null}},{"type":"Feature","geometry":{"type":"Point","coordinates":[-5.778592,36.766422]},"properties":{"id":"VUT/CA/21958","type":"VUT","group":"Completa","address":"AVENIDA PRINCIPE DE ESPAÑA Nº 411 Compl.Dom. URBANIZACION DOMINIO EL SANTICAL","postal_code":"11630","places":4,"units":2,"registered":"2024-09-17","catastro":"2227803TF5722N0010BS","holder":"PANADERIA BARROSO GARCIA, S.L.","holder_count":1}},{"type":"Feature","geometry":{"type":"Point","coordinates":[-5.800274,36.744884]},"properties":{"id":"VUT/CA/22030","type":"VUT","group":"Completa","address":"CALLE Rafael Perez Mayolin Nº 17","postal_code":"11630","places":9,"units":3,"registered":"2024-09-22","catastro":"0104135TF5700S0001ZK","holder":null,"holder_count":null}},{"type":"Feature","geometry":{"type":"Point","coordinates":[-5.806578,36.748854]},"properties":{"id":"VUT/CA/22082","type":"VUT","group":"Completa","address":"CALLE CRISTÓBAL COLÓN Nº 11 Esc. 1 Plta/Piso 01 Pta/Letra 01, piso 01, puerta 01","postal_code":"11630","places":2,"units":1,"registered":"2024-10-02","catastro":"9508403TF4790N0003WD","holder":null,"holder_count":null}},{"type":"Feature","geometry":{"type":"Point","coordinates":[-5.804741,36.748331]},"properties":{"id":"VUT/CA/22190","type":"VUT","group":"Completa","address":"CALLE LEAL Nº 3","postal_code":"11630","places":4,"units":1,"registered":"2024-10-18","catastro":"9608609TF4790N0002OS","holder":null,"holder_count":null}},{"type":"Feature","geometry":{"type":"Point","coordinates":[-5.816368,36.750968]},"properties":{"id":"VUT/CA/22193","type":"VUT","group":"Completa","address":"CALLE Muñoz Vazquez Nº 26 Portal 3 Plta/Piso 3 Pta/Letra 1, piso 3, puerta 1","postal_code":"11630","places":4,"units":1,"registered":"2024-10-19","catastro":"8611615TF4781S0150DM","holder":null,"holder_count":null}},{"type":"Feature","geometry":{"type":"Point","coordinates":[-5.806578,36.748854]},"properties":{"id":"VUT/CA/22345","type":"VUT","group":"Completa","address":"CALLE CRISTÓBAL COLÓN Nº 11 Esc. 1 Plta/Piso 01 Pta/Letra 01, piso 01, puerta 01","postal_code":"11630","places":3,"units":1,"registered":"2024-11-12","catastro":"9508403TF4790N0003WD","holder":null,"holder_count":null}},{"type":"Feature","geometry":{"type":"Point","coordinates":[-5.798577,36.743359]},"properties":{"id":"VUT/CA/22400","type":"VUT","group":"Completa","address":"CALLE RAMÓN Y CAJAL Nº 3","postal_code":"11630","places":5,"units":2,"registered":"2024-11-21","catastro":"0202902TF5700S0004YZ","holder":null,"holder_count":null}},{"type":"Feature","geometry":{"type":"Point","coordinates":[-5.932155,36.724231]},"properties":{"id":"VUT/CA/22404","type":"VUT","group":"Completa","address":"CALLE SAN ISIDRO LABRADOR Nº 2","postal_code":"11620","places":5,"units":2,"registered":"2024-11-22","catastro":"8284603TF3688S0001EL","holder":null,"holder_count":null}},{"type":"Feature","geometry":{"type":"Point","coordinates":[-5.80504,36.748216]},"properties":{"id":"VUT/CA/22433","type":"VUT","group":"Por habitaciones","address":"CALLE Higinio Capote Nº 19 Calif.Nº B Plta/Piso Bajo Pta/Letra 2, piso Bajo, puerta 2","postal_code":"11630","places":4,"units":1,"registered":"2024-11-27","catastro":"9608612TF4790N0004AF","holder":null,"holder_count":null}},{"type":"Feature","geometry":{"type":"Point","coordinates":[-5.821911,36.750834]},"properties":{"id":"VUT/CA/22453","type":"VUT","group":"Completa","address":"CALLE Buleria Nº 12 Plta/Piso 2 Pta/Letra B, piso 2, puerta B","postal_code":"11630","places":6,"units":3,"registered":"2024-11-29","catastro":"8111505TF4781S0057DR","holder":null,"holder_count":null}},{"type":"Feature","geometry":{"type":"Point","coordinates":[-5.816368,36.750968]},"properties":{"id":"VUT/CA/22489","type":"VUT","group":"Completa","address":"CALLE Muñoz Vazquez Nº 26 Portal 3 Plta/Piso 3 Pta/Letra 1, piso 3, puerta 1","postal_code":"11630","places":4,"units":1,"registered":"2024-12-05","catastro":"8611615TF4781S0150DM","holder":null,"holder_count":null}},{"type":"Feature","geometry":{"type":"Point","coordinates":[-5.807196,36.748942]},"properties":{"id":"VUT/CA/22507","type":"VUT","group":"Completa","address":"CALLE CRISTOBAL COLON Nº 15","postal_code":"11630","places":4,"units":2,"registered":"2024-12-10","catastro":"9408503TF4790N0001SA","holder":null,"holder_count":null}},{"type":"Feature","geometry":{"type":"Point","coordinates":[-5.817745,36.750525]},"properties":{"id":"VUT/CA/22530","type":"VUT","group":"Completa","address":"AVENIDA MIGUEL MANCHEÑO Nº 17 Plta/Piso 2 Pta/Letra 3, piso 2, puerta 3","postal_code":"11630","places":4,"units":1,"registered":"2024-12-13","catastro":"8511703TF4781S0003QA","holder":null,"holder_count":null}},{"type":"Feature","geometry":{"type":"Point","coordinates":[-5.930341,36.724499]},"properties":{"id":"VUT/CA/22540","type":"VUT","group":"Completa","address":"CALLE Deporte Nº 17 Plta/Piso 1 Pta/Letra B, piso 1, puerta B","postal_code":"11620","places":6,"units":2,"registered":"2024-12-13","catastro":"8484504TF3688S0003JZ","holder":null,"holder_count":null}},{"type":"Feature","geometry":{"type":"Point","coordinates":[-5.80698,36.748887]},"properties":{"id":"VUT/CA/22576","type":"VUT","group":"Completa","address":"CALLE DEAN ESPINOSA Nº 12","postal_code":"11630","places":8,"units":4,"registered":"2024-12-20","catastro":"9508401TF4790N0009DL","holder":null,"holder_count":null}},{"type":"Feature","geometry":{"type":"Point","coordinates":[-5.783625,36.739428]},"properties":{"id":"VUT/CA/22584","type":"VUT","group":"Completa","address":"CAMINO DE SERVICIO CANAL MARGEN IZQUIERDA DEL GUADALETE Nº S/N","postal_code":"11630","places":9,"units":3,"registered":"2024-12-23","catastro":"53006A086000120001FM","holder":"OLE SOLUTIONS HOLIDAY RENTALS S.L.","holder_count":4}},{"type":"Feature","geometry":{"type":"Point","coordinates":[-5.80798,36.749412]},"properties":{"id":"VUT/CA/22665","type":"VUT","group":"Completa","address":"CALLE TORRE DE LA ESQUINA Nº 4","postal_code":"11630","places":6,"units":2,"registered":"2025-01-09","catastro":"9409901TF4790N0002HS","holder":null,"holder_count":null}},{"type":"Feature","geometry":{"type":"Point","coordinates":[-5.816368,36.750968]},"properties":{"id":"VUT/CA/22700","type":"VUT","group":"Completa","address":"CALLE MUÑOZ  VAZQUEZ Nº S/N","postal_code":"11630","places":4,"units":1,"registered":"2025-01-16","catastro":"8611615TF4781S0153HE","holder":null,"holder_count":null}},{"type":"Feature","geometry":{"type":"Point","coordinates":[-5.80309,36.746167]},"properties":{"id":"VUT/CA/22842","type":"VUT","group":"Completa","address":"CALLE Altozano Nº 4","postal_code":"11630","places":4,"units":1,"registered":"2025-01-30","catastro":"9805405TF4790N0001WA","holder":null,"holder_count":null}},{"type":"Feature","geometry":{"type":"Point","coordinates":[-5.803501,36.747333]},"properties":{"id":"VUT/CA/22850","type":"VUT","group":"Completa","address":"CALLE CADENAS Nº 4","postal_code":"11630","places":2,"units":1,"registered":"2025-01-31","catastro":"9707704TF4790N0005RG","holder":null,"holder_count":null}},{"type":"Feature","geometry":{"type":"Point","coordinates":[-5.817626,36.750293]},"properties":{"id":"VUT/CA/22853","type":"VUT","group":"Completa","address":"AVENIDA DUQUE DE ARCOS Nº 5 Plta/Piso 2 Pta/Letra B, piso 2, puerta B","postal_code":"11630","places":2,"units":1,"registered":"2025-01-31","catastro":"8511729TF4781S0005XD","holder":null,"holder_count":null}},{"type":"Feature","geometry":{"type":"Point","coordinates":[-5.804606,36.748541]},"properties":{"id":"VUT/CA/22905","type":"VUT","group":"Completa","address":"CALLE Mateo Gonzalez Nº 1 Esc. 1 Plta/Piso 00 Pta/Letra 02, piso 00, puerta 02","postal_code":"11630","places":6,"units":2,"registered":"2025-02-06","catastro":"9707502TF4790N0002ZS","holder":"TYCO EMPRENDEDORAS CB","holder_count":2}},{"type":"Feature","geometry":{"type":"Point","coordinates":[-5.804606,36.748541]},"properties":{"id":"VUT/CA/22906","type":"VUT","group":"Completa","address":"CALLE Mateo Gonzalez Nº 1 Esc. 1 Plta/Piso 01 Pta/Letra 01, piso 01, puerta 01","postal_code":"11630","places":6,"units":2,"registered":"2025-02-06","catastro":"9707502TF4790N0003XD","holder":"TYCO EMPRENDEDORAS CB","holder_count":2}},{"type":"Feature","geometry":{"type":"Point","coordinates":[-5.79496,36.747442]},"properties":{"id":"VUT/CA/22909","type":"VUT","group":"Completa","address":"POLIGONO Polígono 102 Parcela 59 Nº 102 Compl.Dom. APEDREADERO","postal_code":"11630","places":4,"units":2,"registered":"2025-02-07","catastro":"53006A102000590000XS","holder":null,"holder_count":null}},{"type":"Feature","geometry":{"type":"Point","coordinates":[-5.81674,36.751034]},"properties":{"id":"VUT/CA/22983","type":"VUT","group":"Completa","address":"AVENIDA MIGUEL MANCHEÑO Nº 2 Compl.Dom. ATICO","postal_code":"11630","places":4,"units":2,"registered":"2025-02-14","catastro":"8611614TF4781S0054TQ","holder":"SMART RENT GESTION DE INMUEBLES S.L","holder_count":1}},{"type":"Feature","geometry":{"type":"Point","coordinates":[-5.816368,36.750968]},"properties":{"id":"VUT/CA/23115","type":"VUT","group":"Completa","address":"CALLE MUÑOZ VAZQUEZ Nº 24 Esc. 2 Plta/Piso 3 Pta/Letra 1, piso 3, puerta 1","postal_code":"11630","places":8,"units":3,"registered":"2025-02-26","catastro":"8611615TF4781S0148FQ","holder":null,"holder_count":null}},{"type":"Feature","geometry":{"type":"Point","coordinates":[-5.786466,36.761017]},"properties":{"id":"VUT/CA/23156","type":"VUT","group":"Completa","address":"CALLE PINTOR EL GRECO Nº 10","postal_code":"11630","places":8,"units":4,"registered":"2025-03-03","catastro":"1421409TF5712S0001HP","holder":null,"holder_count":null}},{"type":"Feature","geometry":{"type":"Point","coordinates":[-5.811048,36.753711]},"properties":{"id":"VUT/CA/23188","type":"VUT","group":"Completa","address":"CALLE CAMINO BORNOS Nº 53","postal_code":"11630","places":2,"units":4,"registered":"2025-03-05","catastro":"9014612TF4791S0003RG","holder":null,"holder_count":null}},{"type":"Feature","geometry":{"type":"Point","coordinates":[-5.807708,36.749116]},"properties":{"id":"VUT/CA/23353","type":"VUT","group":"Completa","address":"CALLE CUESTA BELEN Nº 6 Plta/Piso 1, piso 1","postal_code":"11630","places":5,"units":2,"registered":"2025-03-17","catastro":"9409802TF4790N0002ZS","holder":"GASTROBAR EL RETABLO SL","holder_count":1}},{"type":"Feature","geometry":{"type":"Point","coordinates":[-5.816368,36.750968]},"properties":{"id":"VUT/CA/23424","type":"VUT","group":"Completa","address":"CALLE MUÑOZ VAZQUEZ Nº 3 Plta/Piso 1 Pta/Letra 2, piso 1, puerta 2","postal_code":"11630","places":4,"units":2,"registered":"2025-03-19","catastro":"8611615TF4781S0012UJ","holder":null,"holder_count":null}},{"type":"Feature","geometry":{"type":"Point","coordinates":[-5.816368,36.750968]},"properties":{"id":"VUT/CA/23528","type":"VUT","group":"Completa","address":"CALLE MUÑOZ VAZQUEZ Nº 24 Esc. 2 Plta/Piso 3 Pta/Letra 1, piso 3, puerta 1","postal_code":"11630","places":8,"units":3,"registered":"2025-03-24","catastro":"8611615TF4781S0148FQ","holder":null,"holder_count":null}},{"type":"Feature","geometry":{"type":"Point","coordinates":[-5.809598,36.74924]},"properties":{"id":"VUT/CA/23658","type":"VUT","group":"Completa","address":"PASEO DE BOLICHES Nº 3 Blq. 2 Plta/Piso BAJO Pta/Letra 6, piso BAJO, puerta 6","postal_code":"11630","places":3,"units":2,"registered":"2025-03-28","catastro":"9209714TF4790N0002XS","holder":null,"holder_count":null}},{"type":"Feature","geometry":{"type":"Point","coordinates":[-5.814068,36.752405]},"properties":{"id":"VUT/CA/24112","type":"VUT","group":"Completa","address":"CALLE ALTA 44 Nº 44 Pta/Letra 1, puerta 1","postal_code":"11630","places":4,"units":2,"registered":"2025-04-23","catastro":"8912436TF4781S0001GO","holder":null,"holder_count":null}},{"type":"Feature","geometry":{"type":"Point","coordinates":[-5.809385,36.74935]},"properties":{"id":"VUT/CA/24242","type":"VUT","group":"Por habitaciones","address":"CALLE Julio Mariscal Nº 4","postal_code":"11630","places":14,"units":7,"registered":"2025-05-15","catastro":"9209423TF4790N1001GO","holder":null,"holder_count":null}},{"type":"Feature","geometry":{"type":"Point","coordinates":[-5.807704,36.75576]},"properties":{"id":"VUT/CA/24380","type":"VUT","group":"Por habitaciones","address":"CALLE PUERTO DE SANTA MARIA (EL) Nº 46","postal_code":"11630","places":2,"units":1,"registered":"2025-05-29","catastro":"9416638TF4791N0001XT","holder":null,"holder_count":null}},{"type":"Feature","geometry":{"type":"Point","coordinates":[-5.803354,36.746876]},"properties":{"id":"VUT/CA/24386","type":"VUT","group":"Completa","address":"CALLE almirante topete Nº 15 Blq. 1 Plta/Piso 1, piso 1","postal_code":"11630","places":8,"units":3,"registered":"2025-05-29","catastro":"9806933TF4790N0007BJ","holder":null,"holder_count":null}},{"type":"Feature","geometry":{"type":"Point","coordinates":[-5.812927,36.752605]},"properties":{"id":"VUT/CA/24472","type":"VUT","group":"Completa","address":"CALLE CAMINO BORNOS Nº 11","postal_code":"11630","places":6,"units":2,"registered":"2025-06-06","catastro":"8813523TF4781S0002SP","holder":null,"holder_count":null}},{"type":"Feature","geometry":{"type":"Point","coordinates":[-5.803287,36.747312]},"properties":{"id":"VUT/CA/24542","type":"VUT","group":"Completa","address":"CALLE ALMIRANTE TOPETE Nº 5 Plta/Piso 1, piso 1","postal_code":"11630","places":2,"units":1,"registered":"2025-06-11","catastro":"9806943TF4790N0004AF","holder":null,"holder_count":null}},{"type":"Feature","geometry":{"type":"Point","coordinates":[-5.809343,36.749811]},"properties":{"id":"VUT/CA/24593","type":"VUT","group":"Completa","address":"CALLE CORREDERA Nº 16","postal_code":"11630","places":3,"units":1,"registered":"2025-06-16","catastro":"9310112TF4791S0002IF","holder":"INVERSIONES ALEANA SL","holder_count":4}},{"type":"Feature","geometry":{"type":"Point","coordinates":[-5.803057,36.747499]},"properties":{"id":"VUT/CA/24594","type":"VUT","group":"Completa","address":"CALLE MARTIN MONTERO Nº 2 Pta/Letra 7, puerta 7","postal_code":"11630","places":5,"units":1,"registered":"2025-06-16","catastro":"9807619TF4790N0002TS","holder":"AMERICANS GAME OCIO, S.L.","holder_count":1}},{"type":"Feature","geometry":{"type":"Point","coordinates":[-5.809966,36.749943]},"properties":{"id":"VUT/CA/24668","type":"VUT","group":"Completa","address":"CALLE CORREDERA Nº 31 Plta/Piso 00 Pta/Letra 1, piso 00, puerta 1","postal_code":"11630","places":4,"units":2,"registered":"2025-06-20","catastro":"9210114TF4791S0001PD","holder":"INVERSIONES ALEANA SL","holder_count":4}},{"type":"Feature","geometry":{"type":"Point","coordinates":[-5.809966,36.749943]},"properties":{"id":"VUT/CA/24669","type":"VUT","group":"Completa","address":"CALLE CORREDERA Nº 31 Plta/Piso 01 Pta/Letra 04, piso 01, puerta 04","postal_code":"11630","places":3,"units":1,"registered":"2025-06-20","catastro":"9210114TF4791S0001PD","holder":"INVERSIONES ALEANA SL","holder_count":4}},{"type":"Feature","geometry":{"type":"Point","coordinates":[-5.809966,36.749943]},"properties":{"id":"VUT/CA/24670","type":"VUT","group":"Completa","address":"CALLE CORREDERA Nº 31 Plta/Piso 01 Pta/Letra 05, piso 01, puerta 05","postal_code":"11630","places":3,"units":1,"registered":"2025-06-20","catastro":"9210114TF4791S0001PD","holder":"INVERSIONES ALEANA SL","holder_count":4}},{"type":"Feature","geometry":{"type":"Point","coordinates":[-5.816369,36.750591]},"properties":{"id":"VUT/CA/24680","type":"VUT","group":"Completa","address":"CALLE JOSEFA MORENO SEGURA Nº 3 Esc. 1 Plta/Piso 2 Pta/Letra 5, piso 2, puerta 5","postal_code":"11630","places":4,"units":2,"registered":"2025-06-20","catastro":"8611706TF4781S0005XD","holder":null,"holder_count":null}},{"type":"Feature","geometry":{"type":"Point","coordinates":[-5.80456,36.746955]},"properties":{"id":"VUT/CA/24801","type":"VUT","group":"Completa","address":"CALLE Maldonado Nº 16 Plta/Piso 1, piso 1","postal_code":"11630","places":4,"units":2,"registered":"2025-06-29","catastro":"9607710TF4790N0006JH","holder":null,"holder_count":null}},{"type":"Feature","geometry":{"type":"Point","coordinates":[-5.811878,36.751044]},"properties":{"id":"VUT/CA/24806","type":"VUT","group":"Completa","address":"CALLE CORREDERA Nº 72","postal_code":"11630","places":15,"units":6,"registered":"2025-06-30","catastro":"9111213TF4791S0002LF","holder":"ESCAYOLAS CASTRO, S.L.","holder_count":1}},{"type":"Feature","geometry":{"type":"Point","coordinates":[-5.814229,36.752302]},"properties":{"id":"VUT/CA/24939","type":"VUT","group":"Completa","address":"CALLE ALTA Nº 43 Esc. 1 Plta/Piso 1 Pta/Letra 1, piso 1, puerta 1","postal_code":"11630","places":3,"units":1,"registered":"2025-07-14","catastro":"8912313TF4781S0006QF","holder":null,"holder_count":null}},{"type":"Feature","geometry":{"type":"Point","coordinates":[-5.809012,36.750054]},"properties":{"id":"VUT/CA/24981","type":"VUT","group":"Completa","address":"CALLE alhóndiga Nº 25","postal_code":"11630","places":4,"units":1,"registered":"2025-07-21","catastro":"9310802TF4791S0001KD","holder":null,"holder_count":null}},{"type":"Feature","geometry":{"type":"Point","coordinates":[-5.81674,36.751034]},"properties":{"id":"VUT/CA/25050","type":"VUT","group":"Completa","address":"AVENIDA MIGUEL MANCHEÑO Nº 4 Portal B Plta/Piso 3 Pta/Letra 4, piso 3, puerta 4","postal_code":"11630","places":4,"units":3,"registered":"2025-08-01","catastro":"8611614TF4781S0052EX","holder":"NERVA ASESORIA INTEGRAL, S.L.","holder_count":1}},{"type":"Feature","geometry":{"type":"Point","coordinates":[-5.807196,36.748942]},"properties":{"id":"VUT/CA/25092","type":"VUT","group":"Por habitaciones","address":"CALLE VALDESPINO Nº 3","postal_code":"11630","places":4,"units":4,"registered":"2025-08-08","catastro":"9408503TF4790N0003FD","holder":null,"holder_count":null}},{"type":"Feature","geometry":{"type":"Point","coordinates":[-5.799603,36.743115]},"properties":{"id":"VUT/CA/25098","type":"VUT","group":"Por habitaciones","address":"CALLE RAMÓN Y CAJAL Nº 20","postal_code":"11630","places":2,"units":7,"registered":"2025-08-09","catastro":"0102609TF5700S0002JL","holder":null,"holder_count":null}},{"type":"Feature","geometry":{"type":"Point","coordinates":[-5.799603,36.743115]},"properties":{"id":"VUT/CA/25121","type":"VUT","group":"Completa","address":"CALLE RAMÓN Y CAJAL Nº 20","postal_code":"11630","places":14,"units":7,"registered":"2025-08-14","catastro":"0102609TF5700S0002JL","holder":null,"holder_count":null}},{"type":"Feature","geometry":{"type":"Point","coordinates":[-5.778407,36.765638]},"properties":{"id":"VUT/CA/25223","type":"VUT","group":"Completa","address":"URBANIZACION DOMINIO EL SANTISCAL Nº 32","postal_code":"11630","places":4,"units":4,"registered":"2025-09-10","catastro":"2227834TF5722N0032RT","holder":null,"holder_count":null}},{"type":"Feature","geometry":{"type":"Point","coordinates":[-5.778407,36.765638]},"properties":{"id":"VUT/CA/25224","type":"VUT","group":"Completa","address":"URBANIZACION DOMINIO EL SANTISCAL Nº 32","postal_code":"11630","places":4,"units":4,"registered":"2025-09-10","catastro":"2227834TF5722N0032RT","holder":null,"holder_count":null}},{"type":"Feature","geometry":{"type":"Point","coordinates":[-5.810229,36.749718]},"properties":{"id":"VUT/CA/25317","type":"VUT","group":"Completa","address":"CALLE Boliches Nº 12","postal_code":"11630","places":8,"units":4,"registered":"2025-10-08","catastro":"9210128TF4791S0001JD","holder":null,"holder_count":null}},{"type":"Feature","geometry":{"type":"Point","coordinates":[-5.814635,36.754809]},"properties":{"id":"VUT/CA/25418","type":"VUT","group":"Por habitaciones","address":"CALLE Portugal Nº 29","postal_code":"11630","places":3,"units":2,"registered":"2025-11-01","catastro":"8815905TF4781N0001ZQ","holder":null,"holder_count":null}},{"type":"Feature","geometry":{"type":"Point","coordinates":[-5.812493,36.75344]},"properties":{"id":"VUT/CA/25521","type":"VUT","group":"Completa","address":"CALLE HUELVA Nº 3","postal_code":"11630","places":6,"units":3,"registered":"2025-12-01","catastro":"9014907TF4791S0001LD","holder":null,"holder_count":null}},{"type":"Feature","geometry":{"type":"Point","coordinates":[-5.783595,36.759536]},"properties":{"id":"VUT/CA/25522","type":"VUT","group":"Completa","address":"CALLE pintor mariano fortuny Nº 20","postal_code":"11638","places":6,"units":3,"registered":"2025-12-01","catastro":"1520708TF5712S0001YP","holder":null,"holder_count":null}},{"type":"Feature","geometry":{"type":"Point","coordinates":[-5.803273,36.74657]},"properties":{"id":"VUT/CA/25529","type":"VUT","group":"Completa","address":"CALLE VALDERRAMA Nº 2","postal_code":"11630","places":8,"units":3,"registered":"2025-12-02","catastro":"9805401TF4790N0001SA","holder":null,"holder_count":null}},{"type":"Feature","geometry":{"type":"Point","coordinates":[-5.765421,36.741154]},"properties":{"id":"VUT/CA/25532","type":"VUT","group":"Por habitaciones","address":"CARRETERA ARCOS-EL BOSQUE EL ROMERAL S/N Nº SN","postal_code":"11630","places":6,"units":6,"registered":"2025-12-03","catastro":"53006A083000200001FM","holder":null,"holder_count":null}},{"type":"Feature","geometry":{"type":"Point","coordinates":[-5.810347,36.751114]},"properties":{"id":"VUT/CA/25539","type":"VUT","group":"Completa","address":"CALLE CAMINO DE LAS NIEVES Nº 27 Plta/Piso 1 Pta/Letra A2, piso 1, puerta A2","postal_code":"11630","places":4,"units":2,"registered":"2025-12-04","catastro":"9111532TF4791S3001EU","holder":null,"holder_count":null}},{"type":"Feature","geometry":{"type":"Point","coordinates":[-5.814976,36.751217]},"properties":{"id":"VUT/CA/25562","type":"VUT","group":"Completa","address":"CALLE MUÑOZ VAZQUEZ Nº 18 Plta/Piso 0 Pta/Letra 7, piso 0, puerta 7","postal_code":"11630","places":4,"units":1,"registered":"2025-12-10","catastro":"8611674TF4781S0007YG","holder":null,"holder_count":null}},{"type":"Feature","geometry":{"type":"Point","coordinates":[-5.783595,36.759536]},"properties":{"id":"VUT/CA/25592","type":"VUT","group":"Completa","address":"CALLE pintor mariano fortuny Nº 20","postal_code":"11638","places":6,"units":3,"registered":"2025-12-16","catastro":"1520708TF5712S0001YP","holder":null,"holder_count":null}},{"type":"Feature","geometry":{"type":"Point","coordinates":[-5.810326,36.750592]},"properties":{"id":"VUT/CA/25642","type":"VUT","group":"Por habitaciones","address":"CALLE tras los molinos Nº 24","postal_code":"11630","places":6,"units":2,"registered":"2026-01-08","catastro":"9310648tf4791s0001jd","holder":null,"holder_count":null}},{"type":"Feature","geometry":{"type":"Point","coordinates":[-5.775481,36.766112]},"properties":{"id":"VUT/CA/25858","type":"VUT","group":"Completa","address":"AVENIDA PRINCIPE DE ESPAÑA Blq. 1 Plta/Piso B Pta/Letra D Compl.Dom. URBANIZACIÓN VISTA DEL LAGO, Nº 28, piso B, puerta D","postal_code":"11638","places":9,"units":2,"registered":"2026-02-17","catastro":"2227809TF5722N0001XY","holder":null,"holder_count":null}},{"type":"Feature","geometry":{"type":"Point","coordinates":[-5.79512,36.737974]},"properties":{"id":"VUT/CA/25864","type":"VUT","group":"Por habitaciones","address":"CARRETERA ARCOS-ALGAR Km 3","postal_code":"11630","places":6,"units":6,"registered":"2026-02-18","catastro":"53006A090001510000DI","holder":null,"holder_count":null}},{"type":"Feature","geometry":{"type":"Point","coordinates":[-5.812756,36.750725]},"properties":{"id":"VUT/CA/25951","type":"VUT","group":"Completa","address":"CALLE PASEO DE BOLICHES Nº 49 Pta/Letra A, puerta A","postal_code":"11630","places":6,"units":2,"registered":"2026-03-08","catastro":"8911705TF4781S0001IO","holder":null,"holder_count":null}},{"type":"Feature","geometry":{"type":"Point","coordinates":[-5.809916,36.749514]},"properties":{"id":"VUT/CA/26023","type":"VUT","group":"Completa","address":"CALLE PASEO DE BOLICHES Nº 10","postal_code":"11630","places":6,"units":2,"registered":"2026-03-17","catastro":"9209420TF4790N0002FS","holder":null,"holder_count":null}},{"type":"Feature","geometry":{"type":"Point","coordinates":[-5.809916,36.749514]},"properties":{"id":"VUT/CA/26025","type":"VUT","group":"Completa","address":"CALLE PASEO DE BOLICHES Nº 8","postal_code":"11630","places":4,"units":1,"registered":"2026-03-17","catastro":"9209420TF4790N0001DA","holder":null,"holder_count":null}}]}