{"type":"FeatureCollection","municipio":{"slug":"benaocaz","name":"Benaocaz","total":24,"places":119,"source_updated_at":"2026-10-05"},"features":[{"type":"Feature","geometry":{"type":"Point","coordinates":[-5.421925,36.70057]},"properties":{"id":"VUT/CA/026104","type":"VUT","group":"Completa","address":"CALLE Fray Domingo de Benaocaz Nº 29","postal_code":"11612","places":2,"units":1,"registered":"2026-03-30","catastro":"3745901TF8634F0001PE","holder":null,"holder_count":null}},{"type":"Feature","geometry":{"type":"Point","coordinates":[-5.42164,36.702291]},"properties":{"id":"VUT/CA/06158","type":"VUT","group":"Completa","address":"CALLE QUEJIGUILLO Nº 4","postal_code":"11612","places":7,"units":3,"registered":"2018-10-17","catastro":"3748902TF8634H0012LY","holder":null,"holder_count":null}},{"type":"Feature","geometry":{"type":"Point","coordinates":[-5.421084,36.699867]},"properties":{"id":"VUT/CA/06392","type":"VUT","group":"Completa","address":"PLAZA El Cantillo Nº 11 Portal DR Plta/Piso 00, piso 00","postal_code":"11612","places":4,"units":1,"registered":"2018-11-21","catastro":"3845612TF8634F0003KT","holder":null,"holder_count":null}},{"type":"Feature","geometry":{"type":"Point","coordinates":[-5.421969,36.701925]},"properties":{"id":"VUT/CA/07054","type":"VUT","group":"Completa","address":"CALLE ERILLA Nº s/n","postal_code":"11612","places":4,"units":2,"registered":"2019-03-27","catastro":"3746304TF8634F0009EA","holder":null,"holder_count":null}},{"type":"Feature","geometry":{"type":"Point","coordinates":[-5.423052,36.700749]},"properties":{"id":"VUT/CA/07503","type":"VUT","group":"Completa","address":"AVENIDA DE ANDALUCIA,  APARTAMENTO A, S/N Calif.Nº 21 Esc. 1 Plta/Piso 2 Pta/Letra A, piso 2, puerta A","postal_code":"11612","places":2,"units":1,"registered":"2019-04-26","catastro":"3746816TF8634F0007PO","holder":null,"holder_count":null}},{"type":"Feature","geometry":{"type":"Point","coordinates":[-5.422395,36.703504]},"properties":{"id":"VUT/CA/07753","type":"VUT","group":"Completa","address":"CALLE PAJARUCO Nº 14 Pta/Letra E, puerta E","postal_code":"11612","places":4,"units":2,"registered":"2019-05-24","catastro":"3748602TF8634H0003QM","holder":null,"holder_count":null}},{"type":"Feature","geometry":{"type":"Point","coordinates":[-5.424118,36.703625]},"properties":{"id":"VUT/CA/09438","type":"VUT","group":"Completa","address":"CALLE LA TENERIA A Nº 44 Compl.Dom. PARCELA16 UE6","postal_code":"11612","places":10,"units":4,"registered":"2019-12-10","catastro":"3447512TF8634N0000UT","holder":null,"holder_count":null}},{"type":"Feature","geometry":{"type":"Point","coordinates":[-5.420204,36.698233]},"properties":{"id":"VUT/CA/09912","type":"VUT","group":"Completa","address":"CALLE EL ARROYO Nº 5","postal_code":"11612","places":4,"units":1,"registered":"2020-02-11","catastro":"3943801TF8634D0005US","holder":null,"holder_count":null}},{"type":"Feature","geometry":{"type":"Point","coordinates":[-5.42164,36.702291]},"properties":{"id":"VUT/CA/11649","type":"VUT","group":"Completa","address":"CALLE SALTO DEL CABRERO Nº 26D","postal_code":"11612","places":6,"units":3,"registered":"2021-04-22","catastro":"3748902TF8634H0006HE","holder":"GESTION EMPRESARIAL SHEBELLE","holder_count":1}},{"type":"Feature","geometry":{"type":"Point","coordinates":[-5.421147,36.701817]},"properties":{"id":"VUT/CA/12644","type":"VUT","group":"Completa","address":"CALLE CUERVOS Nº 17","postal_code":"11612","places":3,"units":2,"registered":"2021-08-25","catastro":"3847605TF8634F0007LO","holder":null,"holder_count":null}},{"type":"Feature","geometry":{"type":"Point","coordinates":[-5.422496,36.701047]},"properties":{"id":"VUT/CA/12742","type":"VUT","group":"Completa","address":"CALLE HUERTA GRANDE Nº 24","postal_code":"11612","places":6,"units":3,"registered":"2021-09-13","catastro":"3746826TF8634F0007RO","holder":null,"holder_count":null}},{"type":"Feature","geometry":{"type":"Point","coordinates":[-5.420066,36.698662]},"properties":{"id":"VUT/CA/12761","type":"VUT","group":"Completa","address":"CALLE CRUZ DE GONZALO Nº 8 Plta/Piso BAJO Pta/Letra B, piso BAJO, puerta B","postal_code":"11612","places":6,"units":2,"registered":"2021-09-16","catastro":"3943805TF8634D0003KP","holder":null,"holder_count":null}},{"type":"Feature","geometry":{"type":"Point","coordinates":[-5.422496,36.701047]},"properties":{"id":"VUT/CA/13650","type":"VUT","group":"Completa","address":"CALLE HUERTA GRANDE Nº 20 Plta/Piso BAJO, piso BAJO","postal_code":"11612","places":4,"units":2,"registered":"2022-03-10","catastro":"3746826TF8634F0005WU","holder":null,"holder_count":null}},{"type":"Feature","geometry":{"type":"Point","coordinates":[-5.421994,36.699973]},"properties":{"id":"VUT/CA/18209","type":"VUT","group":"Completa","address":"CALLE Fray Domingo de Benaocaz Nº 9 Plta/Piso bajo Pta/Letra A, piso bajo, puerta A","postal_code":"11612","places":7,"units":2,"registered":"2023-07-02","catastro":"3745910TF8634F0023AL","holder":null,"holder_count":null}},{"type":"Feature","geometry":{"type":"Point","coordinates":[-5.420066,36.698662]},"properties":{"id":"VUT/CA/20105","type":"VUT","group":"Completa","address":"CALLE CRUZ DE GONZALO Blq. 8 Portal C Plta/Piso 1 Pta/Letra 5, piso 1, puerta 5","postal_code":"11612","places":7,"units":3,"registered":"2024-03-26","catastro":"3943805TF8634D0006ZD","holder":null,"holder_count":null}},{"type":"Feature","geometry":{"type":"Point","coordinates":[-5.423062,36.700743]},"properties":{"id":"VUT/CA/20462","type":"VUT","group":"Completa","address":"AVENIDA ANDALUCIA Nº 21 Portal 19 Esc. 1 Plta/Piso 1 Pta/Letra A, piso 1, puerta A","postal_code":"11612","places":2,"units":2,"registered":"2024-04-29","catastro":"3746816TF8634F0004UY","holder":null,"holder_count":null}},{"type":"Feature","geometry":{"type":"Point","coordinates":[-5.421435,36.701898]},"properties":{"id":"VUT/CA/20558","type":"VUT","group":"Completa","address":"CALLE Laderas del Parral Nº 12 Plta/Piso 2 Pta/Letra 6 Compl.Dom. Deván, piso 2, puerta 6","postal_code":"11612","places":8,"units":3,"registered":"2024-05-08","catastro":"3847717TF8634F0007SO","holder":null,"holder_count":null}},{"type":"Feature","geometry":{"type":"Point","coordinates":[-5.422393,36.703411]},"properties":{"id":"VUT/CA/21022","type":"VUT","group":"Completa","address":"CALLE encinalejo Nº 9 Portal 1 Pta/Letra F, puerta F","postal_code":"11612","places":4,"units":2,"registered":"2024-06-11","catastro":"3748603TF8634H0005SW","holder":null,"holder_count":null}},{"type":"Feature","geometry":{"type":"Point","coordinates":[-5.42203,36.701007]},"properties":{"id":"VUT/CA/21571","type":"VUT","group":"Completa","address":"AVENIDA de Andalucia Nº 3 Pta/Letra A, puerta A","postal_code":"11612","places":6,"units":2,"registered":"2024-07-24","catastro":"3746812TF8634F0006LI","holder":null,"holder_count":null}},{"type":"Feature","geometry":{"type":"Point","coordinates":[-5.422226,36.701606]},"properties":{"id":"VUT/CA/25243","type":"VUT","group":"Completa","address":"AVENIDA Andalucia Nº 10","postal_code":"11612","places":3,"units":1,"registered":"2025-09-16","catastro":"3747708TF8634F0004OY","holder":null,"holder_count":null}},{"type":"Feature","geometry":{"type":"Point","coordinates":[-5.420799,36.700944]},"properties":{"id":"VUT/CA/25339","type":"VUT","group":"Completa","address":"CALLE AVE MARÍA Nº 7 Plta/Piso 0 Pta/Letra DR. Compl.Dom. BAJO DERECHA, piso 0, puerta DR.","postal_code":"11612","places":5,"units":2,"registered":"2025-10-13","catastro":"3846911TF8634F0002WR","holder":null,"holder_count":null}},{"type":"Feature","geometry":{"type":"Point","coordinates":[-5.42053,36.700178]},"properties":{"id":"VUT/CA/25407","type":"VUT","group":"Completa","address":"CALLE Resbaladero Nº 4","postal_code":"11612","places":6,"units":3,"registered":"2025-10-30","catastro":"3845402TF8634F0001FE","holder":null,"holder_count":null}},{"type":"Feature","geometry":{"type":"Point","coordinates":[-5.420799,36.700944]},"properties":{"id":"VUT/CA/25463","type":"VUT","group":"Completa","address":"CALLE AVE MARÍA Nº 7 Plta/Piso BAJO Pta/Letra DERECHA, piso BAJO, puerta DERECHA","postal_code":"11612","places":5,"units":2,"registered":"2025-11-11","catastro":"3846911TF8634F0002WR","holder":null,"holder_count":null}},{"type":"Feature","geometry":{"type":"Point","coordinates":[-5.422547,36.700722]},"properties":{"id":"VUT/CA/25828","type":"VUT","group":"Completa","address":"CALLE ARCOS Nº 14 Esc. 1","postal_code":"11612","places":4,"units":2,"registered":"2026-02-11","catastro":"3746811TF8634F0005OU","holder":null,"holder_count":null}}]}