{"type":"FeatureCollection","municipio":{"slug":"benalup-casas-viejas","name":"Benalup-Casas Viejas","total":26,"places":135,"source_updated_at":"2026-10-05"},"features":[{"type":"Feature","geometry":{"type":"Point","coordinates":[-5.808225,36.341661]},"properties":{"id":"VUT/CA/026580","type":"VUT","group":"Completa","address":"CALLE SANTA LUCIA Nº 8","postal_code":"11190","places":4,"units":1,"registered":"2026-05-29","catastro":"8057905TF4285N0002YX","holder":null,"holder_count":null}},{"type":"Feature","geometry":{"type":"Point","coordinates":[-5.807614,36.342536]},"properties":{"id":"VUT/CA/026943","type":"VUT","group":"Completa","address":"CALLE MALAGA Nº 22","postal_code":"11190","places":5,"units":2,"registered":"2026-08-07","catastro":"8157301TF4285N0010SR","holder":"KAMAL VACACIONAL SL","holder_count":1}},{"type":"Feature","geometry":{"type":"Point","coordinates":[-5.807614,36.342536]},"properties":{"id":"VUT/CA/026944","type":"VUT","group":"Completa","address":"CALLE SEVILLA Nº 1 Pta/Letra A, puerta A","postal_code":"11190","places":7,"units":3,"registered":"2026-08-07","catastro":"8157301TF4285N0009FY","holder":"KAMAL VACAIONAL SL","holder_count":1}},{"type":"Feature","geometry":{"type":"Point","coordinates":[-5.798568,36.326597]},"properties":{"id":"VUT/CA/08302","type":"VUT","group":"Completa","address":"CARRETERA PANTANO DE CELEMIN, POLIGONO 8. CALLE DEHESA DE YEGUAS Nº 11 Compl.Dom. FRENTE AL LLANO DE LOS VALENCIANOS, A 500 MS DESDE LA ENTRADA  DE LA CTRA. PANTANO DE CELEMIN","postal_code":"11190","places":4,"units":4,"registered":"2019-07-13","catastro":"11043A008000110000II","holder":null,"holder_count":null}},{"type":"Feature","geometry":{"type":"Point","coordinates":[-5.812444,36.341083]},"properties":{"id":"VUT/CA/12672","type":"VUT","group":"Completa","address":"CALLE Caballero Nº 15 Portal 1 Pta/Letra C, puerta C","postal_code":"11190","places":3,"units":1,"registered":"2021-08-31","catastro":"7756529TF4275N0001IJ","holder":null,"holder_count":null}},{"type":"Feature","geometry":{"type":"Point","coordinates":[-5.816189,36.341172]},"properties":{"id":"VUT/CA/13308","type":"VUT","group":"Completa","address":"CALLE La torre 24 Pta/Letra 10, puerta 10","postal_code":"11190","places":4,"units":2,"registered":"2022-01-24","catastro":"7356601TF4275N0025WS","holder":null,"holder_count":null}},{"type":"Feature","geometry":{"type":"Point","coordinates":[-5.81706,36.345451]},"properties":{"id":"VUT/CA/13818","type":"VUT","group":"Completa","address":"CALLE JACARANDA Nº 54","postal_code":"11190","places":4,"units":2,"registered":"2022-03-29","catastro":"7361024TF4276S0010FW","holder":null,"holder_count":null}},{"type":"Feature","geometry":{"type":"Point","coordinates":[-5.81706,36.345451]},"properties":{"id":"VUT/CA/14055","type":"VUT","group":"Completa","address":"CALLE MALVASIA Nº 43 Plta/Piso 1 Pta/Letra B, piso 1, puerta B","postal_code":"11190","places":6,"units":2,"registered":"2022-04-27","catastro":"7361024TF4276S0007FW","holder":null,"holder_count":null}},{"type":"Feature","geometry":{"type":"Point","coordinates":[-5.808214,36.344011]},"properties":{"id":"VUT/CA/15514","type":"VUT","group":"Completa","address":"CARRETERA Del Castaño Nº 3 Plta/Piso B Pta/Letra izquierda, piso B, puerta izquierda","postal_code":"11190","places":4,"units":1,"registered":"2022-09-12","catastro":"8059604TF4285N0028GL","holder":null,"holder_count":null}},{"type":"Feature","geometry":{"type":"Point","coordinates":[-5.808677,36.343545]},"properties":{"id":"VUT/CA/15638","type":"VUT","group":"Completa","address":"CALLE ÁLAMOS BLANCOS Nº 6 Plta/Piso 1 Pta/Letra G, piso 1, puerta G","postal_code":"11190","places":3,"units":2,"registered":"2022-09-27","catastro":"8059801TF4285N0018SS","holder":null,"holder_count":null}},{"type":"Feature","geometry":{"type":"Point","coordinates":[-5.815903,36.342205]},"properties":{"id":"VUT/CA/17733","type":"VUT","group":"Completa","address":"CALLE MARIA SILVA Nº 3","postal_code":"11190","places":6,"units":2,"registered":"2023-05-30","catastro":"7458074TF4275N0002JK","holder":null,"holder_count":null}},{"type":"Feature","geometry":{"type":"Point","coordinates":[-5.816189,36.341172]},"properties":{"id":"VUT/CA/18405","type":"VUT","group":"Completa","address":"CALLE La Torre de Benalup-Casas viejas Nº 15 Pta/Letra 11, puerta 11","postal_code":"11190","places":4,"units":2,"registered":"2023-07-18","catastro":"7356601TF4275N0026ED","holder":null,"holder_count":null}},{"type":"Feature","geometry":{"type":"Point","coordinates":[-5.816189,36.341172]},"properties":{"id":"VUT/CA/18406","type":"VUT","group":"Completa","address":"CALLE La Torre de Benalup-Casas viejas Nº 15 Pta/Letra 12, puerta 12","postal_code":"11190","places":4,"units":2,"registered":"2023-07-18","catastro":"7356601TF4275N0027RF","holder":null,"holder_count":null}},{"type":"Feature","geometry":{"type":"Point","coordinates":[-5.809921,36.342213]},"properties":{"id":"VUT/CA/19020","type":"VUT","group":"Completa","address":"CALLE CLAVEL Nº 1 Esc. C Plta/Piso 00 Pta/Letra 4, piso 00, puerta 4","postal_code":"11190","places":3,"units":1,"registered":"2023-10-30","catastro":"7957506TF4275N0004IB","holder":null,"holder_count":null}},{"type":"Feature","geometry":{"type":"Point","coordinates":[-5.813015,36.341799]},"properties":{"id":"VUT/CA/19095","type":"VUT","group":"Completa","address":"CALLE BENALUP Nº 5 Esc. 1 Plta/Piso 1, piso 1","postal_code":"11190","places":4,"units":2,"registered":"2023-11-13","catastro":"7657914tf4275n0031lg","holder":null,"holder_count":null}},{"type":"Feature","geometry":{"type":"Point","coordinates":[-5.81306,36.346064]},"properties":{"id":"VUT/CA/19379","type":"VUT","group":"Completa","address":"CALLE ISLA ARENOSA Nº 7","postal_code":"11190","places":6,"units":3,"registered":"2024-01-10","catastro":"7662801TF4276S0007SW","holder":null,"holder_count":null}},{"type":"Feature","geometry":{"type":"Point","coordinates":[-5.817198,36.340375]},"properties":{"id":"VUT/CA/20728","type":"VUT","group":"Completa","address":"CALLE Mirador Nº 13 Plta/Piso 1 Pta/Letra A, piso 1, puerta A","postal_code":"11190","places":7,"units":2,"registered":"2024-05-20","catastro":"7255503TF4275N0001QJ","holder":null,"holder_count":null}},{"type":"Feature","geometry":{"type":"Point","coordinates":[-5.809587,36.344762]},"properties":{"id":"VUT/CA/21153","type":"VUT","group":"Completa","address":"CALLE DALIAS Nº 3","postal_code":"11190","places":12,"units":3,"registered":"2024-06-21","catastro":"7960806TF4276S0001JL","holder":null,"holder_count":null}},{"type":"Feature","geometry":{"type":"Point","coordinates":[-5.817654,36.344286]},"properties":{"id":"VUT/CA/21596","type":"VUT","group":"Completa","address":"CALLE AVEFRIA Nº 18 Portal 1","postal_code":"11190","places":6,"units":2,"registered":"2024-07-25","catastro":"7260910TF4276S0002KB","holder":null,"holder_count":null}},{"type":"Feature","geometry":{"type":"Point","coordinates":[-5.809921,36.342213]},"properties":{"id":"VUT/CA/22178","type":"VUT","group":"Completa","address":"CALLE CLAVEL Nº 1 Esc. 1 Plta/Piso 2 Pta/Letra G, piso 2, puerta G","postal_code":"11190","places":2,"units":1,"registered":"2024-10-17","catastro":"7957506TF4275N0011SQ","holder":"LITHOS ARQUITECTURA Y CONSTRUCCION SL","holder_count":1}},{"type":"Feature","geometry":{"type":"Point","coordinates":[-5.808639,36.342517]},"properties":{"id":"VUT/CA/24497","type":"VUT","group":"Completa","address":"CALLE San Elías Nº 11","postal_code":"11190","places":6,"units":2,"registered":"2025-06-09","catastro":"8058527TF4285N0001MZ","holder":null,"holder_count":null}},{"type":"Feature","geometry":{"type":"Point","coordinates":[-5.822526,36.341964]},"properties":{"id":"VUT/CA/24853","type":"VUT","group":"Completa","address":"CALLE LOS HOMERUELOS Nº 20 Pta/Letra P, puerta P","postal_code":"11190","places":6,"units":3,"registered":"2025-07-01","catastro":"6857823TF4265N0001LD","holder":null,"holder_count":null}},{"type":"Feature","geometry":{"type":"Point","coordinates":[-5.808631,36.342595]},"properties":{"id":"VUT/CA/25119","type":"VUT","group":"Completa","address":"CALLE San Elías Nº 9 Plta/Piso 1, piso 1","postal_code":"11190","places":4,"units":3,"registered":"2025-08-14","catastro":"8058528TF4285N0001OZ","holder":null,"holder_count":null}},{"type":"Feature","geometry":{"type":"Point","coordinates":[-5.810582,36.342656]},"properties":{"id":"VUT/CA/25402","type":"VUT","group":"Completa","address":"CALLE DOCTOR RAFAEL BERNAL Nº 5","postal_code":"11190","places":11,"units":5,"registered":"2025-10-29","catastro":"7958013TF4275N0001EJ","holder":"Explotación de Activos Turísticos, SL","holder_count":1}},{"type":"Feature","geometry":{"type":"Point","coordinates":[-5.816305,36.345323]},"properties":{"id":"VUT/CA/25578","type":"VUT","group":"Completa","address":"CALLE GRULLA NEGRA Nº 9 Plta/Piso 1 Pta/Letra B, piso 1, puerta B","postal_code":"11190","places":7,"units":2,"registered":"2025-12-14","catastro":"7361906TF4276S0024XD","holder":null,"holder_count":null}},{"type":"Feature","geometry":{"type":"Point","coordinates":[-5.809368,36.346024]},"properties":{"id":"VUT/CA/25871","type":"VUT","group":"Completa","address":"CALLE SAN AGUSTIN Nº 32","postal_code":"11190","places":3,"units":2,"registered":"2026-02-19","catastro":"8061024TF4286S0001XM","holder":null,"holder_count":null}}]}