{"type":"FeatureCollection","municipio":{"slug":"bornos","name":"Bornos","total":3,"places":24,"source_updated_at":"2026-10-05"},"features":[{"type":"Feature","geometry":{"type":"Point","coordinates":[-5.742946,36.80916]},"properties":{"id":"VUT/CA/08791","type":"VUT","group":"Completa","address":"URBANIZACION LOS SAUCES Nº 3","postal_code":"11640","places":12,"units":5,"registered":"2019-09-25","catastro":"5475015TF5757N0003MD","holder":null,"holder_count":null}},{"type":"Feature","geometry":{"type":"Point","coordinates":[-5.745198,36.812805]},"properties":{"id":"VUT/CA/19028","type":"VUT","group":"Completa","address":"CALLE CALVARIO Nº 23","postal_code":"11640","places":6,"units":3,"registered":"2023-10-31","catastro":"5278148TF5757N0001LA","holder":"OLE SOLUTIONS HOLIDAY RENTALS S.L.","holder_count":1}},{"type":"Feature","geometry":{"type":"Point","coordinates":[-5.744367,36.812192]},"properties":{"id":"VUT/CA/19729","type":"VUT","group":"Completa","address":"CALLE LA VIÑA Nº 22","postal_code":"11640","places":6,"units":3,"registered":"2024-02-14","catastro":"5277716TF5757N0001GA","holder":null,"holder_count":null}}]}