{"type":"FeatureCollection","municipio":{"slug":"castellar-de-la-frontera","name":"Castellar de la Frontera","total":5,"places":23,"source_updated_at":"2026-10-05"},"features":[{"type":"Feature","geometry":{"type":"Point","coordinates":[-5.453415,36.31831]},"properties":{"id":"VUT/CA/10831","type":"VUT","group":"Completa","address":"CALLE CORRALETE Nº 2","postal_code":"11350","places":6,"units":3,"registered":"2020-07-31","catastro":"9822622TF7292S0001EK","holder":null,"holder_count":null}},{"type":"Feature","geometry":{"type":"Point","coordinates":[-5.453331,36.318926]},"properties":{"id":"VUT/CA/18983","type":"VUT","group":"Completa","address":"CALLE ROSARIO Nº 8","postal_code":"11350","places":4,"units":2,"registered":"2023-10-24","catastro":"9822601TF7292S0001YK","holder":"LIAO GLOBAL SL","holder_count":1}},{"type":"Feature","geometry":{"type":"Point","coordinates":[-5.421239,36.28374]},"properties":{"id":"VUT/CA/19505","type":"VUT","group":"Completa","address":"CALLE CHAPATAL Nº 4 Compl.Dom. Suelo PARCELA Nº 18","postal_code":"11351","places":7,"units":3,"registered":"2024-01-24","catastro":"2883310TF8138S0001AA","holder":null,"holder_count":null}},{"type":"Feature","geometry":{"type":"Point","coordinates":[-5.421985,36.286804]},"properties":{"id":"VUT/CA/21113","type":"VUT","group":"Completa","address":"PLAZA ANDALUCIA Nº 18","postal_code":"11350","places":4,"units":1,"registered":"2024-06-17","catastro":"2687002TF8128N0001DX","holder":null,"holder_count":null}},{"type":"Feature","geometry":{"type":"Point","coordinates":[-5.453464,36.318634]},"properties":{"id":"VUT/CA/22147","type":"VUT","group":"Completa","address":"CALLE Corralete Nº 23","postal_code":"11350","places":2,"units":1,"registered":"2024-10-15","catastro":"9822614TF7292S0001RK","holder":null,"holder_count":null}}]}