{"type":"FeatureCollection","municipio":{"slug":"el-bosque","name":"El Bosque","total":43,"places":253,"source_updated_at":"2026-10-05"},"features":[{"type":"Feature","geometry":{"type":"Point","coordinates":[-5.505844,36.757009]},"properties":{"id":"VUT/CA/027036","type":"VUT","group":"Completa","address":"AVENIDA Juan XXIII Nº 33 Portal 2 Pta/Letra 38, puerta 38","postal_code":"11670","places":5,"units":3,"registered":"2026-09-09","catastro":"6511801TF7761B0084KE","holder":null,"holder_count":null}},{"type":"Feature","geometry":{"type":"Point","coordinates":[-5.511561,36.757056]},"properties":{"id":"VUT/CA/027086","type":"VUT","group":"Por habitaciones","address":"CALLE antonio machado Nº 19 Compl.Dom. antonio machado 19 el bosque cadiz","postal_code":"11670","places":6,"units":3,"registered":"2026-09-25","catastro":"5910301TF7751S0010PH","holder":null,"holder_count":null}},{"type":"Feature","geometry":{"type":"Point","coordinates":[-5.50658,36.758881]},"properties":{"id":"VUT/CA/04960","type":"VUT","group":"Completa","address":"CALLE HUERTA DEL DUQUE Nº 3","postal_code":"11670","places":7,"units":3,"registered":"2018-05-02","catastro":"6412923TF7761A0049KJ","holder":null,"holder_count":null}},{"type":"Feature","geometry":{"type":"Point","coordinates":[-5.50961,36.757663]},"properties":{"id":"VUT/CA/06727","type":"VUT","group":"Completa","address":"PLAZA DEL ANDEN Nº 7 Esc. 01 Plta/Piso 01 Pta/Letra 02, piso 01, puerta 02","postal_code":"11670","places":4,"units":1,"registered":"2019-01-30","catastro":"6011805TF7761A0070FY","holder":"LETRAS LANGUAGE SOLUTIONS, S.L.","holder_count":1}},{"type":"Feature","geometry":{"type":"Point","coordinates":[-5.50356,36.759867]},"properties":{"id":"VUT/CA/07607","type":"VUT","group":"Completa","address":"CALLE RONDA Nº 28","postal_code":"11670","places":9,"units":5,"registered":"2019-05-09","catastro":"6613204TF7761D0001PI","holder":null,"holder_count":null}},{"type":"Feature","geometry":{"type":"Point","coordinates":[-5.511708,36.757242]},"properties":{"id":"VUT/CA/08847","type":"VUT","group":"Completa","address":"PLAZA POETAS ANDALUCES Nº 6 Plta/Piso 1º, piso 1º","postal_code":"11670","places":4,"units":2,"registered":"2019-10-08","catastro":"5910301TF7751S0016HX","holder":null,"holder_count":null}},{"type":"Feature","geometry":{"type":"Point","coordinates":[-5.507783,36.756142]},"properties":{"id":"VUT/CA/08884","type":"VUT","group":"Completa","address":"CALLE SIERRA DE CADIZ Nº 9","postal_code":"11670","places":5,"units":3,"registered":"2019-10-15","catastro":"6029217TF7760G0001YK","holder":null,"holder_count":null}},{"type":"Feature","geometry":{"type":"Point","coordinates":[-5.503562,36.75894]},"properties":{"id":"VUT/CA/10667","type":"VUT","group":"Completa","address":"PLAZA SAN ANTONIO Blq. 5 Portal 5 Esc. 1 Plta/Piso 1 Pta/Letra IZ, piso 1, puerta IZ","postal_code":"11670","places":8,"units":2,"registered":"2020-07-02","catastro":"6612930TF7761B0007IL","holder":null,"holder_count":null}},{"type":"Feature","geometry":{"type":"Point","coordinates":[-5.50658,36.758881]},"properties":{"id":"VUT/CA/11124","type":"VUT","group":"Completa","address":"CALLE HUERTA DEL DUQUE Nº 7","postal_code":"11670","places":8,"units":3,"registered":"2020-11-03","catastro":"6412923TF7761A0047HG","holder":null,"holder_count":null}},{"type":"Feature","geometry":{"type":"Point","coordinates":[-5.507401,36.759048]},"properties":{"id":"VUT/CA/13124","type":"VUT","group":"Completa","address":"CALLE LAS HIGUERAS Nº 18","postal_code":"11670","places":6,"units":3,"registered":"2021-12-11","catastro":"6212101TF7761S0010SB","holder":"OPENCAR SERVICES SL","holder_count":1}},{"type":"Feature","geometry":{"type":"Point","coordinates":[-5.505844,36.757009]},"properties":{"id":"VUT/CA/13255","type":"VUT","group":"Completa","address":"AVENIDA Juan XXIII Nº 33 Portal P5 Pta/Letra 25, puerta 25","postal_code":"11670","places":4,"units":1,"registered":"2022-01-14","catastro":"6511801TF7761B0071IH","holder":null,"holder_count":null}},{"type":"Feature","geometry":{"type":"Point","coordinates":[-5.50961,36.757663]},"properties":{"id":"VUT/CA/14128","type":"VUT","group":"Completa","address":"PLAZA EL ANDEN Nº 7 Compl.Dom. APARTAMENTO 4-1º","postal_code":"11670","places":4,"units":1,"registered":"2022-05-04","catastro":"6011805TF7761A0072HI","holder":null,"holder_count":null}},{"type":"Feature","geometry":{"type":"Point","coordinates":[-5.511561,36.757056]},"properties":{"id":"VUT/CA/14404","type":"VUT","group":"Completa","address":"CALLE ANTONIO MACHADO Nº 5","postal_code":"11670","places":6,"units":2,"registered":"2022-05-27","catastro":"5910301TF7751S0034TA","holder":null,"holder_count":null}},{"type":"Feature","geometry":{"type":"Point","coordinates":[-5.507462,36.758517]},"properties":{"id":"VUT/CA/16064","type":"VUT","group":"Completa","address":"CALLE LOS MEMBRILLOS Nº 4 Plta/Piso 1 Pta/Letra C, piso 1, puerta C","postal_code":"11670","places":4,"units":2,"registered":"2022-12-30","catastro":"6212102TF7761S0041BL","holder":null,"holder_count":null}},{"type":"Feature","geometry":{"type":"Point","coordinates":[-5.50961,36.757663]},"properties":{"id":"VUT/CA/16558","type":"VUT","group":"Completa","address":"PLAZA ANDEN Nº s/n Pta/Letra 7-8, puerta 7-8","postal_code":"11670","places":6,"units":3,"registered":"2023-02-28","catastro":"6011805TF7761A0063PW","holder":"ART LIFe Sciences S.L.","holder_count":1}},{"type":"Feature","geometry":{"type":"Point","coordinates":[-5.50961,36.757663]},"properties":{"id":"VUT/CA/17085","type":"VUT","group":"Completa","address":"PLAZA Del Anden Nº 2 Plta/Piso 1 Pta/Letra 4, piso 1, puerta 4","postal_code":"11670","places":4,"units":1,"registered":"2023-04-13","catastro":"6011805TF7761A0072HI","holder":"ART LIFE SCIENCES S.L.","holder_count":1}},{"type":"Feature","geometry":{"type":"Point","coordinates":[-5.507401,36.759048]},"properties":{"id":"VUT/CA/18321","type":"VUT","group":"Completa","address":"CALLE Las Higueras Nº 22","postal_code":"11670","places":8,"units":4,"registered":"2023-07-10","catastro":"6212101TF7761S0012FX","holder":null,"holder_count":null}},{"type":"Feature","geometry":{"type":"Point","coordinates":[-5.503713,36.758172]},"properties":{"id":"VUT/CA/18456","type":"VUT","group":"Completa","address":"AVENIDA MALAGA Nº 5 Pta/Letra A, puerta A","postal_code":"11670","places":4,"units":2,"registered":"2023-07-24","catastro":"6612805TF7761B0005LJ","holder":null,"holder_count":null}},{"type":"Feature","geometry":{"type":"Point","coordinates":[-5.511561,36.757056]},"properties":{"id":"VUT/CA/18504","type":"VUT","group":"Completa","address":"PLAZA DE LOS POETAS ANDALUCES Nº 4","postal_code":"11670","places":4,"units":2,"registered":"2023-07-28","catastro":"5910301TF7751S0017JM","holder":null,"holder_count":null}},{"type":"Feature","geometry":{"type":"Point","coordinates":[-5.504688,36.757956]},"properties":{"id":"VUT/CA/18618","type":"VUT","group":"Completa","address":"AVENIDA JUAN XXII Nº 20 Plta/Piso 1 Pta/Letra B, piso 1, puerta B","postal_code":"11670","places":6,"units":3,"registered":"2023-08-10","catastro":"6511418TF7761B0026LO","holder":null,"holder_count":null}},{"type":"Feature","geometry":{"type":"Point","coordinates":[-5.503927,36.745583]},"properties":{"id":"VUT/CA/19471","type":"VUT","group":"Completa","address":"CAMINO DE LA FABRICA DE GABRIEL Nº 108","postal_code":"11670","places":8,"units":4,"registered":"2024-01-21","catastro":"11011A005000530001OR","holder":null,"holder_count":null}},{"type":"Feature","geometry":{"type":"Point","coordinates":[-5.50658,36.758881]},"properties":{"id":"VUT/CA/19669","type":"VUT","group":"Completa","address":"CALLE HUERTA DEL DUQUE Nº 39 Pta/Letra 17A, puerta 17A","postal_code":"11670","places":10,"units":3,"registered":"2024-02-06","catastro":"6412923TF7761A0029RE","holder":null,"holder_count":null}},{"type":"Feature","geometry":{"type":"Point","coordinates":[-5.50658,36.758881]},"properties":{"id":"VUT/CA/19965","type":"VUT","group":"Completa","address":"CALLE LOS MANZANOS Nº 8","postal_code":"11670","places":8,"units":3,"registered":"2024-03-14","catastro":"6412923TF7761A0006PO","holder":null,"holder_count":null}},{"type":"Feature","geometry":{"type":"Point","coordinates":[-5.505113,36.759604]},"properties":{"id":"VUT/CA/21975","type":"VUT","group":"Completa","address":"CALLE CORDOBA Nº 2 Plta/Piso 2ª, piso 2ª","postal_code":"11670","places":8,"units":2,"registered":"2024-09-12","catastro":"6513215TF7761D0005WS","holder":null,"holder_count":null}},{"type":"Feature","geometry":{"type":"Point","coordinates":[-5.506363,36.755278]},"properties":{"id":"VUT/CA/22079","type":"VUT","group":"Completa","address":"AVENIDA PINSAPAR Nº 1","postal_code":"11670","places":8,"units":3,"registered":"2024-10-02","catastro":"6308908TF7760N0002BD","holder":null,"holder_count":null}},{"type":"Feature","geometry":{"type":"Point","coordinates":[-5.509498,36.755364]},"properties":{"id":"VUT/CA/22416","type":"VUT","group":"Completa","address":"CALLE Vega La Nº 9","postal_code":"11670","places":6,"units":3,"registered":"2024-11-25","catastro":"6008910TF7760G0001AK","holder":null,"holder_count":null}},{"type":"Feature","geometry":{"type":"Point","coordinates":[-5.511561,36.757056]},"properties":{"id":"VUT/CA/22521","type":"VUT","group":"Completa","address":"PLAZA DE LOS POETAS ANDALUCES Nº 3 Blq. 1 Pta/Letra 4, puerta 4","postal_code":"11670","places":4,"units":2,"registered":"2024-12-12","catastro":"5910301TF7751S0017JM","holder":null,"holder_count":null}},{"type":"Feature","geometry":{"type":"Point","coordinates":[-5.505157,36.760612]},"properties":{"id":"VUT/CA/22644","type":"VUT","group":"Completa","address":"CALLE JAEN Nº 13 Compl.Dom. El Ayuntamiento ha cambiado los números y puede aparecer como 21","postal_code":"11670","places":2,"units":1,"registered":"2025-01-07","catastro":"6414607TF7761C0001TX","holder":null,"holder_count":null}},{"type":"Feature","geometry":{"type":"Point","coordinates":[-5.500612,36.761558]},"properties":{"id":"VUT/CA/22736","type":"VUT","group":"Completa","address":"CALLE SEVILLA Nº 90 Compl.Dom. CALLE SEVILLA, 90","postal_code":"11670","places":4,"units":2,"registered":"2025-01-18","catastro":"6815707TF7761F0001TE","holder":null,"holder_count":null}},{"type":"Feature","geometry":{"type":"Point","coordinates":[-5.505817,36.760337]},"properties":{"id":"VUT/CA/22737","type":"VUT","group":"Completa","address":"CALLE JEREZ Nº 19 Compl.Dom. CALLE JEREZ, 19","postal_code":"11670","places":6,"units":3,"registered":"2025-01-18","catastro":"6413406TF7761C0001YX","holder":null,"holder_count":null}},{"type":"Feature","geometry":{"type":"Point","coordinates":[-5.50658,36.758881]},"properties":{"id":"VUT/CA/22816","type":"VUT","group":"Completa","address":"CALLE HUERTA DEL DUQUE Nº 5","postal_code":"11670","places":8,"units":4,"registered":"2025-01-28","catastro":"6412923TF7761A0046GF","holder":null,"holder_count":null}},{"type":"Feature","geometry":{"type":"Point","coordinates":[-5.507462,36.758517]},"properties":{"id":"VUT/CA/22836","type":"VUT","group":"Completa","address":"CALLE Los Membrillos Nº 4 Plta/Piso 1 Pta/Letra A, piso 1, puerta A","postal_code":"11670","places":4,"units":2,"registered":"2025-01-29","catastro":"6212102TF7761S0039ZB","holder":null,"holder_count":null}},{"type":"Feature","geometry":{"type":"Point","coordinates":[-5.505627,36.757883]},"properties":{"id":"VUT/CA/22926","type":"VUT","group":"Completa","address":"CALLE CADIZ Nº 19 Esc. 1 Plta/Piso 00 Pta/Letra 2, piso 00, puerta 2","postal_code":"11670","places":5,"units":3,"registered":"2025-02-10","catastro":"6411904TF7761A0006EO","holder":null,"holder_count":null}},{"type":"Feature","geometry":{"type":"Point","coordinates":[-5.501116,36.763357]},"properties":{"id":"VUT/CA/22990","type":"VUT","group":"Completa","address":"CALLE LA FERIA Nº 59 Pta/Letra A, puerta A","postal_code":"11670","places":7,"units":2,"registered":"2025-02-14","catastro":"6817909TF7761F3001SB","holder":null,"holder_count":null}},{"type":"Feature","geometry":{"type":"Point","coordinates":[-5.505844,36.757009]},"properties":{"id":"VUT/CA/23674","type":"VUT","group":"Completa","address":"CALLE JUAN XXIII Nº 33 Esc. 3 Plta/Piso 00 Pta/Letra 05, piso 00, puerta 05","postal_code":"11670","places":2,"units":1,"registered":"2025-03-28","catastro":"6511801TF7761B0051JW","holder":null,"holder_count":null}},{"type":"Feature","geometry":{"type":"Point","coordinates":[-5.505844,36.757009]},"properties":{"id":"VUT/CA/23676","type":"VUT","group":"Completa","address":"CALLE JUAN XXIII Nº 33 Esc. 4 Plta/Piso 01 Pta/Letra 29, piso 01, puerta 29","postal_code":"11670","places":3,"units":2,"registered":"2025-03-28","catastro":"6511801TF7761B0075SB","holder":null,"holder_count":null}},{"type":"Feature","geometry":{"type":"Point","coordinates":[-5.504688,36.757956]},"properties":{"id":"VUT/CA/23715","type":"VUT","group":"Completa","address":"AVENIDA Juan XXIII Nº 20 Plta/Piso 2ª Pta/Letra A, piso 2ª, puerta A","postal_code":"11670","places":8,"units":3,"registered":"2025-03-31","catastro":"6511418TF7761B0030BP","holder":null,"holder_count":null}},{"type":"Feature","geometry":{"type":"Point","coordinates":[-5.507401,36.759048]},"properties":{"id":"VUT/CA/24421","type":"VUT","group":"Completa","address":"CALLE RIBERA DEL RIO Nº 30","postal_code":"11670","places":8,"units":3,"registered":"2025-06-03","catastro":"6212101TF7761S0023XU","holder":null,"holder_count":null}},{"type":"Feature","geometry":{"type":"Point","coordinates":[-5.511561,36.757056]},"properties":{"id":"VUT/CA/24860","type":"VUT","group":"Completa","address":"CALLE FEDERICO GARCIA LORCA Nº 24","postal_code":"11670","places":6,"units":3,"registered":"2025-07-02","catastro":"5910301TF7751S0001RP","holder":"INVERSIONES VICTMAN, S.L","holder_count":1}},{"type":"Feature","geometry":{"type":"Point","coordinates":[-5.50961,36.757663]},"properties":{"id":"VUT/CA/24976","type":"VUT","group":"Completa","address":"PLAZA EL ANDEN Nº 7 Plta/Piso 1 Pta/Letra 10, piso 1, puerta 10","postal_code":"11670","places":6,"units":3,"registered":"2025-07-21","catastro":"6011805TF7761A0077ZD","holder":null,"holder_count":null}},{"type":"Feature","geometry":{"type":"Point","coordinates":[-5.504108,36.758781]},"properties":{"id":"VUT/CA/25269","type":"VUT","group":"Completa","address":"CALLE LA ROSA Nº 29","postal_code":"11670","places":6,"units":3,"registered":"2025-09-24","catastro":"6512605TF7761B0001GD","holder":"AC GESTION CADIZ S.L.","holder_count":1}},{"type":"Feature","geometry":{"type":"Point","coordinates":[-5.50963,36.754358]},"properties":{"id":"VUT/CA/25455","type":"VUT","group":"Completa","address":"CALLE DE LA VEGA Nº 72","postal_code":"11670","places":8,"units":2,"registered":"2025-11-11","catastro":"6007605TF7760E0001XM","holder":"DELAROVEGA PROYECTOS SL","holder_count":1}},{"type":"Feature","geometry":{"type":"Point","coordinates":[-5.504307,36.758739]},"properties":{"id":"VUT/CA/25624","type":"VUT","group":"Completa","address":"CALLE LA ROSA Nº 17 Plta/Piso BAJA Pta/Letra DER. Compl.Dom. PLANTA BAJA PUERTA DERECHA, piso BAJA, puerta DER.","postal_code":"11670","places":6,"units":2,"registered":"2025-12-30","catastro":"6512608TF7761B0001LD","holder":null,"holder_count":null}}]}