{"type":"FeatureCollection","municipio":{"slug":"el-gastor","name":"El Gastor","total":5,"places":21,"source_updated_at":"2026-10-05"},"features":[{"type":"Feature","geometry":{"type":"Point","coordinates":[-5.322793,36.854883]},"properties":{"id":"VUT/CA/14043","type":"VUT","group":"Completa","address":"CALLE LA FUENTE Nº 11","postal_code":"11687","places":4,"units":2,"registered":"2022-04-26","catastro":"3015105TF9831E0001AA","holder":null,"holder_count":null}},{"type":"Feature","geometry":{"type":"Point","coordinates":[-5.320995,36.853736]},"properties":{"id":"VUT/CA/18401","type":"VUT","group":"Completa","address":"CALLE LADERA Nº 1 Pta/Letra C, puerta C","postal_code":"11687","places":5,"units":3,"registered":"2023-07-18","catastro":"3214501TF9831C0011MM","holder":null,"holder_count":null}},{"type":"Feature","geometry":{"type":"Point","coordinates":[-5.325228,36.856233]},"properties":{"id":"VUT/CA/18613","type":"VUT","group":"Completa","address":"CALLE PORTEZUELO Nº 21","postal_code":"11687","places":4,"units":2,"registered":"2023-08-10","catastro":"2916602TF9821F0001HH","holder":null,"holder_count":null}},{"type":"Feature","geometry":{"type":"Point","coordinates":[-5.323984,36.854525]},"properties":{"id":"VUT/CA/19233","type":"VUT","group":"Completa","address":"CALLE DIEGO DE EL GASTOR Nº 30","postal_code":"11687","places":4,"units":2,"registered":"2023-12-12","catastro":"3014801TF9831C0001ZH","holder":null,"holder_count":null}},{"type":"Feature","geometry":{"type":"Point","coordinates":[-5.323625,36.854172]},"properties":{"id":"VUT/CA/26053","type":"VUT","group":"Completa","address":"CALLE SAN JOSE Nº 45","postal_code":"11687","places":4,"units":2,"registered":"2026-03-22","catastro":"3014810TF9831C0001YH","holder":null,"holder_count":null}}]}