{"type":"FeatureCollection","municipio":{"slug":"espera","name":"Espera","total":1,"places":14,"source_updated_at":"2026-10-05"},"features":[{"type":"Feature","geometry":{"type":"Point","coordinates":[-5.751621,36.911957]},"properties":{"id":"VUT/CA/026320","type":"VUT","group":"Completa","address":"CARRETERA A-371 BARRIADA DE FÁTIMA Nº 0 Compl.Dom. CORTIJO EL MORISCO","postal_code":"11678","places":14,"units":5,"registered":"2026-04-29","catastro":"53017A012000180001MK","holder":null,"holder_count":null}}]}