{"type":"FeatureCollection","municipio":{"slug":"grazalema","name":"Grazalema","total":43,"places":233,"source_updated_at":"2026-10-05"},"features":[{"type":"Feature","geometry":{"type":"Point","coordinates":[-5.370834,36.759131]},"properties":{"id":"VUT/CA/026251","type":"VUT","group":"Completa","address":"CALLE San José Nº 53","postal_code":"11610","places":6,"units":3,"registered":"2026-04-21","catastro":"8411313TF8781S0001IA","holder":null,"holder_count":null}},{"type":"Feature","geometry":{"type":"Point","coordinates":[-5.465031,36.762257]},"properties":{"id":"VUT/CA/026742","type":"VUT","group":"Completa","address":"CALLE REAL Nº 64 Plta/Piso 1 Pta/Letra 1, piso 1, puerta 1","postal_code":"11679","places":5,"units":3,"registered":"2026-06-24","catastro":"0115801TF8701N0003RL","holder":null,"holder_count":null}},{"type":"Feature","geometry":{"type":"Point","coordinates":[-5.464685,36.766779]},"properties":{"id":"VUT/CA/027059","type":"VUT","group":"Completa","address":"CALLE NACIMIENTO Nº 38 Portal 1 Plta/Piso 4 Pta/Letra A, piso 4, puerta A","postal_code":"11679","places":4,"units":2,"registered":"2026-09-18","catastro":"0120601TF8702S0025XF","holder":null,"holder_count":null}},{"type":"Feature","geometry":{"type":"Point","coordinates":[-5.364062,36.758449]},"properties":{"id":"VUT/CA/027089","type":"VUT","group":"Completa","address":"CALLE LAGUNETA Nº 22 Plta/Piso 2 Pta/Letra 4, piso 2, puerta 4","postal_code":"11610","places":7,"units":3,"registered":"2026-09-27","catastro":"8909612TF8780N0004WS","holder":null,"holder_count":null}},{"type":"Feature","geometry":{"type":"Point","coordinates":[-5.465184,36.764058]},"properties":{"id":"VUT/CA/05707","type":"VUT","group":"Completa","address":"CALLE San Antonio Nº 9-11 Portal 1 Pta/Letra 10, puerta 10","postal_code":"11679","places":4,"units":2,"registered":"2018-07-31","catastro":"0117146TF8701N0010AM","holder":null,"holder_count":null}},{"type":"Feature","geometry":{"type":"Point","coordinates":[-5.465529,36.764121]},"properties":{"id":"VUT/CA/07108","type":"VUT","group":"Completa","address":"CALLE SAN ANTONIO Nº 6 Plta/Piso 1º Pta/Letra G, piso 1º, puerta G","postal_code":"11679","places":5,"units":2,"registered":"2019-04-09","catastro":"0117416TF8701N0010KM","holder":null,"holder_count":null}},{"type":"Feature","geometry":{"type":"Point","coordinates":[-5.468564,36.765651]},"properties":{"id":"VUT/CA/07123","type":"VUT","group":"Completa","address":"CALLEJA CUESTA VENTA Nº 13 Plta/Piso 1 Pta/Letra IZQ, piso 1, puerta IZQ","postal_code":"11679","places":6,"units":3,"registered":"2019-04-11","catastro":"0020007TF8702S0005MM","holder":null,"holder_count":null}},{"type":"Feature","geometry":{"type":"Point","coordinates":[-5.372359,36.759539]},"properties":{"id":"VUT/CA/07182","type":"VUT","group":"Por habitaciones","address":"CALLE LA TEJA Nº 18","postal_code":"11610","places":3,"units":1,"registered":"2019-04-22","catastro":"8313010TF8781S0005FG","holder":null,"holder_count":null}},{"type":"Feature","geometry":{"type":"Point","coordinates":[-5.367051,36.759115]},"properties":{"id":"VUT/CA/09364","type":"VUT","group":"Completa","address":"CALLE Empedrada Nº 24 Plta/Piso 1, piso 1","postal_code":"11610","places":5,"units":3,"registered":"2019-11-30","catastro":"8811004TF8781S0002ES","holder":null,"holder_count":null}},{"type":"Feature","geometry":{"type":"Point","coordinates":[-5.369981,36.758076]},"properties":{"id":"VUT/CA/10200","type":"VUT","group":"Completa","address":"CALLE PIE DE PALO Nº 19 Portal B Plta/Piso PRIMERO, piso PRIMERO","postal_code":"11610","places":5,"units":2,"registered":"2020-03-12","catastro":"8511027TF8781S0004ZF","holder":null,"holder_count":null}},{"type":"Feature","geometry":{"type":"Point","coordinates":[-5.464685,36.766779]},"properties":{"id":"VUT/CA/10288","type":"VUT","group":"Completa","address":"CALLE NACIMIENTO Nº 28 Portal 2 Plta/Piso SEGUNDA Pta/Letra A Compl.Dom. CALLE NACIMIENTO, PORTAL 2, SEGUNDO A, piso SEGUNDA, puerta A","postal_code":"11679","places":6,"units":2,"registered":"2020-04-03","catastro":"0120601TF8702S0013DT","holder":null,"holder_count":null}},{"type":"Feature","geometry":{"type":"Point","coordinates":[-5.466531,36.765112]},"properties":{"id":"VUT/CA/11078","type":"VUT","group":"Completa","address":"CALLE NACIMIENTO Portal 7 Esc. 1 Pta/Letra 6, puerta 6","postal_code":"11610","places":4,"units":2,"registered":"2020-10-19","catastro":"0019005TF8701N0006HX","holder":null,"holder_count":null}},{"type":"Feature","geometry":{"type":"Point","coordinates":[-5.465492,36.76611]},"properties":{"id":"VUT/CA/11205","type":"VUT","group":"Completa","address":"CALLE PARRA Nº 9 Plta/Piso 1, piso 1","postal_code":"11679","places":8,"units":3,"registered":"2020-12-17","catastro":"0119128TF8701N0009UW","holder":null,"holder_count":null}},{"type":"Feature","geometry":{"type":"Point","coordinates":[-5.468048,36.764683]},"properties":{"id":"VUT/CA/12767","type":"VUT","group":"Completa","address":"CALLE LA VENTA Nº 12 Compl.Dom. BENAMAHOMA","postal_code":"11679","places":8,"units":2,"registered":"2021-09-18","catastro":"9818606TF7791N0002QL","holder":null,"holder_count":null}},{"type":"Feature","geometry":{"type":"Point","coordinates":[-5.465492,36.76611]},"properties":{"id":"VUT/CA/13110","type":"VUT","group":"Completa","address":"CALLE LA PARRA Nº 13","postal_code":"11679","places":8,"units":4,"registered":"2021-12-03","catastro":"0119128TF8701N0002MK","holder":null,"holder_count":null}},{"type":"Feature","geometry":{"type":"Point","coordinates":[-5.369,36.757843]},"properties":{"id":"VUT/CA/13295","type":"VUT","group":"Completa","address":"CALLE PIE DE PALO Nº 10 Pta/Letra A, puerta A","postal_code":"11610","places":6,"units":2,"registered":"2022-01-21","catastro":"8609301TF8780N0008GH","holder":null,"holder_count":null}},{"type":"Feature","geometry":{"type":"Point","coordinates":[-5.369625,36.757741]},"properties":{"id":"VUT/CA/14288","type":"VUT","group":"Completa","address":"CALLE PIE DE PALO Nº 34","postal_code":"11610","places":6,"units":3,"registered":"2022-05-18","catastro":"8410317TF8781S0002JS","holder":null,"holder_count":null}},{"type":"Feature","geometry":{"type":"Point","coordinates":[-5.465184,36.764058]},"properties":{"id":"VUT/CA/14308","type":"VUT","group":"Completa","address":"CALLE San Antonio Nº 11 Portal 1 Plta/Piso baja Pta/Letra 2, piso baja, puerta 2","postal_code":"11679","places":6,"units":2,"registered":"2022-05-19","catastro":"0117146TF8701N0002YK","holder":null,"holder_count":null}},{"type":"Feature","geometry":{"type":"Point","coordinates":[-5.466531,36.765112]},"properties":{"id":"VUT/CA/15674","type":"VUT","group":"Completa","address":"CALLE NACIMIENTO Nº 7 Plta/Piso 1 Compl.Dom. EDIFICIO LA ROSILLA, piso 1","postal_code":"11679","places":4,"units":2,"registered":"2022-10-04","catastro":"0019005TF8701N0008KQ","holder":null,"holder_count":null}},{"type":"Feature","geometry":{"type":"Point","coordinates":[-5.368605,36.758326]},"properties":{"id":"VUT/CA/17660","type":"VUT","group":"Completa","address":"CALLE CORRALES SEGUNDOS Nº 28","postal_code":"11610","places":4,"units":2,"registered":"2023-05-25","catastro":"8610519TF8781S0001EA","holder":null,"holder_count":null}},{"type":"Feature","geometry":{"type":"Point","coordinates":[-5.465601,36.764274]},"properties":{"id":"VUT/CA/18442","type":"VUT","group":"Completa","address":"CALLE SAN ANTONIO Blq. 4 Portal A Plta/Piso B Pta/Letra A, piso B, puerta A","postal_code":"11679","places":5,"units":2,"registered":"2023-07-22","catastro":"0117401TF8701N0013TE","holder":null,"holder_count":null}},{"type":"Feature","geometry":{"type":"Point","coordinates":[-5.367911,36.758581]},"properties":{"id":"VUT/CA/18626","type":"VUT","group":"Completa","address":"CALLE LAS PIEDRAS Nº 38","postal_code":"11610","places":6,"units":2,"registered":"2023-08-12","catastro":"8711023TF8781S0001SA","holder":null,"holder_count":null}},{"type":"Feature","geometry":{"type":"Point","coordinates":[-5.466133,36.765731]},"properties":{"id":"VUT/CA/18701","type":"VUT","group":"Completa","address":"CALLE Cuesta de la Venta Nº 18","postal_code":"11679","places":4,"units":2,"registered":"2023-08-26","catastro":"0019013TF8701N0004DB","holder":null,"holder_count":null}},{"type":"Feature","geometry":{"type":"Point","coordinates":[-5.370579,36.760381]},"properties":{"id":"VUT/CA/18912","type":"VUT","group":"Completa","address":"CALLE CHORRITO Nº 10","postal_code":"11610","places":8,"units":5,"registered":"2023-10-05","catastro":"8513510TF8781S0001FA","holder":null,"holder_count":null}},{"type":"Feature","geometry":{"type":"Point","coordinates":[-5.369801,36.758426]},"properties":{"id":"VUT/CA/19091","type":"VUT","group":"Completa","address":"CALLE CORRALES PRIMERO Nº 30","postal_code":"11610","places":4,"units":1,"registered":"2023-11-13","catastro":"8511738TF8781S0001EA","holder":null,"holder_count":null}},{"type":"Feature","geometry":{"type":"Point","coordinates":[-5.36802,36.758552]},"properties":{"id":"VUT/CA/19282","type":"VUT","group":"Completa","address":"CALLE LAS PIEDRAS Nº 56 Plta/Piso 2, piso 2","postal_code":"11610","places":8,"units":4,"registered":"2023-12-19","catastro":"8711022TF8781S0005UG","holder":null,"holder_count":null}},{"type":"Feature","geometry":{"type":"Point","coordinates":[-5.465184,36.764058]},"properties":{"id":"VUT/CA/19963","type":"VUT","group":"Completa","address":"CALLE SAN ANTONIO Nº 11","postal_code":"11679","places":2,"units":1,"registered":"2024-03-14","catastro":"0117146TF8701N0009DW","holder":null,"holder_count":null}},{"type":"Feature","geometry":{"type":"Point","coordinates":[-5.465529,36.764121]},"properties":{"id":"VUT/CA/20045","type":"VUT","group":"Completa","address":"CALLE SAN ANTONIO Nº 2 Plta/Piso BAJO Pta/Letra C, piso BAJO, puerta C","postal_code":"11679","places":6,"units":2,"registered":"2024-03-20","catastro":"0117416TF8701N0006JX","holder":null,"holder_count":null}},{"type":"Feature","geometry":{"type":"Point","coordinates":[-5.465184,36.764058]},"properties":{"id":"VUT/CA/20689","type":"VUT","group":"Completa","address":"CALLE SAN ANTONIO Nº 11 Esc. 1 Plta/Piso 01 Pta/Letra 19, piso 01, puerta 19","postal_code":"11679","places":4,"units":2,"registered":"2024-05-16","catastro":"0117146TF8701N0019BO","holder":null,"holder_count":null}},{"type":"Feature","geometry":{"type":"Point","coordinates":[-5.465492,36.76611]},"properties":{"id":"VUT/CA/22686","type":"VUT","group":"Completa","address":"CALLE LA PARRA Nº 9 Calif.Nº BAJO","postal_code":"11679","places":6,"units":4,"registered":"2025-01-13","catastro":"0119128TF8701N0003QL","holder":null,"holder_count":null}},{"type":"Feature","geometry":{"type":"Point","coordinates":[-5.370559,36.760699]},"properties":{"id":"VUT/CA/22743","type":"VUT","group":"Completa","address":"CALLE CHORRITO Nº 14 Plta/Piso 2, piso 2","postal_code":"11610","places":4,"units":2,"registered":"2025-01-19","catastro":"8513522TF8781S0002RS","holder":null,"holder_count":null}},{"type":"Feature","geometry":{"type":"Point","coordinates":[-5.370559,36.760699]},"properties":{"id":"VUT/CA/23036","type":"VUT","group":"Completa","address":"CALLE CHORRITO Nº 14 Esc. 1 Plta/Piso 0 Pta/Letra 1, piso 0, puerta 1","postal_code":"11610","places":4,"units":2,"registered":"2025-02-19","catastro":"8513522TF8781S0001EA","holder":null,"holder_count":null}},{"type":"Feature","geometry":{"type":"Point","coordinates":[-5.365939,36.758054]},"properties":{"id":"VUT/CA/23277","type":"VUT","group":"Completa","address":"PLAZA España Nº 16 Plta/Piso 2ª Pta/Letra A, piso 2ª, puerta A","postal_code":"11610","places":4,"units":2,"registered":"2025-03-10","catastro":"8809511TF8780N0006XF","holder":null,"holder_count":null}},{"type":"Feature","geometry":{"type":"Point","coordinates":[-5.366791,36.758615]},"properties":{"id":"VUT/CA/23539","type":"VUT","group":"Completa","address":"CALLE Doctor Mateos Gago Nº 9 Plta/Piso 2ª Pta/Letra Iqda., piso 2ª, puerta Iqda.","postal_code":"11610","places":4,"units":2,"registered":"2025-03-24","catastro":"8711001TF8781S0004OF","holder":null,"holder_count":null}},{"type":"Feature","geometry":{"type":"Point","coordinates":[-5.370904,36.759702]},"properties":{"id":"VUT/CA/25002","type":"VUT","group":"Completa","address":"CALLE Tintoreria y Tinte Alto Nº 4","postal_code":"11610","places":6,"units":2,"registered":"2025-07-23","catastro":"8412512TF8781S0009BL","holder":null,"holder_count":null}},{"type":"Feature","geometry":{"type":"Point","coordinates":[-5.369,36.757843]},"properties":{"id":"VUT/CA/25391","type":"VUT","group":"Completa","address":"CALLE Las Parras Nº 14 Pta/Letra C, puerta C","postal_code":"11610","places":6,"units":2,"registered":"2025-10-24","catastro":"8609301TF8780N0004AS","holder":null,"holder_count":null}},{"type":"Feature","geometry":{"type":"Point","coordinates":[-5.464685,36.766779]},"properties":{"id":"VUT/CA/25447","type":"VUT","group":"Completa","address":"CALLE NACIMIENTO Nº 38 Portal 1 Plta/Piso 4 Pta/Letra A, piso 4, puerta A","postal_code":"11679","places":4,"units":2,"registered":"2025-11-10","catastro":"0120601TF8702S0025XF","holder":null,"holder_count":null}},{"type":"Feature","geometry":{"type":"Point","coordinates":[-5.368416,36.758593]},"properties":{"id":"VUT/CA/25449","type":"VUT","group":"Completa","address":"CALLE LAS PIEDRAS Nº 76","postal_code":"11610","places":10,"units":4,"registered":"2025-11-10","catastro":"8610205TF8781S0001UA","holder":"RF TRADE CADIZ S.L.","holder_count":1}},{"type":"Feature","geometry":{"type":"Point","coordinates":[-5.466046,36.764559]},"properties":{"id":"VUT/CA/25469","type":"VUT","group":"Completa","address":"CALLE MARQUES DE ESTELLA Nº 7 Plta/Piso 1, piso 1","postal_code":"11679","places":4,"units":2,"registered":"2025-11-13","catastro":"0018605TF8701N0003OL","holder":null,"holder_count":null}},{"type":"Feature","geometry":{"type":"Point","coordinates":[-5.368058,36.757879]},"properties":{"id":"VUT/CA/25536","type":"VUT","group":"Completa","address":"CALLE LAS PARRAS Nº 36","postal_code":"16010","places":6,"units":3,"registered":"2025-12-04","catastro":"8609306TF8780N0001UO","holder":null,"holder_count":null}},{"type":"Feature","geometry":{"type":"Point","coordinates":[-5.371483,36.760541]},"properties":{"id":"VUT/CA/25560","type":"VUT","group":"Completa","address":"PLAZA ASAMBLEA Nº 11 Plta/Piso Adosado Pta/Letra 1, piso Adosado, puerta 1","postal_code":"11610","places":6,"units":3,"registered":"2025-12-10","catastro":"8513103TF8781S0046KZ","holder":null,"holder_count":null}},{"type":"Feature","geometry":{"type":"Point","coordinates":[-5.372221,36.759392]},"properties":{"id":"VUT/CA/25656","type":"VUT","group":"Completa","address":"CALLE LA TEJA Nº 6","postal_code":"11610","places":6,"units":3,"registered":"2026-01-13","catastro":"8313008TF8781S0004XF","holder":null,"holder_count":null}},{"type":"Feature","geometry":{"type":"Point","coordinates":[-5.465184,36.764058]},"properties":{"id":"VUT/CA/26034","type":"VUT","group":"Completa","address":"CALLE San Antonio Nº 11 Portal 1 Plta/Piso 1 Pta/Letra 11, piso 1, puerta 11","postal_code":"11679","places":6,"units":2,"registered":"2026-03-18","catastro":"0117146TF8701N0011SQ","holder":null,"holder_count":null}}]}