{"type":"FeatureCollection","municipio":{"slug":"jimena-de-la-frontera","name":"Jimena de la Frontera","total":14,"places":79,"source_updated_at":"2026-10-05"},"features":[{"type":"Feature","geometry":{"type":"Point","coordinates":[-5.452741,36.43188]},"properties":{"id":"VUT/CA/026228","type":"VUT","group":"Completa","address":"CALLE CONSUELO Nº 42","postal_code":"11330","places":6,"units":3,"registered":"2026-04-17","catastro":"0248201TF8304N0001ZW","holder":null,"holder_count":null}},{"type":"Feature","geometry":{"type":"Point","coordinates":[-5.437323,36.422345]},"properties":{"id":"VUT/CA/05688","type":"VUT","group":"Completa","address":"CALLE LA LINEA 35 Nº 35","postal_code":"11339","places":4,"units":3,"registered":"2018-07-29","catastro":"1638011TF8313N0013IZ","holder":null,"holder_count":null}},{"type":"Feature","geometry":{"type":"Point","coordinates":[-5.454094,36.434721]},"properties":{"id":"VUT/CA/06820","type":"VUT","group":"Completa","address":"CALLE YUSTOS Nº 35","postal_code":"11330","places":5,"units":2,"registered":"2019-02-11","catastro":"0152833TF8305S0001SR","holder":null,"holder_count":null}},{"type":"Feature","geometry":{"type":"Point","coordinates":[-5.435768,36.426705]},"properties":{"id":"VUT/CA/10424","type":"VUT","group":"Por habitaciones","address":"CALLE PABLO PICASSO Nº 9","postal_code":"11339","places":6,"units":3,"registered":"2020-06-02","catastro":"1742804TF8314S0001GF","holder":null,"holder_count":null}},{"type":"Feature","geometry":{"type":"Point","coordinates":[-5.453771,36.438017]},"properties":{"id":"VUT/CA/11066","type":"VUT","group":"Completa","address":"CALLE CORRAL DEL CONCEJO Nº 27","postal_code":"11330","places":8,"units":4,"registered":"2020-10-14","catastro":"0155909TF8305N0001AL","holder":null,"holder_count":null}},{"type":"Feature","geometry":{"type":"Point","coordinates":[-5.435894,36.424961]},"properties":{"id":"VUT/CA/15148","type":"VUT","group":"Completa","address":"CALLE ANTONIO MACHADO Nº 5","postal_code":"11339","places":8,"units":4,"registered":"2022-07-20","catastro":"1640208TF8314S0001WF","holder":null,"holder_count":null}},{"type":"Feature","geometry":{"type":"Point","coordinates":[-5.412157,36.467243]},"properties":{"id":"VUT/CA/16494","type":"VUT","group":"Completa","address":"CALLE LA VIÑA Nº SN Plta/Piso 3 Pta/Letra B, piso 3, puerta B","postal_code":"11320","places":4,"units":2,"registered":"2023-02-21","catastro":"3987053TF8338N0040IJ","holder":null,"holder_count":null}},{"type":"Feature","geometry":{"type":"Point","coordinates":[-5.454514,36.435656]},"properties":{"id":"VUT/CA/17368","type":"VUT","group":"Completa","address":"CALLE MATARROCIN Nº 1","postal_code":"11330","places":12,"units":5,"registered":"2023-05-04","catastro":"0152001TF8305S0001ER","holder":null,"holder_count":null}},{"type":"Feature","geometry":{"type":"Point","coordinates":[-5.454514,36.435656]},"properties":{"id":"VUT/CA/19851","type":"VUT","group":"Completa","address":"CALLEJA MATARROCIN Portal 1","postal_code":"11330","places":4,"units":1,"registered":"2024-03-01","catastro":"0152001TF8305S0001ER","holder":null,"holder_count":null}},{"type":"Feature","geometry":{"type":"Point","coordinates":[-5.453229,36.431624]},"properties":{"id":"VUT/CA/20316","type":"VUT","group":"Completa","address":"CALLE Fuente de la Cruz Nº 20","postal_code":"11330","places":4,"units":2,"registered":"2024-04-18","catastro":"0248005TF8304N0001EW","holder":null,"holder_count":null}},{"type":"Feature","geometry":{"type":"Point","coordinates":[-5.452523,36.432537]},"properties":{"id":"VUT/CA/20792","type":"VUT","group":"Completa","address":"CALLE San Francisco Nº 11","postal_code":"11330","places":4,"units":2,"registered":"2024-05-24","catastro":"0250023TF8304N0001FW","holder":null,"holder_count":null}},{"type":"Feature","geometry":{"type":"Point","coordinates":[-5.4479,36.432183]},"properties":{"id":"VUT/CA/22470","type":"VUT","group":"Completa","address":"AVENIDA LOS DEPORTES Nº 20 Esc. 1 Plta/Piso -1 Pta/Letra A5, piso -1, puerta A5","postal_code":"11330","places":2,"units":1,"registered":"2024-12-03","catastro":"0648504TF8304N0027WX","holder":null,"holder_count":null}},{"type":"Feature","geometry":{"type":"Point","coordinates":[-5.454684,36.438547]},"properties":{"id":"VUT/CA/23201","type":"VUT","group":"Completa","address":"CALLE ANCHA Nº 16","postal_code":"11330","places":2,"units":1,"registered":"2025-03-05","catastro":"0156007TF8305N0001IL","holder":null,"holder_count":null}},{"type":"Feature","geometry":{"type":"Point","coordinates":[-5.45298,36.432045]},"properties":{"id":"VUT/CA/25639","type":"VUT","group":"Completa","address":"CALLE CONSUELO Nº 38","postal_code":"11330","places":10,"units":4,"registered":"2026-01-08","catastro":"0249019TF8304N0001GW","holder":null,"holder_count":null}}]}