{"type":"FeatureCollection","municipio":{"slug":"la-linea-de-la-concepcion","name":"La Línea de la Concepción","total":213,"places":1234,"source_updated_at":"2026-10-05"},"features":[{"type":"Feature","geometry":{"type":"Point","coordinates":[-5.331571,36.244027]},"properties":{"id":"VUT/CA/00902","type":"VUT","group":"Completa","address":"CALLE cortijo de las aguzaderas Blq. 3 Portal 6 Plta/Piso 2 Pta/Letra A Compl.Dom. Urbanización La Alcaidesa Suites Garden, piso 2, puerta A","postal_code":"11316","places":6,"units":2,"registered":"2016-08-01","catastro":"0537601TF9103N0059HU","holder":"COSMOMUNDI SLU","holder_count":2}},{"type":"Feature","geometry":{"type":"Point","coordinates":[-5.331571,36.244027]},"properties":{"id":"VUT/CA/00929","type":"VUT","group":"Completa","address":"CALLE cortijo de las aguzaderas Blq. 6 Portal 12 Plta/Piso 2 Pta/Letra A Compl.Dom. Urbanización La Alcaidesa Suites Garden, piso 2, puerta A","postal_code":"11316","places":6,"units":2,"registered":"2016-08-04","catastro":"0537601TF9103N0113IX","holder":"COSMOMUNDI SLU","holder_count":2}},{"type":"Feature","geometry":{"type":"Point","coordinates":[-5.322931,36.240676]},"properties":{"id":"VUT/CA/01172","type":"VUT","group":"Completa","address":"CALLE ALTOS Nº 6 Compl.Dom. CASA ORQUIDEA  (COLINAS DEL MAR)","postal_code":"11316","places":15,"units":4,"registered":"2016-09-13","catastro":"1331141TF9113S0001BX","holder":null,"holder_count":null}},{"type":"Feature","geometry":{"type":"Point","coordinates":[-5.323413,36.23891]},"properties":{"id":"VUT/CA/01327","type":"VUT","group":"Completa","address":"CALLE DE LAS COLINAS DEL MAR Nº 9 Compl.Dom. URB. ALCAIDESA PLAYA","postal_code":"11316","places":10,"units":5,"registered":"2016-09-29","catastro":"1331110TF9113S0001YX","holder":"DOS OLIVOS, S.L.","holder_count":1}},{"type":"Feature","geometry":{"type":"Point","coordinates":[-5.31336,36.240061]},"properties":{"id":"VUT/CA/01380","type":"VUT","group":"Completa","address":"AVENIDA MEDITERRANEO Nº DEL 4 AL 6 Plta/Piso 6 Pta/Letra A Compl.Dom. PARCELA R14. CONJUNTO RESIDENCIAL VISTA REAL. URBANIZACION LA ALCAIDESA, piso 6, puerta A","postal_code":"11315","places":6,"units":3,"registered":"2016-10-05","catastro":"2128164TF9122N0035BE","holder":null,"holder_count":null}},{"type":"Feature","geometry":{"type":"Point","coordinates":[-5.320201,36.235767]},"properties":{"id":"VUT/CA/01621","type":"VUT","group":"Completa","address":"CALLE DE LAS COLINAS DEL MAR Esc. 1 Plta/Piso 3 Pta/Letra D Compl.Dom. AMAPOLA, 1. VIV. 130, piso 3, puerta D","postal_code":"11300","places":8,"units":3,"registered":"2016-11-09","catastro":"1728128TF9112N0008QR","holder":null,"holder_count":null}},{"type":"Feature","geometry":{"type":"Point","coordinates":[-5.317329,36.238855]},"properties":{"id":"VUT/CA/01732","type":"VUT","group":"Completa","address":"CONJUNTO ALAMAR Blq. 2 Pta/Letra 1, puerta 1","postal_code":"11300","places":8,"units":4,"registered":"2016-11-24","catastro":"2032135TF9123S0001SE","holder":null,"holder_count":null}},{"type":"Feature","geometry":{"type":"Point","coordinates":[-5.320201,36.235767]},"properties":{"id":"VUT/CA/01749","type":"VUT","group":"Completa","address":"URBANIZACION ALCAIDESA VILLAGE GOLFPLAYA Nº 902 Plta/Piso BAJO Pta/Letra 902 Compl.Dom. EDIFICIO ORQUIDEA 9, piso BAJO, puerta 902","postal_code":"11300","places":7,"units":3,"registered":"2016-11-28","catastro":"1728128TF9112N0051YO","holder":"LL RENTALS CW S.L.","holder_count":1}},{"type":"Feature","geometry":{"type":"Point","coordinates":[-5.321844,36.236242]},"properties":{"id":"VUT/CA/01771","type":"VUT","group":"Completa","address":"CALLE COLINAS DEL MAR Nº 10 Blq. 2 Plta/Piso 00 Pta/Letra 49 Compl.Dom. LA CARONA, piso 00, puerta 49","postal_code":"11300","places":8,"units":3,"registered":"2016-11-30","catastro":"1331103TF9113S0050RP","holder":null,"holder_count":null}},{"type":"Feature","geometry":{"type":"Point","coordinates":[-5.316135,36.234542]},"properties":{"id":"VUT/CA/01990","type":"VUT","group":"Completa","address":"URBANIZACION LOMA DEL REY Nº 63 Compl.Dom. ALCAIDESA","postal_code":"11315","places":8,"units":4,"registered":"2017-01-17","catastro":"2128110TF9122N0055TJ","holder":null,"holder_count":null}},{"type":"Feature","geometry":{"type":"Point","coordinates":[-5.331571,36.244027]},"properties":{"id":"VUT/CA/02121","type":"VUT","group":"Completa","address":"URBANIZACION ALCAIDESA SUITE, GOLF & GARDENS I Blq. 1 Plta/Piso AT Pta/Letra A2, piso AT, puerta A2","postal_code":"11316","places":4,"units":2,"registered":"2017-02-06","catastro":"0537601TF9103N0010WH","holder":null,"holder_count":null}},{"type":"Feature","geometry":{"type":"Point","coordinates":[-5.320201,36.235767]},"properties":{"id":"VUT/CA/02224","type":"VUT","group":"Completa","address":"CALLE COLINAS DEL MAR Nº 100 Plta/Piso BAJO Compl.Dom. EDIFICIO AMAPOLA 1. COMPLEJO ALCAIDESA VILLAGE GOLFPLAYA, piso BAJO","postal_code":"11316","places":12,"units":3,"registered":"2017-02-16","catastro":"1728128TF9112N0002KZ","holder":null,"holder_count":null}},{"type":"Feature","geometry":{"type":"Point","coordinates":[-5.320201,36.235767]},"properties":{"id":"VUT/CA/02228","type":"VUT","group":"Completa","address":"CALLE COLINAS DEL MAR Nº 102 Plta/Piso BAJO Compl.Dom. EDIFICIO AMAPOLA 1. COMPLEJO ALCAIDESA VILLAGE GOLFPLAYA, piso BAJO","postal_code":"11316","places":12,"units":3,"registered":"2017-02-16","catastro":"1728128TF9112N0003LX","holder":null,"holder_count":null}},{"type":"Feature","geometry":{"type":"Point","coordinates":[-5.315824,36.239526]},"properties":{"id":"VUT/CA/02472","type":"VUT","group":"Completa","address":"CALLE DE LOS JARDINES DE ESPAÑA Nº 16 Compl.Dom. URBANIZACION LOS BREZOS - LA ALCAIDESA","postal_code":"11316","places":6,"units":3,"registered":"2017-03-27","catastro":"2032116TF9123S0001PE","holder":null,"holder_count":null}},{"type":"Feature","geometry":{"type":"Point","coordinates":[-5.323157,36.236849]},"properties":{"id":"VUT/CA/02502","type":"VUT","group":"Completa","address":"RESIDENCIAL URBANIZACION SEA GOLF REGENCY Blq. 5 Plta/Piso 1 Pta/Letra 82 Compl.Dom. LA ALCAIDESA, piso 1, puerta 82","postal_code":"11300","places":3,"units":1,"registered":"2017-03-30","catastro":"1331102TF9113S0101PW","holder":null,"holder_count":null}},{"type":"Feature","geometry":{"type":"Point","coordinates":[-5.349237,36.15728]},"properties":{"id":"VUT/CA/026548","type":"VUT","group":"Completa","address":"BARRIADA CASTILLO DE SAN FELIPE Blq. 6 Plta/Piso 1 Pta/Letra C, piso 1, puerta C","postal_code":"11300","places":6,"units":3,"registered":"2026-05-27","catastro":"8841406TF8084S0005UI","holder":"IGIENI GRUPO INVERSIONES SL","holder_count":1}},{"type":"Feature","geometry":{"type":"Point","coordinates":[-5.355336,36.167205]},"properties":{"id":"VUT/CA/026608","type":"VUT","group":"Por habitaciones","address":"CALLE Espinell Nº 18 Plta/Piso 3 Pta/Letra A, piso 3, puerta A","postal_code":"11300","places":6,"units":4,"registered":"2026-06-04","catastro":"8353032TF8085S0013RU","holder":null,"holder_count":null}},{"type":"Feature","geometry":{"type":"Point","coordinates":[-5.345281,36.160099]},"properties":{"id":"VUT/CA/026631","type":"VUT","group":"Completa","address":"AVENIDA DEL EJÉRCITO Blq. 1 Plta/Piso 10 Pta/Letra A, piso 10, puerta A","postal_code":"11300","places":5,"units":3,"registered":"2026-06-07","catastro":"9045008TF8094N0037FR","holder":null,"holder_count":null}},{"type":"Feature","geometry":{"type":"Point","coordinates":[-5.348385,36.167839]},"properties":{"id":"VUT/CA/026675","type":"VUT","group":"Completa","address":"CALLE Alemania Nº 13 Pta/Letra 7 Compl.Dom. Residencial Castilla, puerta 7","postal_code":"11300","places":6,"units":2,"registered":"2026-06-13","catastro":"8953001TF8085S0008OT","holder":null,"holder_count":null}},{"type":"Feature","geometry":{"type":"Point","coordinates":[-5.31336,36.240061]},"properties":{"id":"VUT/CA/026692","type":"VUT","group":"Completa","address":"AVENIDA DEL MEDITERRANEO Nº 4 Blq. 4 Plta/Piso BAJ Pta/Letra B Compl.Dom. URBANIZACIÓN VISTA REAL, piso BAJ, puerta B","postal_code":"11316","places":6,"units":3,"registered":"2026-06-16","catastro":"2128164TF9122N0018OG","holder":null,"holder_count":null}},{"type":"Feature","geometry":{"type":"Point","coordinates":[-5.31921,36.23801]},"properties":{"id":"VUT/CA/026775","type":"VUT","group":"Completa","address":"URBANIZACION ALCAIDESA PLAYA Nº 9 Compl.Dom. PARCELA RE 8-39","postal_code":"11360","places":8,"units":3,"registered":"2026-06-30","catastro":"1930167TF9113S0001OX","holder":null,"holder_count":null}},{"type":"Feature","geometry":{"type":"Point","coordinates":[-5.324779,36.238886]},"properties":{"id":"VUT/CA/027003","type":"VUT","group":"Completa","address":"AVENIDA PUNTA MALA S.N. Blq. 2 Plta/Piso 2 Pta/Letra C Compl.Dom. LA ALCAIDESA, URB. INFINITY, BLOQUE JASMIN, APTO. A4 (2ºC), piso 2, puerta C","postal_code":"11360","places":2,"units":1,"registered":"2026-08-29","catastro":"0932501TF9103S0001RK","holder":null,"holder_count":null}},{"type":"Feature","geometry":{"type":"Point","coordinates":[-5.324779,36.238886]},"properties":{"id":"VUT/CA/027052","type":"VUT","group":"Completa","address":"URBANIZACION ALCAIDESA CORTIJO Nº 7 Esc. 3 Plta/Piso 1 Pta/Letra A, piso 1, puerta A","postal_code":"11300","places":6,"units":3,"registered":"2026-09-16","catastro":"0932501TF9103S0025XD","holder":"TOP PROPERTIES MARBELLA SL","holder_count":2}},{"type":"Feature","geometry":{"type":"Point","coordinates":[-5.321844,36.236242]},"properties":{"id":"VUT/CA/02844","type":"VUT","group":"Completa","address":"URBANIZACION LA CORONA - FASE I Nº 27 Compl.Dom. C/ COLINAS DEL MAR  -  ALCAIDESA","postal_code":"11300","places":7,"units":3,"registered":"2017-05-25","catastro":"1331103TF9113S0028FB","holder":null,"holder_count":null}},{"type":"Feature","geometry":{"type":"Point","coordinates":[-5.320201,36.235767]},"properties":{"id":"VUT/CA/02907","type":"VUT","group":"Completa","address":"CALLE COLINAS DEL MAR Nº 222 Plta/Piso 2 Compl.Dom. COMPLEJO LE VILLAGE ALCAIDESA GOLF. EDIFICIO AMAPOLA 2, piso 2","postal_code":"11300","places":8,"units":2,"registered":"2017-06-02","catastro":"1728128TF9112N0014RU","holder":null,"holder_count":null}},{"type":"Feature","geometry":{"type":"Point","coordinates":[-5.369445,36.16931]},"properties":{"id":"VUT/CA/02914","type":"VUT","group":"Completa","address":"AVENIDA AVENIDA DE ESPAÑA Nº 182 Blq. 2 Plta/Piso 3 Pta/Letra 305, piso 3, puerta 305","postal_code":"11300","places":4,"units":1,"registered":"2017-06-05","catastro":"7055001TF8075N0104IG","holder":null,"holder_count":null}},{"type":"Feature","geometry":{"type":"Point","coordinates":[-5.315918,36.237928]},"properties":{"id":"VUT/CA/03344","type":"VUT","group":"Completa","address":"CALLE AMAPOLAS URBANIZACION LA ALCAIDESA Nº 3","postal_code":"11315","places":10,"units":5,"registered":"2017-07-20","catastro":"1930106TF9113S0001DX","holder":null,"holder_count":null}},{"type":"Feature","geometry":{"type":"Point","coordinates":[-5.346661,36.162931]},"properties":{"id":"VUT/CA/03665","type":"VUT","group":"Completa","address":"CALLE MUÑOZ MOLLEDA Nº 23 Plta/Piso 3 Pta/Letra C, piso 3, puerta C","postal_code":"11300","places":3,"units":1,"registered":"2017-09-14","catastro":"9048102TF8094N0012YI","holder":null,"holder_count":null}},{"type":"Feature","geometry":{"type":"Point","coordinates":[-5.318655,36.240868]},"properties":{"id":"VUT/CA/03750","type":"VUT","group":"Completa","address":"CALLE JARDINES DE ESPAÑA Nº 94","postal_code":"11316","places":6,"units":3,"registered":"2017-09-21","catastro":"1732101TF9113S0095GB","holder":null,"holder_count":null}},{"type":"Feature","geometry":{"type":"Point","coordinates":[-5.320886,36.239979]},"properties":{"id":"VUT/CA/03970","type":"VUT","group":"Completa","address":"AVENIDA DE LAS PALMERAS Nº 12 Compl.Dom. UR. ALCAIDESA PLAYA, CONJ URB JARDINES DE ALCAIDESA","postal_code":"11300","places":6,"units":3,"registered":"2017-10-20","catastro":"1431101TF9113S0012ZU","holder":null,"holder_count":null}},{"type":"Feature","geometry":{"type":"Point","coordinates":[-5.320201,36.235767]},"properties":{"id":"VUT/CA/04126","type":"VUT","group":"Completa","address":"CALLE Las Colinas del Mar Nº 10 Portal 7 Plta/Piso 2 Pta/Letra 0 Compl.Dom. Alcaidesa - Ubr. Alcaidesa Village Golf - Playa - Edificio Mimosas, piso 2, puerta 0","postal_code":"11316","places":6,"units":3,"registered":"2017-11-15","catastro":"1728128TF9112N0042ME","holder":null,"holder_count":null}},{"type":"Feature","geometry":{"type":"Point","coordinates":[-5.318531,36.238961]},"properties":{"id":"VUT/CA/04883","type":"VUT","group":"Completa","address":"CALLE DE LOS JARDINES DE ESPAÑA Nº 6 Blq. 1 Esc. 2 Plta/Piso 2 Pta/Letra B Compl.Dom. RESIDENCIAL THE MEADOWS, ALCAIDESA, piso 2, puerta B","postal_code":"11315","places":5,"units":2,"registered":"2018-04-20","catastro":"1930130TF9113S0050ZP","holder":null,"holder_count":null}},{"type":"Feature","geometry":{"type":"Point","coordinates":[-5.321844,36.236242]},"properties":{"id":"VUT/CA/05080","type":"VUT","group":"Completa","address":"CALLE DE LAS COLINAS DEL MAR Blq. 2 Esc. 1 Pta/Letra 73, puerta 73","postal_code":"11316","places":8,"units":4,"registered":"2018-05-17","catastro":"1331103TF9113S0074XT","holder":null,"holder_count":null}},{"type":"Feature","geometry":{"type":"Point","coordinates":[-5.318057,36.241529]},"properties":{"id":"VUT/CA/05141","type":"VUT","group":"Completa","address":"CALLE RIBERA DE LA VEA Nº 3 Blq. 1 Portal 4 Plta/Piso ATICO Compl.Dom. URBANIZACIÓN BALCÓN DE AL ALCAIDESA, piso ATICO","postal_code":"11316","places":8,"units":3,"registered":"2018-05-23","catastro":"1335105TF9113N0025EO","holder":null,"holder_count":null}},{"type":"Feature","geometry":{"type":"Point","coordinates":[-5.321844,36.236242]},"properties":{"id":"VUT/CA/05154","type":"VUT","group":"Completa","address":"URBANIZACION LA CORONA Pta/Letra 41 Compl.Dom. LA ALCAIDESA, puerta 41","postal_code":"11316","places":10,"units":5,"registered":"2018-05-24","catastro":"1331103TF9113S0042XT","holder":null,"holder_count":null}},{"type":"Feature","geometry":{"type":"Point","coordinates":[-5.316135,36.234542]},"properties":{"id":"VUT/CA/05168","type":"VUT","group":"Completa","address":"CONJUNTO LOMA DEL REY, FASE I, VIVIENDA Nº 59 Compl.Dom. URBANIZACIÓN LA ALCAIDESA","postal_code":"11315","places":4,"units":2,"registered":"2018-05-25","catastro":"2128110TF9122N0051QD","holder":null,"holder_count":null}},{"type":"Feature","geometry":{"type":"Point","coordinates":[-5.351526,36.169152]},"properties":{"id":"VUT/CA/05374","type":"VUT","group":"Completa","address":"PASAJE ACACIAS Nº 1 Pta/Letra D, puerta D","postal_code":"11300","places":4,"units":2,"registered":"2018-06-18","catastro":"8654301TF8085S0004MQ","holder":null,"holder_count":null}},{"type":"Feature","geometry":{"type":"Point","coordinates":[-5.320544,36.237291]},"properties":{"id":"VUT/CA/05803","type":"VUT","group":"Por habitaciones","address":"CALLE LAS CAMELIAS Nº 30","postal_code":"11300","places":4,"units":1,"registered":"2018-08-21","catastro":"1728105TF9112N0001WB","holder":null,"holder_count":null}},{"type":"Feature","geometry":{"type":"Point","coordinates":[-5.320201,36.235767]},"properties":{"id":"VUT/CA/05864","type":"VUT","group":"Completa","address":"CALLE COLINAS DEL MAR Blq. 5 Pta/Letra 520 Compl.Dom. URBANIZACIÓN ALCAIDESA VILLAGE, EDIFICIO LAS MIMOSAS, ALCAIDESA, puerta 520","postal_code":"11316","places":8,"units":3,"registered":"2018-08-30","catastro":"1728128TF9112N0032HL","holder":null,"holder_count":null}},{"type":"Feature","geometry":{"type":"Point","coordinates":[-5.316135,36.234542]},"properties":{"id":"VUT/CA/05939","type":"VUT","group":"Completa","address":"CALLE DE LA NOBLEZA Nº - Calif.Nº 13A Pta/Letra 56 Compl.Dom. CONJUNTO INMOBILIARIO LOMA DEL REY, FASE 1, puerta 56","postal_code":"11316","places":6,"units":3,"registered":"2018-09-10","catastro":"2128110TF9122N0048QD","holder":null,"holder_count":null}},{"type":"Feature","geometry":{"type":"Point","coordinates":[-5.350077,36.192985]},"properties":{"id":"VUT/CA/05989","type":"VUT","group":"Por habitaciones","address":"CARRETERA DEL HIGUERON Nº 169","postal_code":"11300","places":4,"units":2,"registered":"2018-09-18","catastro":"8880302TF8088S0001YE","holder":null,"holder_count":null}},{"type":"Feature","geometry":{"type":"Point","coordinates":[-5.350965,36.164401]},"properties":{"id":"VUT/CA/06064","type":"VUT","group":"Completa","address":"CALLE GRANADA Nº 43","postal_code":"11300","places":2,"units":1,"registered":"2018-09-28","catastro":"8649502TF8084N0015GU","holder":null,"holder_count":null}},{"type":"Feature","geometry":{"type":"Point","coordinates":[-5.340296,36.161388]},"properties":{"id":"VUT/CA/06071","type":"VUT","group":"Por habitaciones","address":"AVENIDA de la banqueta Nº 93 Portal 1 Plta/Piso bajo Pta/Letra C, piso bajo, puerta C","postal_code":"11300","places":6,"units":4,"registered":"2018-09-30","catastro":"9646037TF8094N0030YB","holder":null,"holder_count":null}},{"type":"Feature","geometry":{"type":"Point","coordinates":[-5.319375,36.235112]},"properties":{"id":"VUT/CA/06160","type":"VUT","group":"Por habitaciones","address":"AVENIDA MEDITERRANEO Nº 2 Portal 30","postal_code":"11300","places":2,"units":1,"registered":"2018-10-17","catastro":"1728127TF9112N0030TJ","holder":null,"holder_count":null}},{"type":"Feature","geometry":{"type":"Point","coordinates":[-5.349237,36.15728]},"properties":{"id":"VUT/CA/06539","type":"VUT","group":"Por habitaciones","address":"POLIGONO san felipe Blq. 6 Plta/Piso 8 Pta/Letra B, piso 8, puerta B","postal_code":"11300","places":6,"units":4,"registered":"2018-12-19","catastro":"8841406TF8084S0023LB","holder":null,"holder_count":null}},{"type":"Feature","geometry":{"type":"Point","coordinates":[-5.322,36.239211]},"properties":{"id":"VUT/CA/06578","type":"VUT","group":"Completa","address":"CALLE PASAJE CORALES Nº 5","postal_code":"11316","places":12,"units":3,"registered":"2019-01-03","catastro":"1431156TF9113S0001TX","holder":null,"holder_count":null}},{"type":"Feature","geometry":{"type":"Point","coordinates":[-5.350965,36.164401]},"properties":{"id":"VUT/CA/06864","type":"VUT","group":"Completa","address":"CALLE GRANADA Nº 43 Plta/Piso 2 Pta/Letra E, piso 2, puerta E","postal_code":"11300","places":2,"units":1,"registered":"2019-02-13","catastro":"8649502TF8084N0015GU","holder":null,"holder_count":null}},{"type":"Feature","geometry":{"type":"Point","coordinates":[-5.34549,36.161954]},"properties":{"id":"VUT/CA/07173","type":"VUT","group":"Completa","address":"CALLE MERIDIANO Nº 2 Pta/Letra 2, puerta 2","postal_code":"11300","places":2,"units":1,"registered":"2019-04-22","catastro":"9246002TF8094N0002GQ","holder":null,"holder_count":null}},{"type":"Feature","geometry":{"type":"Point","coordinates":[-5.347342,36.163472]},"properties":{"id":"VUT/CA/07638","type":"VUT","group":"Completa","address":"CALLE SAN JOSÉ Nº 32 Pta/Letra 1, puerta 1","postal_code":"11300","places":4,"units":2,"registered":"2019-05-13","catastro":"8948611TF8084N0002AB","holder":"MAPESA RETAIL SL","holder_count":1}},{"type":"Feature","geometry":{"type":"Point","coordinates":[-5.31336,36.240061]},"properties":{"id":"VUT/CA/07641","type":"VUT","group":"Completa","address":"AVENIDA MEDITERRÁNEO Nº 4 Blq. 5 Plta/Piso 3 Pta/Letra A Compl.Dom. URBANIZACIÓN VISTA REAL, piso 3, puerta A","postal_code":"11316","places":8,"units":2,"registered":"2019-05-13","catastro":"2128164TF9122N0031HX","holder":null,"holder_count":null}},{"type":"Feature","geometry":{"type":"Point","coordinates":[-5.316135,36.234542]},"properties":{"id":"VUT/CA/07709","type":"VUT","group":"Completa","address":"RESIDENCIAL LA LOMA DEL REY Nº 63 Compl.Dom. URBANIZACIÓN LA ALCAIDESA","postal_code":"11315","places":8,"units":3,"registered":"2019-05-21","catastro":"2128110TF9122N0055TJ","holder":"GLOBAL TV PRODUCTIONS AS","holder_count":1}},{"type":"Feature","geometry":{"type":"Point","coordinates":[-5.313586,36.241208]},"properties":{"id":"VUT/CA/07780","type":"VUT","group":"Completa","address":"AVENIDA DEL MEDITERRANEO, S/N Blq. 9 Plta/Piso 3, piso 3","postal_code":"11316","places":6,"units":3,"registered":"2019-05-27","catastro":"2128165TF9122N0014FA","holder":"SOTOMERVAL 2009 SL","holder_count":1}},{"type":"Feature","geometry":{"type":"Point","coordinates":[-5.343625,36.162717]},"properties":{"id":"VUT/CA/07900","type":"VUT","group":"Completa","address":"CALLE GALILEO Nº 7 Plta/Piso 1, piso 1","postal_code":"11300","places":5,"units":3,"registered":"2019-06-06","catastro":"9247311TF8094N0001HM","holder":"HEREDEROS DE EMILIO SERRANO C.B.","holder_count":2}},{"type":"Feature","geometry":{"type":"Point","coordinates":[-5.343625,36.162717]},"properties":{"id":"VUT/CA/07902","type":"VUT","group":"Completa","address":"CALLE GALILEO Nº 7 Plta/Piso 2, piso 2","postal_code":"11300","places":4,"units":1,"registered":"2019-06-06","catastro":"9247311TF8094N0001HM","holder":"HEREDEROS DE EMILIO SERRANO C.B.","holder_count":2}},{"type":"Feature","geometry":{"type":"Point","coordinates":[-5.369445,36.16931]},"properties":{"id":"VUT/CA/08344","type":"VUT","group":"Completa","address":"AVENIDA ESPAÑA Nº 182 Blq. 2 Plta/Piso 2 Pta/Letra B, piso 2, puerta B","postal_code":"11300","places":3,"units":1,"registered":"2019-07-19","catastro":"7055001TF8075N0095MU","holder":null,"holder_count":null}},{"type":"Feature","geometry":{"type":"Point","coordinates":[-5.319921,36.239241]},"properties":{"id":"VUT/CA/08383","type":"VUT","group":"Completa","address":"CALLE JARDINES DE ESPAÑA Nº 7 Compl.Dom. CONJUNTO ADMIRALS CLOSE, URBANIZACIÓN ALCAIDESA","postal_code":"11300","places":6,"units":3,"registered":"2019-07-23","catastro":"1930129TF9113S0007AT","holder":null,"holder_count":null}},{"type":"Feature","geometry":{"type":"Point","coordinates":[-5.323157,36.236849]},"properties":{"id":"VUT/CA/08542","type":"VUT","group":"Completa","address":"CALLE Colinas del Mar Esc. 8 Plta/Piso 10 Pta/Letra 133 Compl.Dom. Urbanización \"Regency\", piso 10, puerta 133","postal_code":"11316","places":4,"units":1,"registered":"2019-08-12","catastro":"1331102TF9113S0145LA","holder":null,"holder_count":null}},{"type":"Feature","geometry":{"type":"Point","coordinates":[-5.320886,36.239979]},"properties":{"id":"VUT/CA/08555","type":"VUT","group":"Completa","address":"URBANIZACION LA ALCAIDESA PLAYA Nº 26 Compl.Dom. JARDINES DE LA ALCAIDESA","postal_code":"11300","places":6,"units":3,"registered":"2019-08-13","catastro":"1431101TF9113S0026OK","holder":null,"holder_count":null}},{"type":"Feature","geometry":{"type":"Point","coordinates":[-5.320886,36.239979]},"properties":{"id":"VUT/CA/08556","type":"VUT","group":"Completa","address":"AVENIDA DE LAS PALMERAS, URBANIZACIÓN ALCAIDESA PLAYA Nº 21 Compl.Dom. JARDINES DE ALCAIDESA","postal_code":"11300","places":6,"units":3,"registered":"2019-08-13","catastro":"1431101TF9113S0021RD","holder":null,"holder_count":null}},{"type":"Feature","geometry":{"type":"Point","coordinates":[-5.31336,36.240061]},"properties":{"id":"VUT/CA/08931","type":"VUT","group":"Completa","address":"AVENIDA DEL MEDITERRANEO Nº 16 Compl.Dom. ALCAIDESA - URB. VISTA REAL","postal_code":"11316","places":1,"units":3,"registered":"2019-10-22","catastro":"2128164TF9122N0016UD","holder":null,"holder_count":null}},{"type":"Feature","geometry":{"type":"Point","coordinates":[-5.322405,36.238798]},"properties":{"id":"VUT/CA/09085","type":"VUT","group":"Completa","address":"CALLE COLINAS DEL MAR Nº 58","postal_code":"11316","places":15,"units":4,"registered":"2019-11-05","catastro":"1431129TF9113S0001RX","holder":null,"holder_count":null}},{"type":"Feature","geometry":{"type":"Point","coordinates":[-5.344424,36.168074]},"properties":{"id":"VUT/CA/09087","type":"VUT","group":"Completa","address":"CALLE GIBRALTAR Nº 95 Portal 5 Plta/Piso 2 Pta/Letra D, piso 2, puerta D","postal_code":"11300","places":6,"units":3,"registered":"2019-11-06","catastro":"9253004TF8095S0028RM","holder":null,"holder_count":null}},{"type":"Feature","geometry":{"type":"Point","coordinates":[-5.342636,36.169705]},"properties":{"id":"VUT/CA/09094","type":"VUT","group":"Completa","address":"CALLE GIBRALTAR Nº 135 Plta/Piso 2 Pta/Letra H, piso 2, puerta H","postal_code":"11300","places":4,"units":2,"registered":"2019-11-08","catastro":"95570B1TF8095N0027YF","holder":"INVERSIONES PUERTAS Y ALEMAN SL","holder_count":1}},{"type":"Feature","geometry":{"type":"Point","coordinates":[-5.369445,36.16931]},"properties":{"id":"VUT/CA/09213","type":"VUT","group":"Completa","address":"AVENIDA ESPAÑA Nº 182 Blq. 3 Plta/Piso 13 Pta/Letra A, piso 13, puerta A","postal_code":"11300","places":6,"units":3,"registered":"2019-11-20","catastro":"7055001TF8075N0076PJ","holder":null,"holder_count":null}},{"type":"Feature","geometry":{"type":"Point","coordinates":[-5.369445,36.16931]},"properties":{"id":"VUT/CA/09580","type":"VUT","group":"Completa","address":"AVENIDA Avenida de Espana Nº 182 Blq. 3 Portal 3 Plta/Piso 12 Pta/Letra E Compl.Dom. MIRAMAR DEL PRINCIPE, piso 12, puerta E","postal_code":"11300","places":5,"units":2,"registered":"2020-01-06","catastro":"7055001TF8075N0074IG","holder":null,"holder_count":null}},{"type":"Feature","geometry":{"type":"Point","coordinates":[-5.321414,36.239168]},"properties":{"id":"VUT/CA/09633","type":"VUT","group":"Completa","address":"PASAJE CORALES Nº 2","postal_code":"11316","places":10,"units":4,"registered":"2020-01-15","catastro":"1431160TF9113S0001FX","holder":null,"holder_count":null}},{"type":"Feature","geometry":{"type":"Point","coordinates":[-5.322675,36.238905]},"properties":{"id":"VUT/CA/09671","type":"VUT","group":"Completa","address":"AVENIDA URBANIZACION LA ALCAIDESA AVENIDA COLINAS DEL MAR Nº 9","postal_code":"11316","places":10,"units":5,"registered":"2020-01-20","catastro":"1431180TF9113S0001WX","holder":null,"holder_count":null}},{"type":"Feature","geometry":{"type":"Point","coordinates":[-5.31336,36.240061]},"properties":{"id":"VUT/CA/09759","type":"VUT","group":"Completa","address":"URBANIZACION ALCAIDESA Blq. 4 Portal D Plta/Piso BJO Pta/Letra A, piso BJO, puerta A","postal_code":"11300","places":6,"units":3,"registered":"2020-01-27","catastro":"2128164TF9122N0017IF","holder":null,"holder_count":null}},{"type":"Feature","geometry":{"type":"Point","coordinates":[-5.316135,36.234542]},"properties":{"id":"VUT/CA/09915","type":"VUT","group":"Completa","address":"AVENIDA DE LA NOBLEZA Nº 12 Compl.Dom. CASA 8 URBANIZACION LOMA DEL REY (LA ALCAIDESA)","postal_code":"11316","places":7,"units":2,"registered":"2020-02-11","catastro":"2128110TF9122N0008LI","holder":null,"holder_count":null}},{"type":"Feature","geometry":{"type":"Point","coordinates":[-5.320201,36.235767]},"properties":{"id":"VUT/CA/09947","type":"VUT","group":"Completa","address":"URBANIZACION AMPOLA 1 Nº 120","postal_code":"11300","places":8,"units":4,"registered":"2020-02-13","catastro":"1728128TF9112N0006XW","holder":null,"holder_count":null}},{"type":"Feature","geometry":{"type":"Point","coordinates":[-5.331571,36.244027]},"properties":{"id":"VUT/CA/10081","type":"VUT","group":"Completa","address":"CALLE CORTIJO DE LOS AGUZADERAS Blq. 6 Portal 12 Plta/Piso 2 Pta/Letra B Compl.Dom. URBANIZACION ALCAIDESA SUITES GOLF AND GARDENS, piso 2, puerta B","postal_code":"11300","places":5,"units":2,"registered":"2020-03-02","catastro":"0537601TF9103N0114OM","holder":null,"holder_count":null}},{"type":"Feature","geometry":{"type":"Point","coordinates":[-5.317329,36.238855]},"properties":{"id":"VUT/CA/10354","type":"VUT","group":"Completa","address":"PASAJE Los gladiolos Nº 2 Compl.Dom. Urbanizacion Alamar","postal_code":"11316","places":8,"units":4,"registered":"2020-05-04","catastro":"2032135TF9123S0002DR","holder":null,"holder_count":null}},{"type":"Feature","geometry":{"type":"Point","coordinates":[-5.369445,36.16931]},"properties":{"id":"VUT/CA/10390","type":"VUT","group":"Completa","address":"AVENIDA España Blq. 2 Plta/Piso 14 Pta/Letra C Compl.Dom. Crtra Nacional 340, piso 14, puerta C","postal_code":"11300","places":4,"units":1,"registered":"2020-05-19","catastro":"7055001TF8075N0186BR","holder":null,"holder_count":null}},{"type":"Feature","geometry":{"type":"Point","coordinates":[-5.348834,36.157236]},"properties":{"id":"VUT/CA/10541","type":"VUT","group":"Por habitaciones","address":"POLIGONO san felipe Portal 10 Plta/Piso 6 Pta/Letra b, piso 6, puerta b","postal_code":"11300","places":6,"units":4,"registered":"2020-06-18","catastro":"8841409TF8084S0019XL","holder":"DURMIENDO EN LA CALLE SL","holder_count":1}},{"type":"Feature","geometry":{"type":"Point","coordinates":[-5.369445,36.16931]},"properties":{"id":"VUT/CA/10662","type":"VUT","group":"Completa","address":"AVENIDA Avenida de Espana Nº 182 Blq. 2 Portal 2 Plta/Piso 14 Pta/Letra 01, piso 14, puerta 01","postal_code":"11300","places":5,"units":2,"registered":"2020-07-01","catastro":"7055001TF8075N0184KW","holder":null,"holder_count":null}},{"type":"Feature","geometry":{"type":"Point","coordinates":[-5.348647,36.157616]},"properties":{"id":"VUT/CA/11127","type":"VUT","group":"Completa","address":"BARRIADA CASTILLO DEL PRINCIPE Nº 12 Plta/Piso 5 Pta/Letra A, piso 5, puerta A","postal_code":"11300","places":7,"units":4,"registered":"2020-11-03","catastro":"8841412TF8084S0015KG","holder":null,"holder_count":null}},{"type":"Feature","geometry":{"type":"Point","coordinates":[-5.369445,36.16931]},"properties":{"id":"VUT/CA/11171","type":"VUT","group":"Completa","address":"AVENIDA España Nº 182 Blq. 2 Plta/Piso 12 Pta/Letra B, piso 12, puerta B","postal_code":"11300","places":2,"units":1,"registered":"2020-11-24","catastro":"7055001TF8075N0171IG","holder":null,"holder_count":null}},{"type":"Feature","geometry":{"type":"Point","coordinates":[-5.323157,36.236849]},"properties":{"id":"VUT/CA/11172","type":"VUT","group":"Completa","address":"CALLE PLAYA REGENCY Nº 021 Blq. 02 Plta/Piso 01 Compl.Dom. LA ALCAIDESA, piso 01","postal_code":"11300","places":6,"units":2,"registered":"2020-11-24","catastro":"1331102TF9113S0054XF","holder":null,"holder_count":null}},{"type":"Feature","geometry":{"type":"Point","coordinates":[-5.316641,36.239802]},"properties":{"id":"VUT/CA/11606","type":"VUT","group":"Completa","address":"CALLE DE LAS PETUNIAS Nº 21","postal_code":"11315","places":8,"units":4,"registered":"2021-04-14","catastro":"1930101TF9113S0009XU","holder":null,"holder_count":null}},{"type":"Feature","geometry":{"type":"Point","coordinates":[-5.3197,36.23694]},"properties":{"id":"VUT/CA/11801","type":"VUT","group":"Por habitaciones","address":"CALLE Las Camelias Nº 26","postal_code":"11316","places":5,"units":2,"registered":"2021-05-14","catastro":"1728109TF9112N0001GB","holder":null,"holder_count":null}},{"type":"Feature","geometry":{"type":"Point","coordinates":[-5.348444,36.164145]},"properties":{"id":"VUT/CA/12136","type":"VUT","group":"Completa","address":"CALLE TEATRO Portal 2 Plta/Piso 2 Pta/Letra D, piso 2, puerta D","postal_code":"11300","places":6,"units":3,"registered":"2021-06-15","catastro":"8849804TF8084N0014TY","holder":null,"holder_count":null}},{"type":"Feature","geometry":{"type":"Point","coordinates":[-5.365678,36.16754]},"properties":{"id":"VUT/CA/12846","type":"VUT","group":"Completa","address":"AVENIDA de Espana Nº 146 Compl.Dom. Chalet","postal_code":"11300","places":2,"units":1,"registered":"2021-10-07","catastro":"7455006TF8075N0001GO","holder":null,"holder_count":null}},{"type":"Feature","geometry":{"type":"Point","coordinates":[-5.369445,36.16931]},"properties":{"id":"VUT/CA/13087","type":"VUT","group":"Completa","address":"AVENIDA ESPAÑA 182 Blq. 2 Plta/Piso 12 Pta/Letra A, piso 12, puerta A","postal_code":"11300","places":2,"units":1,"registered":"2021-11-30","catastro":"7055001tf8075n0170uf","holder":null,"holder_count":null}},{"type":"Feature","geometry":{"type":"Point","coordinates":[-5.31336,36.240061]},"properties":{"id":"VUT/CA/13733","type":"VUT","group":"Completa","address":"AVENIDA del Mediterráneo Blq. 6 Plta/Piso Bajo Pta/Letra B Compl.Dom. Urbanización Vista Real. La Alcaidesa., piso Bajo, puerta B","postal_code":"11316","places":6,"units":3,"registered":"2022-03-20","catastro":"2128164TF9122N0034LW","holder":null,"holder_count":null}},{"type":"Feature","geometry":{"type":"Point","coordinates":[-5.321881,36.239468]},"properties":{"id":"VUT/CA/13863","type":"VUT","group":"Completa","address":"CALLE PASAJE LOS CORALES Nº 7","postal_code":"11316","places":15,"units":4,"registered":"2022-04-04","catastro":"1431154TF9113S0001PX","holder":null,"holder_count":null}},{"type":"Feature","geometry":{"type":"Point","coordinates":[-5.318531,36.238961]},"properties":{"id":"VUT/CA/14080","type":"VUT","group":"Completa","address":"CALLE Jardines de España Nº 8 Compl.Dom. Urbanización The Meadows","postal_code":"11316","places":11,"units":3,"registered":"2022-04-29","catastro":"1930130TF9113S0009KU","holder":null,"holder_count":null}},{"type":"Feature","geometry":{"type":"Point","coordinates":[-5.320201,36.235767]},"properties":{"id":"VUT/CA/14188","type":"VUT","group":"Completa","address":"CONJUNTO ALCAIDESA VILLAGE GOLFPLAYA, EDIF. MIMOSAS Blq. 6 Plta/Piso BAJ Pta/Letra 0, piso BAJ, puerta 0","postal_code":"11315","places":6,"units":3,"registered":"2022-05-10","catastro":"1728128TF9112N0033JB","holder":null,"holder_count":null}},{"type":"Feature","geometry":{"type":"Point","coordinates":[-5.34915,36.156724]},"properties":{"id":"VUT/CA/14245","type":"VUT","group":"Completa","address":"POLIGONO SAN FELIPE Blq. 3 Plta/Piso 2 Pta/Letra A, piso 2, puerta A","postal_code":"11300","places":6,"units":3,"registered":"2022-05-15","catastro":"8841403TF8084S0007TP","holder":null,"holder_count":null}},{"type":"Feature","geometry":{"type":"Point","coordinates":[-5.369445,36.16931]},"properties":{"id":"VUT/CA/14282","type":"VUT","group":"Completa","address":"AVENIDA ESPAÑA Nº 182 Blq. 1 Plta/Piso 5 Pta/Letra a, piso 5, puerta a","postal_code":"11300","places":4,"units":1,"registered":"2022-05-17","catastro":"7055001TF8075N0015DB","holder":null,"holder_count":null}},{"type":"Feature","geometry":{"type":"Point","coordinates":[-5.369445,36.16931]},"properties":{"id":"VUT/CA/14325","type":"VUT","group":"Completa","address":"AVENIDA España Nº 182 Blq. 2 Plta/Piso 5 Pta/Letra 10, piso 5, puerta 10","postal_code":"11300","places":2,"units":1,"registered":"2022-05-21","catastro":"7055001TF8075N0117KW","holder":null,"holder_count":null}},{"type":"Feature","geometry":{"type":"Point","coordinates":[-5.318655,36.240868]},"properties":{"id":"VUT/CA/14336","type":"VUT","group":"Completa","address":"CALLE JARDINES DE ESPAÑA Nº 21 Compl.Dom. URBANIZACIÓN LA VILLA, LA ALCAIDESA","postal_code":"11316","places":8,"units":4,"registered":"2022-05-23","catastro":"1732101TF9113S0022OF","holder":null,"holder_count":null}},{"type":"Feature","geometry":{"type":"Point","coordinates":[-5.323157,36.236849]},"properties":{"id":"VUT/CA/14415","type":"VUT","group":"Completa","address":"CALLE COLINAS DEL MAR S/N Plta/Piso 1 Pta/Letra 117 Compl.Dom. URBANIZACIÓN REGENCY, piso 1, puerta 117","postal_code":"11316","places":3,"units":1,"registered":"2022-05-27","catastro":"1331102TF9113S0131IM","holder":null,"holder_count":null}},{"type":"Feature","geometry":{"type":"Point","coordinates":[-5.365678,36.16754]},"properties":{"id":"VUT/CA/14517","type":"VUT","group":"Completa","address":"AVENIDA DE ESPANA Nº 146","postal_code":"11300","places":6,"units":2,"registered":"2022-06-03","catastro":"7455006TF8075N0001GO","holder":null,"holder_count":null}},{"type":"Feature","geometry":{"type":"Point","coordinates":[-5.331571,36.244027]},"properties":{"id":"VUT/CA/14644","type":"VUT","group":"Completa","address":"CALLE CORTIJO DE LAS AGUZADERAS, URB. ALCAIDESA SUITE Blq. 6 Portal 11 Plta/Piso BJ Pta/Letra B, piso BJ, puerta B","postal_code":"11300","places":4,"units":2,"registered":"2022-06-13","catastro":"0537601TF9103N0096KO","holder":null,"holder_count":null}},{"type":"Feature","geometry":{"type":"Point","coordinates":[-5.319563,36.239887]},"properties":{"id":"VUT/CA/14791","type":"VUT","group":"Completa","address":"CALLE DE LOS JARDINES DE ESPAÑA Nº 2 Pta/Letra 1 Compl.Dom. EDIFICIO EL MIRADOR DE LA ALCAIDESA, puerta 1","postal_code":"11316","places":4,"units":2,"registered":"2022-06-22","catastro":"1632105TF9113S0002HM","holder":null,"holder_count":null}},{"type":"Feature","geometry":{"type":"Point","coordinates":[-5.369445,36.16931]},"properties":{"id":"VUT/CA/14992","type":"VUT","group":"Completa","address":"AVENIDA ESPAÑA Nº 182 Blq. 1 Plta/Piso 4 Pta/Letra A, piso 4, puerta A","postal_code":"11300","places":2,"units":1,"registered":"2022-07-06","catastro":"7055001TF8075N0108SL","holder":null,"holder_count":null}},{"type":"Feature","geometry":{"type":"Point","coordinates":[-5.366901,36.167957]},"properties":{"id":"VUT/CA/15006","type":"VUT","group":"Completa","address":"CALLE FRANCISCO DE VITORIA Nº 5","postal_code":"11300","places":10,"units":5,"registered":"2022-07-08","catastro":"7253407TF8075S0003WL","holder":null,"holder_count":null}},{"type":"Feature","geometry":{"type":"Point","coordinates":[-5.347284,36.164545]},"properties":{"id":"VUT/CA/15090","type":"VUT","group":"Completa","address":"CALLE San Jose Nº 29 Plta/Piso 2 Pta/Letra B, piso 2, puerta B","postal_code":"11300","places":4,"units":2,"registered":"2022-07-14","catastro":"8949604TF8084N0009PR","holder":null,"holder_count":null}},{"type":"Feature","geometry":{"type":"Point","coordinates":[-5.31336,36.240061]},"properties":{"id":"VUT/CA/15284","type":"VUT","group":"Completa","address":"URBANIZACION ALCALDESA Blq. 2 Portal B Plta/Piso BAJA Pta/Letra A10, piso BAJA, puerta A10","postal_code":"11300","places":6,"units":3,"registered":"2022-08-05","catastro":"2128164TF9122N0010QU","holder":null,"holder_count":null}},{"type":"Feature","geometry":{"type":"Point","coordinates":[-5.315093,36.239885]},"properties":{"id":"VUT/CA/15366","type":"VUT","group":"Completa","address":"CALLE PETUNIAS Nº 3 Blq. 10 Plta/Piso 00 Pta/Letra 26, piso 00, puerta 26","postal_code":"11300","places":6,"units":2,"registered":"2022-08-16","catastro":"1930176TF9113S0026DK","holder":null,"holder_count":null}},{"type":"Feature","geometry":{"type":"Point","coordinates":[-5.315801,36.234475]},"properties":{"id":"VUT/CA/15510","type":"VUT","group":"Completa","address":"CALLE de la Nobleza Nº 72 Compl.Dom. Urb. Loma del Rey","postal_code":"11316","places":8,"units":3,"registered":"2022-09-12","catastro":"2128110tf9122n0063px","holder":null,"holder_count":null}},{"type":"Feature","geometry":{"type":"Point","coordinates":[-5.323157,36.236849]},"properties":{"id":"VUT/CA/15574","type":"VUT","group":"Completa","address":"CONJUNTO URBANÍSTICO REGENCY, APARTAMENTO Nº 43 Blq. 3 Compl.Dom. ALCAIDESA PLAYA","postal_code":"11316","places":4,"units":2,"registered":"2022-09-19","catastro":"1331102TF9113S0067OQ","holder":null,"holder_count":null}},{"type":"Feature","geometry":{"type":"Point","coordinates":[-5.31535,36.2374]},"properties":{"id":"VUT/CA/15586","type":"VUT","group":"Completa","address":"CALLE CAMINO DE LAS AMAPOLAS 1 Nº 1 Compl.Dom. ALCAIDESA, LA LINEA (CADIZ).","postal_code":"11316","places":1,"units":6,"registered":"2022-09-20","catastro":"1930104TF9113S0001KX","holder":null,"holder_count":null}},{"type":"Feature","geometry":{"type":"Point","coordinates":[-5.366901,36.167957]},"properties":{"id":"VUT/CA/15625","type":"VUT","group":"Por habitaciones","address":"CALLE Francisco de Vitoria Nº 5","postal_code":"11300","places":6,"units":4,"registered":"2022-09-26","catastro":"7253407TF8075S0003WL","holder":null,"holder_count":null}},{"type":"Feature","geometry":{"type":"Point","coordinates":[-5.3599,36.164841]},"properties":{"id":"VUT/CA/15868","type":"VUT","group":"Por habitaciones","address":"AVENIDA España Nº 104 Blq. 104 Portal 104 Plta/Piso 3 Pta/Letra A, piso 3, puerta A","postal_code":"11300","places":6,"units":4,"registered":"2022-11-15","catastro":"7850702TF8075S0005MZ","holder":null,"holder_count":null}},{"type":"Feature","geometry":{"type":"Point","coordinates":[-5.31473,36.24027]},"properties":{"id":"VUT/CA/15951","type":"VUT","group":"Completa","address":"CALLE DE LAS PETUNIAS Nº 3 Blq. 4 Portal 10 Esc. 4 Pta/Letra 10, puerta 10","postal_code":"11316","places":5,"units":2,"registered":"2022-11-28","catastro":"1930174TF9113S0010TT","holder":null,"holder_count":null}},{"type":"Feature","geometry":{"type":"Point","coordinates":[-5.342636,36.169705]},"properties":{"id":"VUT/CA/16219","type":"VUT","group":"Completa","address":"CALLE GIBRALTAR Nº 135 Plta/Piso 1 Pta/Letra F, piso 1, puerta F","postal_code":"11300","places":4,"units":1,"registered":"2023-01-25","catastro":"95570B1TF8095N0021MI","holder":"INVERSIONES PUERTAS Y ALEMAN, S.L.","holder_count":1}},{"type":"Feature","geometry":{"type":"Point","coordinates":[-5.346652,36.161053]},"properties":{"id":"VUT/CA/16341","type":"VUT","group":"Completa","address":"AVENIDA de la Banqueta Nº 6 Plta/Piso 8 Pta/Letra C, piso 8, puerta C","postal_code":"11300","places":3,"units":3,"registered":"2023-02-07","catastro":"9045002TF8094N0041UT","holder":null,"holder_count":null}},{"type":"Feature","geometry":{"type":"Point","coordinates":[-5.323157,36.236849]},"properties":{"id":"VUT/CA/16614","type":"VUT","group":"Completa","address":"URBANIZACION REGENCY Nº 24","postal_code":"11300","places":6,"units":2,"registered":"2023-03-06","catastro":"1331102TF9113S0051LA","holder":null,"holder_count":null}},{"type":"Feature","geometry":{"type":"Point","coordinates":[-5.342636,36.169705]},"properties":{"id":"VUT/CA/17238","type":"VUT","group":"Completa","address":"CALLE GIBRALTAR Nº 135 Plta/Piso 4 Pta/Letra F, piso 4, puerta F","postal_code":"11300","places":6,"units":2,"registered":"2023-04-26","catastro":"95570B1TF8095N0033OJ","holder":null,"holder_count":null}},{"type":"Feature","geometry":{"type":"Point","coordinates":[-5.342636,36.169705]},"properties":{"id":"VUT/CA/17245","type":"VUT","group":"Completa","address":"CALLE GIBRALTAR Nº 135 Plta/Piso 0 Pta/Letra A, piso 0, puerta A","postal_code":"11300","places":4,"units":1,"registered":"2023-04-26","catastro":"95570B1TF8095N0016ZY","holder":null,"holder_count":null}},{"type":"Feature","geometry":{"type":"Point","coordinates":[-5.323157,36.236849]},"properties":{"id":"VUT/CA/17373","type":"VUT","group":"Completa","address":"CALLE COLINAS DEL MAR, ALCAIDESA Nº S/N Blq. 6 Pta/Letra 88 Compl.Dom. URBANIZACION REGENCY, puerta 88","postal_code":"11316","places":4,"units":2,"registered":"2023-05-04","catastro":"1331102TF9113S0106GU","holder":null,"holder_count":null}},{"type":"Feature","geometry":{"type":"Point","coordinates":[-5.342636,36.169705]},"properties":{"id":"VUT/CA/17421","type":"VUT","group":"Completa","address":"CALLE GIBRALTAR Nº 135 Plta/Piso 2 Pta/Letra F, piso 2, puerta F","postal_code":"11300","places":6,"units":2,"registered":"2023-05-08","catastro":"95570B1TF8095N0025RS","holder":null,"holder_count":null}},{"type":"Feature","geometry":{"type":"Point","coordinates":[-5.342636,36.169705]},"properties":{"id":"VUT/CA/17422","type":"VUT","group":"Completa","address":"CALLE GIBRALTAR Nº 135 Plta/Piso 0 Pta/Letra B, piso 0, puerta B","postal_code":"11300","places":6,"units":2,"registered":"2023-05-08","catastro":"95570B1TF8095N0017XU","holder":null,"holder_count":null}},{"type":"Feature","geometry":{"type":"Point","coordinates":[-5.321844,36.236242]},"properties":{"id":"VUT/CA/17615","type":"VUT","group":"Completa","address":"CALLE Colinas Del Mar Nº 10 Plta/Piso 56 Compl.Dom. Alcaidesa, piso 56","postal_code":"11316","places":15,"units":6,"registered":"2023-05-22","catastro":"1331103TF9113S0057AJ","holder":null,"holder_count":null}},{"type":"Feature","geometry":{"type":"Point","coordinates":[-5.349378,36.160572]},"properties":{"id":"VUT/CA/17765","type":"VUT","group":"Completa","address":"CALLE LUTGARDO LOPEZ MUÑOZ Nº 6","postal_code":"11300","places":4,"units":2,"registered":"2023-06-01","catastro":"8845010TF8084N0001HL","holder":null,"holder_count":null}},{"type":"Feature","geometry":{"type":"Point","coordinates":[-5.356923,36.16632]},"properties":{"id":"VUT/CA/17838","type":"VUT","group":"Completa","address":"CALLE andalucia Nº 6 Plta/Piso Atico, piso Atico","postal_code":"11300","places":3,"units":2,"registered":"2023-06-06","catastro":"8151101TF8085S0045MU","holder":null,"holder_count":null}},{"type":"Feature","geometry":{"type":"Point","coordinates":[-5.348754,36.157194]},"properties":{"id":"VUT/CA/17843","type":"VUT","group":"Por habitaciones","address":"POLIGONO SAN FELIPE Nº 1B Blq. 10","postal_code":"11300","places":6,"units":3,"registered":"2023-06-06","catastro":"8841409TF8084S0004PU","holder":null,"holder_count":null}},{"type":"Feature","geometry":{"type":"Point","coordinates":[-5.361124,36.166884]},"properties":{"id":"VUT/CA/18352","type":"VUT","group":"Completa","address":"CALLE GUADALAJARA Nº 12 Plta/Piso 1 Pta/Letra A Compl.Dom. CALLE ANDALUCIA 57 Nº 5, piso 1, puerta A","postal_code":"11300","places":4,"units":3,"registered":"2023-07-13","catastro":"7752503TF8075S0016RY","holder":null,"holder_count":null}},{"type":"Feature","geometry":{"type":"Point","coordinates":[-5.342736,36.165376]},"properties":{"id":"VUT/CA/18436","type":"VUT","group":"Completa","address":"CALLE PINZONES Nº 47 Plta/Piso BAJO, piso BAJO","postal_code":"11300","places":6,"units":3,"registered":"2023-07-21","catastro":"9351015TF8095S0006LU","holder":"GESTIONES PROYECTOS Y SERVIVIOS GENERALES ANDALUCES","holder_count":1}},{"type":"Feature","geometry":{"type":"Point","coordinates":[-5.369445,36.16931]},"properties":{"id":"VUT/CA/18624","type":"VUT","group":"Completa","address":"AVENIDA ESPAÑA Nº 182 Esc. 1 Plta/Piso 7 Pta/Letra E Compl.Dom. RESIDENCIAL MIRAMAR DEL PRINCIPE, piso 7, puerta E","postal_code":"11300","places":4,"units":1,"registered":"2023-08-11","catastro":"7055001TF8075N0021HM","holder":null,"holder_count":null}},{"type":"Feature","geometry":{"type":"Point","coordinates":[-5.31336,36.240061]},"properties":{"id":"VUT/CA/18677","type":"VUT","group":"Completa","address":"AVENIDA Del Mediterraneo Blq. 4 Plta/Piso 1 Pta/Letra A Compl.Dom. Urbanización Vista Real Alcaidesa, piso 1, puerta A","postal_code":"11316","places":4,"units":2,"registered":"2023-08-22","catastro":"2128164TF9122N0019PH","holder":"Asesoria de consumo y sanidad sl","holder_count":1}},{"type":"Feature","geometry":{"type":"Point","coordinates":[-5.345221,36.212937]},"properties":{"id":"VUT/CA/18793","type":"VUT","group":"Completa","address":"CALLE urbanizacion vista hermosa Blq. 132 Plta/Piso bajo Pta/Letra d, piso bajo, puerta d","postal_code":"11300","places":6,"units":3,"registered":"2023-09-11","catastro":"9303101tf8190s0363fz","holder":null,"holder_count":null}},{"type":"Feature","geometry":{"type":"Point","coordinates":[-5.340365,36.161395]},"properties":{"id":"VUT/CA/18871","type":"VUT","group":"Completa","address":"AVENIDA de la banqueta Nº 93 Portal 1 Plta/Piso bajo Pta/Letra C, piso bajo, puerta C","postal_code":"11300","places":6,"units":2,"registered":"2023-09-27","catastro":"9646037TF8094N0030YB","holder":null,"holder_count":null}},{"type":"Feature","geometry":{"type":"Point","coordinates":[-5.323157,36.236849]},"properties":{"id":"VUT/CA/18984","type":"VUT","group":"Completa","address":"CALLE COLINAS DEL MAR Nº 128 Compl.Dom. URBANIZACION REGENCY","postal_code":"11360","places":4,"units":2,"registered":"2023-10-24","catastro":"1331102TF9113S0141GU","holder":null,"holder_count":null}},{"type":"Feature","geometry":{"type":"Point","coordinates":[-5.319592,36.237496]},"properties":{"id":"VUT/CA/19130","type":"VUT","group":"Completa","address":"CAMINO DE LA MEJORANA Nº 8-42 Compl.Dom. URBANIZACION LA ALCAIDESA PLAYA","postal_code":"11316","places":8,"units":4,"registered":"2023-11-17","catastro":"1930164TF9113S0001TX","holder":null,"holder_count":null}},{"type":"Feature","geometry":{"type":"Point","coordinates":[-5.367686,36.168796]},"properties":{"id":"VUT/CA/19160","type":"VUT","group":"Por habitaciones","address":"CALLE Terraza Nº 4 Esc. 1 Plta/Piso 2 Pta/Letra B, piso 2, puerta B","postal_code":"11300","places":5,"units":2,"registered":"2023-11-24","catastro":"7255002TF8075N0068ZS","holder":null,"holder_count":null}},{"type":"Feature","geometry":{"type":"Point","coordinates":[-5.320201,36.235767]},"properties":{"id":"VUT/CA/19187","type":"VUT","group":"Completa","address":"CALLE COLINAS DEL MAR Nº 10 Calif.Nº A Plta/Piso ATICO Pta/Letra 1130 Compl.Dom. ALCAIDESA VILLAGE GOLF PLAYA, EDIFICIO ROSAL 11, piso ATICO, puerta 1130","postal_code":"11316","places":6,"units":3,"registered":"2023-11-30","catastro":"1728128TF9112N0070LX","holder":null,"holder_count":null}},{"type":"Feature","geometry":{"type":"Point","coordinates":[-5.367438,36.168165]},"properties":{"id":"VUT/CA/19191","type":"VUT","group":"Completa","address":"AVENIDA España Nº 170","postal_code":"11300","places":8,"units":4,"registered":"2023-11-30","catastro":"7154801TF8075S0001ZJ","holder":null,"holder_count":null}},{"type":"Feature","geometry":{"type":"Point","coordinates":[-5.359422,36.164985]},"properties":{"id":"VUT/CA/19228","type":"VUT","group":"Completa","address":"CALLE BILBAO Nº 8","postal_code":"11300","places":5,"units":3,"registered":"2023-12-11","catastro":"7850905tf8075s0001ij","holder":null,"holder_count":null}},{"type":"Feature","geometry":{"type":"Point","coordinates":[-5.347548,36.16612]},"properties":{"id":"VUT/CA/19299","type":"VUT","group":"Completa","address":"CALLE CLAVEL Nº 63 Plta/Piso 2 Pta/Letra A, piso 2, puerta A","postal_code":"11300","places":2,"units":2,"registered":"2023-12-21","catastro":"8951306TF8085S0004YQ","holder":null,"holder_count":null}},{"type":"Feature","geometry":{"type":"Point","coordinates":[-5.323157,36.236849]},"properties":{"id":"VUT/CA/19339","type":"VUT","group":"Completa","address":"CONJUNTO REGENCY Nº 48 Blq. 3 Esc. 3 Plta/Piso 1, piso 1","postal_code":"11315","places":8,"units":2,"registered":"2024-01-02","catastro":"1331102TF9113S0071PW","holder":"BEST IN CLASS PROFESSIONAL SERVICES SL","holder_count":1}},{"type":"Feature","geometry":{"type":"Point","coordinates":[-5.331571,36.244027]},"properties":{"id":"VUT/CA/19610","type":"VUT","group":"Completa","address":"CALLE Alcaidesa Suites Golf and Gardens, Calle Cortijo de aguzaderas Nº 5 Blq. 10 Portal 1 Plta/Piso PBJ Pta/Letra 0004, piso PBJ, puerta 0004","postal_code":"11300","places":4,"units":2,"registered":"2024-02-01","catastro":"0537601TF9103N0005MF","holder":null,"holder_count":null}},{"type":"Feature","geometry":{"type":"Point","coordinates":[-5.31336,36.240061]},"properties":{"id":"VUT/CA/19808","type":"VUT","group":"Completa","address":"AVENIDA DE MEDITERRANEO Nº 4 Calif.Nº A Esc. 8 Plta/Piso 1 Pta/Letra A, piso 1, puerta A","postal_code":"11300","places":6,"units":2,"registered":"2024-02-23","catastro":"2128164TF9122N0049IF","holder":"POLARIS NETWORK ESPAÑA SL","holder_count":1}},{"type":"Feature","geometry":{"type":"Point","coordinates":[-5.339406,36.161177]},"properties":{"id":"VUT/CA/19913","type":"VUT","group":"Completa","address":"AVENIDA DE LA BANQUETA Nº 14 Plta/Piso 3 Pta/Letra 1, piso 3, puerta 1","postal_code":"11300","places":6,"units":3,"registered":"2024-03-08","catastro":"9545005TF8094N0072HR","holder":null,"holder_count":null}},{"type":"Feature","geometry":{"type":"Point","coordinates":[-5.323157,36.236849]},"properties":{"id":"VUT/CA/19918","type":"VUT","group":"Completa","address":"CALLE Colinas Del Mar Nº S/N Blq. 8 Plta/Piso -3 Pta/Letra 121 Compl.Dom. Urbanization Regency, piso -3, puerta 121","postal_code":"11316","places":4,"units":1,"registered":"2024-03-09","catastro":"1331102TF9113S0135SR","holder":null,"holder_count":null}},{"type":"Feature","geometry":{"type":"Point","coordinates":[-5.31336,36.240061]},"properties":{"id":"VUT/CA/20148","type":"VUT","group":"Completa","address":"AVENIDA DEL MEDITERRANEO Nº 4 Esc. 1 Plta/Piso 0 Pta/Letra 3, piso 0, puerta 3","postal_code":"11360","places":6,"units":3,"registered":"2024-04-02","catastro":"2128164TF9122N0003BE","holder":null,"holder_count":null}},{"type":"Feature","geometry":{"type":"Point","coordinates":[-5.334025,36.191938]},"properties":{"id":"VUT/CA/20254","type":"VUT","group":"Completa","address":"CALLE EL PUZZLE Nº 8","postal_code":"11300","places":8,"units":3,"registered":"2024-04-11","catastro":"0080004TF9008S0001KY","holder":null,"holder_count":null}},{"type":"Feature","geometry":{"type":"Point","coordinates":[-5.342796,36.164707]},"properties":{"id":"VUT/CA/20280","type":"VUT","group":"Completa","address":"PASAJE ESPRONCEDA Nº 45 Esc. 4 Plta/Piso 00 Pta/Letra A, piso 00, puerta A","postal_code":"11300","places":6,"units":3,"registered":"2024-04-15","catastro":"9349212TF8094N0009II","holder":null,"holder_count":null}},{"type":"Feature","geometry":{"type":"Point","coordinates":[-5.347759,36.165024]},"properties":{"id":"VUT/CA/20344","type":"VUT","group":"Completa","address":"CALLE CLAVEL Nº 53 Blq. 2 Plta/Piso 2 Pta/Letra G, piso 2, puerta G","postal_code":"11300","places":4,"units":2,"registered":"2024-04-19","catastro":"8950701TF8085S0024OG","holder":null,"holder_count":null}},{"type":"Feature","geometry":{"type":"Point","coordinates":[-5.323157,36.236849]},"properties":{"id":"VUT/CA/20361","type":"VUT","group":"Completa","address":"CALLE COLINAS DEL MAR Nº 3 Blq. 5 Plta/Piso 1 Pta/Letra 79 Compl.Dom. URBANIZACION REGENCY, piso 1, puerta 79","postal_code":"11300","places":4,"units":2,"registered":"2024-04-22","catastro":"1331102TF9113S0098IM","holder":null,"holder_count":null}},{"type":"Feature","geometry":{"type":"Point","coordinates":[-5.32227,36.241331]},"properties":{"id":"VUT/CA/20431","type":"VUT","group":"Completa","address":"CALLE COLINAS DEL MAR Nº 42 Compl.Dom. URB ALCAIDESA PLAYA","postal_code":"11316","places":10,"units":4,"registered":"2024-04-26","catastro":"1331144TF9113S0001QX","holder":null,"holder_count":null}},{"type":"Feature","geometry":{"type":"Point","coordinates":[-5.346632,36.166094]},"properties":{"id":"VUT/CA/20461","type":"VUT","group":"Completa","address":"CALLE SAN JOSE Nº 76 B Pta/Letra 17 Compl.Dom. EDIFIO CALPE III, puerta 17","postal_code":"11300","places":7,"units":3,"registered":"2024-04-29","catastro":"9051502TF8095S0034GE","holder":null,"holder_count":null}},{"type":"Feature","geometry":{"type":"Point","coordinates":[-5.355345,36.167319]},"properties":{"id":"VUT/CA/20470","type":"VUT","group":"Completa","address":"CALLE SANTA AGUEDA Nº 4","postal_code":"11300","places":3,"units":2,"registered":"2024-04-30","catastro":"8353033TF8085S0001RZ","holder":null,"holder_count":null}},{"type":"Feature","geometry":{"type":"Point","coordinates":[-5.316635,36.235702]},"properties":{"id":"VUT/CA/20519","type":"VUT","group":"Completa","address":"AVENIDA Del Mediterráneo Nº 10 Compl.Dom. Urbanización Nueva Hacienda, Casa 10","postal_code":"11360","places":6,"units":3,"registered":"2024-05-05","catastro":"1826102TF9112N0010OE","holder":null,"holder_count":null}},{"type":"Feature","geometry":{"type":"Point","coordinates":[-5.319563,36.239887]},"properties":{"id":"VUT/CA/20534","type":"VUT","group":"Completa","address":"URBANIZACION El Mirador de La Alcaidesa Nº 27 Compl.Dom. Urbanización El Mirador de La Alcaidesa","postal_code":"11316","places":4,"units":1,"registered":"2024-05-06","catastro":"1632105TF9113S0028DB","holder":null,"holder_count":null}},{"type":"Feature","geometry":{"type":"Point","coordinates":[-5.319563,36.239887]},"properties":{"id":"VUT/CA/20582","type":"VUT","group":"Completa","address":"URBANIZACION El Mirador de La Alcaidesa Nº 27 Compl.Dom. Urbanización El Mirador de La Alcaidesa","postal_code":"11316","places":4,"units":1,"registered":"2024-05-09","catastro":"1632105TF9113S0028DB","holder":null,"holder_count":null}},{"type":"Feature","geometry":{"type":"Point","coordinates":[-5.366901,36.167957]},"properties":{"id":"VUT/CA/20787","type":"VUT","group":"Completa","address":"AVENIDA ESPAÑA Nº 164","postal_code":"11300","places":4,"units":2,"registered":"2024-05-23","catastro":"7253407TF8075S0002QK","holder":null,"holder_count":null}},{"type":"Feature","geometry":{"type":"Point","coordinates":[-5.351453,36.168013]},"properties":{"id":"VUT/CA/20846","type":"VUT","group":"Completa","address":"CALLE VENEZUELA Nº 20","postal_code":"11300","places":4,"units":3,"registered":"2024-05-28","catastro":"8653461TF8085S0005PW","holder":null,"holder_count":null}},{"type":"Feature","geometry":{"type":"Point","coordinates":[-5.343496,36.165216]},"properties":{"id":"VUT/CA/20950","type":"VUT","group":"Completa","address":"CALLE Pinzones Nº 43 Pta/Letra 2, puerta 2","postal_code":"11300","places":2,"units":1,"registered":"2024-06-05","catastro":"9351476TF8095S0002RE","holder":null,"holder_count":null}},{"type":"Feature","geometry":{"type":"Point","coordinates":[-5.347759,36.165024]},"properties":{"id":"VUT/CA/21019","type":"VUT","group":"Completa","address":"CALLE Sagunto Portal 2 Plta/Piso 2 Pta/Letra k, piso 2, puerta k","postal_code":"11300","places":2,"units":1,"registered":"2024-06-11","catastro":"8950701TF8085S0028DL","holder":null,"holder_count":null}},{"type":"Feature","geometry":{"type":"Point","coordinates":[-5.35191,36.161718]},"properties":{"id":"VUT/CA/21064","type":"VUT","group":"Completa","address":"CALLE MENDEZ NUÑEZ Nº 3 Blq. 7 Plta/Piso 3 Pta/Letra 4, piso 3, puerta 4","postal_code":"11300","places":6,"units":3,"registered":"2024-06-13","catastro":"8546003TF8084N0001OL","holder":null,"holder_count":null}},{"type":"Feature","geometry":{"type":"Point","coordinates":[-5.339974,36.163353]},"properties":{"id":"VUT/CA/21180","type":"VUT","group":"Por habitaciones","address":"CALLE Galileo Nº 45F","postal_code":"11300","places":2,"units":5,"registered":"2024-06-22","catastro":"9648712TF8094N0001FM","holder":null,"holder_count":null}},{"type":"Feature","geometry":{"type":"Point","coordinates":[-5.323157,36.236849]},"properties":{"id":"VUT/CA/21223","type":"VUT","group":"Completa","address":"CALLE COLINAS DEL MAR Nº 3 Blq. 2 Plta/Piso 2 Pta/Letra 33 Compl.Dom. URBANIZACIÓN REGENCY, piso 2, puerta 33","postal_code":"11360","places":6,"units":2,"registered":"2024-06-25","catastro":"1331102TF9113S0058EK","holder":null,"holder_count":null}},{"type":"Feature","geometry":{"type":"Point","coordinates":[-5.349397,36.158854]},"properties":{"id":"VUT/CA/21299","type":"VUT","group":"Completa","address":"URBANIZACION Bellavista Blq. 1 Plta/Piso 8 Pta/Letra B, piso 8, puerta B","postal_code":"11300","places":6,"units":3,"registered":"2024-07-02","catastro":"8743644TF8084S0034AT","holder":"Igieni Grupo Inversiones SL","holder_count":1}},{"type":"Feature","geometry":{"type":"Point","coordinates":[-5.343496,36.165216]},"properties":{"id":"VUT/CA/21324","type":"VUT","group":"Completa","address":"CALLE Pinzones Nº 43 Pta/Letra 3, puerta 3","postal_code":"11300","places":4,"units":1,"registered":"2024-07-03","catastro":"9351476TF8095S0003TR","holder":null,"holder_count":null}},{"type":"Feature","geometry":{"type":"Point","coordinates":[-5.321844,36.236242]},"properties":{"id":"VUT/CA/21331","type":"VUT","group":"Completa","address":"CALLE COLINAS DEL MAR Nº 14 Pta/Letra 53, puerta 53","postal_code":"11360","places":9,"units":4,"registered":"2024-07-03","catastro":"1331103TF9113S0054IF","holder":null,"holder_count":null}},{"type":"Feature","geometry":{"type":"Point","coordinates":[-5.342636,36.169705]},"properties":{"id":"VUT/CA/21345","type":"VUT","group":"Completa","address":"CALLE GIBRALTAR Nº 135 Plta/Piso 0 Pta/Letra D, piso 0, puerta D","postal_code":"11300","places":3,"units":2,"registered":"2024-07-04","catastro":"95570B1TF8095N0019QO","holder":"MULTISEGUROS SEVILLA, S.L.","holder_count":1}},{"type":"Feature","geometry":{"type":"Point","coordinates":[-5.346649,36.167405]},"properties":{"id":"VUT/CA/21357","type":"VUT","group":"Completa","address":"CALLE San Jose Nº 75 Plta/Piso 1 Pta/Letra B, piso 1, puerta B","postal_code":"11300","places":5,"units":2,"registered":"2024-07-05","catastro":"9052701TF8095S0003BR","holder":null,"holder_count":null}},{"type":"Feature","geometry":{"type":"Point","coordinates":[-5.342636,36.169705]},"properties":{"id":"VUT/CA/21377","type":"VUT","group":"Completa","address":"CALLE GIBRALTAR Nº 135 Plta/Piso 03 Pta/Letra 0F, piso 03, puerta 0F","postal_code":"11300","places":5,"units":2,"registered":"2024-07-08","catastro":"95570B1TF8095N0029IH","holder":"MULTISEGUROS SEVILLA SL","holder_count":1}},{"type":"Feature","geometry":{"type":"Point","coordinates":[-5.316635,36.235702]},"properties":{"id":"VUT/CA/21432","type":"VUT","group":"Completa","address":"URBANIZACION NUEVA HACIENDA Nº 15 Compl.Dom. AVENIDA DEL MEDITERRANEO","postal_code":"11300","places":3,"units":3,"registered":"2024-07-12","catastro":"1826102TF9112N0015FI","holder":null,"holder_count":null}},{"type":"Feature","geometry":{"type":"Point","coordinates":[-5.342636,36.169705]},"properties":{"id":"VUT/CA/21480","type":"VUT","group":"Completa","address":"CALLE GIBRALTAR Nº 135 Plta/Piso 3 Pta/Letra H, piso 3, puerta H","postal_code":"11300","places":3,"units":1,"registered":"2024-07-17","catastro":"95570B1TF8095N0031UG","holder":"GESTIBROKER 2000, S.L","holder_count":2}},{"type":"Feature","geometry":{"type":"Point","coordinates":[-5.342636,36.169705]},"properties":{"id":"VUT/CA/21482","type":"VUT","group":"Completa","address":"CALLE GIBRALTAR Nº 135 Plta/Piso 4 Pta/Letra H, piso 4, puerta H","postal_code":"11300","places":3,"units":1,"registered":"2024-07-17","catastro":"95570B1TF8095N0035AL","holder":"GESTIBROKER 2000, S.L","holder_count":2}},{"type":"Feature","geometry":{"type":"Point","coordinates":[-5.323157,36.236849]},"properties":{"id":"VUT/CA/21549","type":"VUT","group":"Completa","address":"URBANIZACION ALCAIDESA PLAYA, URB. REGENCY, BLQ. 1, BAJO Nº 9 Nº 9 Blq. 1 Plta/Piso 0 Pta/Letra 9, piso 0, puerta 9","postal_code":"11300","places":5,"units":2,"registered":"2024-07-23","catastro":"1331102TF9113S0038SR","holder":null,"holder_count":null}},{"type":"Feature","geometry":{"type":"Point","coordinates":[-5.315801,36.234475]},"properties":{"id":"VUT/CA/21594","type":"VUT","group":"Completa","address":"CALLE DE LA NOBLEZA Nº 13 Blq. A Pta/Letra 32, puerta 32","postal_code":"11315","places":5,"units":2,"registered":"2024-07-25","catastro":"2128110TF9122N0032AM","holder":null,"holder_count":null}},{"type":"Feature","geometry":{"type":"Point","coordinates":[-5.346207,36.169889]},"properties":{"id":"VUT/CA/21686","type":"VUT","group":"Completa","address":"PASAJE HERRERA Portal 6 Plta/Piso 3 Pta/Letra IZQ, piso 3, puerta IZQ","postal_code":"11300","places":6,"units":2,"registered":"2024-08-02","catastro":"9155018TF8095N0007FM","holder":null,"holder_count":null}},{"type":"Feature","geometry":{"type":"Point","coordinates":[-5.319563,36.239887]},"properties":{"id":"VUT/CA/21753","type":"VUT","group":"Completa","address":"AVENIDA DE LAS PALMERAS Nº 14 Portal 6 Plta/Piso BAJA Pta/Letra 70, piso BAJA, puerta 70","postal_code":"11316","places":8,"units":2,"registered":"2024-08-12","catastro":"1632105TF9113S0071KW","holder":null,"holder_count":null}},{"type":"Feature","geometry":{"type":"Point","coordinates":[-5.318057,36.241529]},"properties":{"id":"VUT/CA/21831","type":"VUT","group":"Completa","address":"CALLE RIVERA DE LA VEA Nº 1 Blq. 1 Portal 5 Plta/Piso 0 Pta/Letra 9, piso 0, puerta 9","postal_code":"11316","places":8,"units":3,"registered":"2024-08-20","catastro":"1335105TF9113N0010FB","holder":null,"holder_count":null}},{"type":"Feature","geometry":{"type":"Point","coordinates":[-5.353367,36.164489]},"properties":{"id":"VUT/CA/21854","type":"VUT","group":"Completa","address":"CALLE GRANADA Nº 15 Esc. 1 Pta/Letra 16 Compl.Dom. CALLE GRANADA CON VUELTA A CALLE BUENOS AIRES, puerta 16","postal_code":"11300","places":5,"units":4,"registered":"2024-08-23","catastro":"8449509TF8084N0017RO","holder":null,"holder_count":null}},{"type":"Feature","geometry":{"type":"Point","coordinates":[-5.31682,36.238754]},"properties":{"id":"VUT/CA/21855","type":"VUT","group":"Completa","address":"CALLE JARDINES DE ESPAÑA Nº 34 Compl.Dom. URBANIZACIÓN LOS BREZOS (LA ALCAIDESA)","postal_code":"11360","places":10,"units":4,"registered":"2024-08-23","catastro":"2032134TF9123S0001EE","holder":null,"holder_count":null}},{"type":"Feature","geometry":{"type":"Point","coordinates":[-5.321844,36.236242]},"properties":{"id":"VUT/CA/21982","type":"VUT","group":"Completa","address":"VIA Collinas Del Mar Nº 80","postal_code":"11360","places":10,"units":5,"registered":"2024-09-13","catastro":"1331103TF9113S0081EO","holder":null,"holder_count":null}},{"type":"Feature","geometry":{"type":"Point","coordinates":[-5.351526,36.169152]},"properties":{"id":"VUT/CA/22086","type":"VUT","group":"Completa","address":"PASAJE Olmo Blq. 2 Plta/Piso Bajo Pta/Letra A, piso Bajo, puerta A","postal_code":"11300","places":5,"units":2,"registered":"2024-10-11","catastro":"8654301TF8085S0017PA","holder":null,"holder_count":null}},{"type":"Feature","geometry":{"type":"Point","coordinates":[-5.315801,36.234475]},"properties":{"id":"VUT/CA/22152","type":"VUT","group":"Completa","address":"CALLE DE LA NOBLEZA Nº 13 Pta/Letra 16 Compl.Dom. URBANIZAICÓN LOMA DEL REY, LA ALCAIDESA, puerta 16","postal_code":"11315","places":6,"units":3,"registered":"2024-10-15","catastro":"2128110TF9122N0016QD","holder":null,"holder_count":null}},{"type":"Feature","geometry":{"type":"Point","coordinates":[-5.331571,36.244027]},"properties":{"id":"VUT/CA/22227","type":"VUT","group":"Completa","address":"URBANIZACION ALCAIDESA CORTIJO Nº 1(D) Blq. 5 Esc. 10 Plta/Piso 02 Pta/Letra A Compl.Dom. SUITES GOLF GARDENS I, piso 02, puerta A","postal_code":"11300","places":6,"units":2,"registered":"2024-10-25","catastro":"0537601TF9103N0093GY","holder":null,"holder_count":null}},{"type":"Feature","geometry":{"type":"Point","coordinates":[-5.318655,36.240868]},"properties":{"id":"VUT/CA/22333","type":"VUT","group":"Completa","address":"URBANIZACION LAS VILLAS Nº 57","postal_code":"11316","places":8,"units":3,"registered":"2024-11-11","catastro":"1732101TF9113S0058DK","holder":null,"holder_count":null}},{"type":"Feature","geometry":{"type":"Point","coordinates":[-5.352769,36.163003]},"properties":{"id":"VUT/CA/22425","type":"VUT","group":"Completa","address":"CALLE ISABEL LA CATÓLICA Nº 43","postal_code":"11300","places":4,"units":2,"registered":"2024-11-26","catastro":"8447306TF8084N0003JZ","holder":null,"holder_count":null}},{"type":"Feature","geometry":{"type":"Point","coordinates":[-5.351068,36.161144]},"properties":{"id":"VUT/CA/22464","type":"VUT","group":"Completa","address":"CALLE CARBONEROS Nº 25 Plta/Piso 2 Pta/Letra A, piso 2, puerta A","postal_code":"11300","places":7,"units":4,"registered":"2024-12-02","catastro":"8546308TF8084N0011RE","holder":null,"holder_count":null}},{"type":"Feature","geometry":{"type":"Point","coordinates":[-5.350882,36.165671]},"properties":{"id":"VUT/CA/22687","type":"VUT","group":"Por habitaciones","address":"CALLE vista alegre Nº 18","postal_code":"11300","places":5,"units":3,"registered":"2025-01-13","catastro":"8650309TF8085S0001EZ","holder":null,"holder_count":null}},{"type":"Feature","geometry":{"type":"Point","coordinates":[-5.321844,36.236242]},"properties":{"id":"VUT/CA/22967","type":"VUT","group":"Completa","address":"CALLE COLINAS DEL MAR Nº 10 Blq. 2 Esc. 1 Plta/Piso 0 Pta/Letra 53, piso 0, puerta 53","postal_code":"11300","places":8,"units":4,"registered":"2025-02-13","catastro":"1331103TF9113S0054IF","holder":"MERMALADA MANANA, SL","holder_count":1}},{"type":"Feature","geometry":{"type":"Point","coordinates":[-5.319512,36.240214]},"properties":{"id":"VUT/CA/23103","type":"VUT","group":"Completa","address":"CALLE JARDINES DE ESPAÑA Nº 2 Esc. 4 Plta/Piso 2 Pta/Letra 58 Compl.Dom. URBANIZACION LA ALCAIDESA, piso 2, puerta 58","postal_code":"11360","places":2,"units":3,"registered":"2025-02-26","catastro":"1632105TF9113S0059SL","holder":null,"holder_count":null}},{"type":"Feature","geometry":{"type":"Point","coordinates":[-5.331571,36.244027]},"properties":{"id":"VUT/CA/23225","type":"VUT","group":"Completa","address":"CALLE CORTIJO DE LAS AGUZADERAS Nº 1 Blq. 6 Portal 12 Plta/Piso 1 Pta/Letra 2 Compl.Dom. ALCAIDESA SUITE AND GOLF, piso 1, puerta 2","postal_code":"11301","places":4,"units":2,"registered":"2025-03-06","catastro":"0537601TF9103N0110TL","holder":null,"holder_count":null}},{"type":"Feature","geometry":{"type":"Point","coordinates":[-5.323157,36.236849]},"properties":{"id":"VUT/CA/23276","type":"VUT","group":"Completa","address":"CALLE COLINAS DEL MAR Nº 41 Blq. 3 Compl.Dom. URBANIZACION REGENCY","postal_code":"11316","places":4,"units":2,"registered":"2025-03-10","catastro":"1331102TF9113S0065UX","holder":null,"holder_count":null}},{"type":"Feature","geometry":{"type":"Point","coordinates":[-5.31473,36.24027]},"properties":{"id":"VUT/CA/23293","type":"VUT","group":"Completa","address":"CALLE PETUNIAS Nº 3C Blq. 4 Plta/Piso 2 Pta/Letra 5, piso 2, puerta 5","postal_code":"11316","places":4,"units":2,"registered":"2025-03-11","catastro":"1930174TF9113S0011YY","holder":null,"holder_count":null}},{"type":"Feature","geometry":{"type":"Point","coordinates":[-5.319512,36.240214]},"properties":{"id":"VUT/CA/23397","type":"VUT","group":"Por habitaciones","address":"AVENIDA AV DE LA PALMERAS S/N URBANIZACIÓN MIRADOR DE LA ALCAIDESA Portal 1 Esc. DERECHA Plta/Piso 1 Pta/Letra 21 Compl.Dom. URBANIZACIÓN MIRADOR DE LA ALCAIDESA, piso 1, puerta 21","postal_code":"11300","places":2,"units":1,"registered":"2025-03-18","catastro":"1632105TF9113S0022UF","holder":null,"holder_count":null}},{"type":"Feature","geometry":{"type":"Point","coordinates":[-5.348647,36.157616]},"properties":{"id":"VUT/CA/23452","type":"VUT","group":"Completa","address":"POLIGONO SAN FELIPE Nº 12 Blq. 12 Plta/Piso 6 Pta/Letra C, piso 6, puerta C","postal_code":"11300","places":15,"units":7,"registered":"2025-03-20","catastro":"8841412TF8084S0020BJ","holder":null,"holder_count":null}},{"type":"Feature","geometry":{"type":"Point","coordinates":[-5.35225,36.166014]},"properties":{"id":"VUT/CA/23572","type":"VUT","group":"Completa","address":"CALLE LUIS BRAILLE Nº 21 Esc. B Plta/Piso 02 Pta/Letra A, piso 02, puerta A","postal_code":"11300","places":5,"units":3,"registered":"2025-03-26","catastro":"8551005TF8085S0016EP","holder":null,"holder_count":null}},{"type":"Feature","geometry":{"type":"Point","coordinates":[-5.318057,36.241529]},"properties":{"id":"VUT/CA/23684","type":"VUT","group":"Completa","address":"CALLE RIVERA DE LA VEA Nº 1 Blq. 1 Esc. 1 Plta/Piso 2 Compl.Dom. URBANIZACION \"EL BALCON DE LA ALCAIDESA\", piso 2","postal_code":"11316","places":6,"units":3,"registered":"2025-03-28","catastro":"1335105TF9113N0022MY","holder":null,"holder_count":null}},{"type":"Feature","geometry":{"type":"Point","coordinates":[-5.318655,36.240868]},"properties":{"id":"VUT/CA/23957","type":"VUT","group":"Por habitaciones","address":"CALLE RIVERA DE LA VEA Nº 2 Pta/Letra 101 Compl.Dom. URBANIZACIÓN LA VILLA (LA ALCAIDESA), puerta 101","postal_code":"11315","places":6,"units":3,"registered":"2025-04-04","catastro":"1732101TF9113S0102ZE","holder":null,"holder_count":null}},{"type":"Feature","geometry":{"type":"Point","coordinates":[-5.318655,36.240868]},"properties":{"id":"VUT/CA/23973","type":"VUT","group":"Completa","address":"CALLE RIVERA DE LA VEA Nº 2 Pta/Letra 101 Compl.Dom. URBANIZACIÓN LA VILLA (LA ALCAIDESA), puerta 101","postal_code":"11315","places":8,"units":3,"registered":"2025-04-04","catastro":"1732101TF9113S0102ZE","holder":null,"holder_count":null}},{"type":"Feature","geometry":{"type":"Point","coordinates":[-5.369573,36.16921]},"properties":{"id":"VUT/CA/24010","type":"VUT","group":"Completa","address":"AVENIDA españa Nº 182 Blq. 2 Plta/Piso 12 Pta/Letra A, piso 12, puerta A","postal_code":"11300","places":2,"units":1,"registered":"2025-04-08","catastro":"7055001tf8075n0170uf","holder":null,"holder_count":null}},{"type":"Feature","geometry":{"type":"Point","coordinates":[-5.323494,36.240063]},"properties":{"id":"VUT/CA/24031","type":"VUT","group":"Por habitaciones","address":"CALLE COLINAS DEL MAR Nº 12","postal_code":"11300","places":6,"units":4,"registered":"2025-04-10","catastro":"1331114TF9113S0001LX","holder":null,"holder_count":null}},{"type":"Feature","geometry":{"type":"Point","coordinates":[-5.369573,36.16921]},"properties":{"id":"VUT/CA/24045","type":"VUT","group":"Completa","address":"AVENIDA España Nº 182 Blq. 2 Plta/Piso 8 Pta/Letra 804, piso 8, puerta 804","postal_code":"11300","places":2,"units":1,"registered":"2025-04-11","catastro":"7055001TF8075N0192MU","holder":null,"holder_count":null}},{"type":"Feature","geometry":{"type":"Point","coordinates":[-5.321844,36.236242]},"properties":{"id":"VUT/CA/24456","type":"VUT","group":"Por habitaciones","address":"CALLE Colinas del Mar. Urbanizaion La Corona 74 Portal 74 Compl.Dom. La alcaidesa","postal_code":"11316","places":5,"units":3,"registered":"2025-06-05","catastro":"1331103TF9113S0075MY","holder":null,"holder_count":null}},{"type":"Feature","geometry":{"type":"Point","coordinates":[-5.320201,36.235767]},"properties":{"id":"VUT/CA/24541","type":"VUT","group":"Completa","address":"URBANIZACION LE VILLAGE ALCAIDESA GOLF Nº 220 Compl.Dom. NIVEL SEGUNDO DEL EDIFICIO AMAPOLA 2 APARTAMENTO 220","postal_code":"11316","places":6,"units":3,"registered":"2025-06-11","catastro":"1728128TF9112N0013EY","holder":null,"holder_count":null}},{"type":"Feature","geometry":{"type":"Point","coordinates":[-5.321844,36.236242]},"properties":{"id":"VUT/CA/24555","type":"VUT","group":"Completa","address":"CALLE COLINAS DEL MAR (LA HACIENDA) Nº 10 Compl.Dom. Urb. La Alcaidesa, Complejo Residencial La Corona, 42","postal_code":"11360","places":12,"units":5,"registered":"2025-06-13","catastro":"1331103TF9113S0043MY","holder":null,"holder_count":null}},{"type":"Feature","geometry":{"type":"Point","coordinates":[-5.351834,36.163397]},"properties":{"id":"VUT/CA/24660","type":"VUT","group":"Por habitaciones","address":"CALLE AURORA Nº 33A Portal A Plta/Piso 3 Pta/Letra C, piso 3, puerta C","postal_code":"11300","places":3,"units":3,"registered":"2025-06-19","catastro":"8548801TF8084N0036DX","holder":null,"holder_count":null}},{"type":"Feature","geometry":{"type":"Point","coordinates":[-5.31473,36.24027]},"properties":{"id":"VUT/CA/24795","type":"VUT","group":"Completa","address":"CALLE CALLE DE LAS PETUNIAS, CONJUNTO HOTELERO SEGUNDA FASE ALCAIDESA Nº 16 Esc. 5 Plta/Piso 1 Pta/Letra 5.3 Compl.Dom. ALCAIDESA, piso 1, puerta 5.3","postal_code":"11360","places":4,"units":2,"registered":"2025-06-28","catastro":"1930174TF9113S0016AA","holder":null,"holder_count":null}},{"type":"Feature","geometry":{"type":"Point","coordinates":[-5.350707,36.161987]},"properties":{"id":"VUT/CA/24812","type":"VUT","group":"Completa","address":"CALLE Sol Nº 25 Plta/Piso 1 Pta/Letra A, piso 1, puerta A","postal_code":"11300","places":4,"units":2,"registered":"2025-06-30","catastro":"8646204TF8084N0003BZ","holder":"TRESROMA, SL","holder_count":1}},{"type":"Feature","geometry":{"type":"Point","coordinates":[-5.367409,36.16884]},"properties":{"id":"VUT/CA/24881","type":"VUT","group":"Completa","address":"EDIFICIO VIVIENDA DUPLEX, SEGUNDO Y TERCERO Nº 3 Plta/Piso 2 Y 3 Compl.Dom. LA LINEA DE LA CONCEPCION, piso 2 Y 3","postal_code":"11300","places":3,"units":2,"registered":"2025-07-04","catastro":"7255003TF8075N0074PG","holder":null,"holder_count":null}},{"type":"Feature","geometry":{"type":"Point","coordinates":[-5.317888,36.237673]},"properties":{"id":"VUT/CA/24890","type":"VUT","group":"Completa","address":"CAMINO DEL ROMERO Nº 14","postal_code":"11316","places":11,"units":5,"registered":"2025-07-04","catastro":"1930142TF9113S0001XX","holder":null,"holder_count":null}},{"type":"Feature","geometry":{"type":"Point","coordinates":[-5.352025,36.162116]},"properties":{"id":"VUT/CA/24891","type":"VUT","group":"Por habitaciones","address":"CALLE DUQUE TETUAN Nº 3","postal_code":"11300","places":5,"units":8,"registered":"2025-07-04","catastro":"8546103TF8084N0001DL","holder":"RENTALSUR LA LINEA SL","holder_count":1}},{"type":"Feature","geometry":{"type":"Point","coordinates":[-5.369573,36.16921]},"properties":{"id":"VUT/CA/24921","type":"VUT","group":"Completa","address":"AVENIDA ESPAÑA Nº 182 Blq. 2 Esc. 2 Plta/Piso 13 Pta/Letra E, piso 13, puerta E","postal_code":"11300","places":2,"units":1,"registered":"2025-07-10","catastro":"7055001TF8075N0181GX","holder":null,"holder_count":null}},{"type":"Feature","geometry":{"type":"Point","coordinates":[-5.320201,36.235767]},"properties":{"id":"VUT/CA/24926","type":"VUT","group":"Completa","address":"CALLE Colinas del Mar cruce Av Hacienda. Urbanización Alcaidesa Village. Apartamento 1120 Nº 2 Blq. 11 Plta/Piso 1 Pta/Letra 20, piso 1, puerta 20","postal_code":"11300","places":5,"units":2,"registered":"2025-07-11","catastro":"1728128TF9112N0068BM","holder":null,"holder_count":null}},{"type":"Feature","geometry":{"type":"Point","coordinates":[-5.351453,36.168013]},"properties":{"id":"VUT/CA/24935","type":"VUT","group":"Completa","address":"CALLE VENEZUELA Nº 22 Pta/Letra 2 Compl.Dom. URBANIZACIÓN PAULA, puerta 2","postal_code":"11300","places":12,"units":3,"registered":"2025-07-14","catastro":"8653461TF8085S0003IM","holder":null,"holder_count":null}},{"type":"Feature","geometry":{"type":"Point","coordinates":[-5.349631,36.167839]},"properties":{"id":"VUT/CA/25005","type":"VUT","group":"Completa","address":"CALLE CALLE ALEMANIA Nº 58 Plta/Piso 1, piso 1","postal_code":"11300","places":6,"units":3,"registered":"2025-07-23","catastro":"8753325TF8085S0003PM","holder":null,"holder_count":null}},{"type":"Feature","geometry":{"type":"Point","coordinates":[-5.360524,36.1661]},"properties":{"id":"VUT/CA/25174","type":"VUT","group":"Completa","address":"PASAJE ARAGON Blq. 2 Esc. 1 Plta/Piso 3 Pta/Letra D, piso 3, puerta D","postal_code":"11300","places":5,"units":2,"registered":"2025-08-27","catastro":"7751301TF8075S0015KT","holder":null,"holder_count":null}},{"type":"Feature","geometry":{"type":"Point","coordinates":[-5.356619,36.162719]},"properties":{"id":"VUT/CA/25232","type":"VUT","group":"Completa","address":"AVENIDA ESPAÑA Nº 80 Plta/Piso 1 Pta/Letra A, piso 1, puerta A","postal_code":"11300","places":6,"units":3,"registered":"2025-09-11","catastro":"8147402TF8084N0001UL","holder":null,"holder_count":null}},{"type":"Feature","geometry":{"type":"Point","coordinates":[-5.323157,36.236849]},"properties":{"id":"VUT/CA/25306","type":"VUT","group":"Completa","address":"CALLE Colinas del Mar Nº 5 Pta/Letra 78, puerta 78","postal_code":"11360","places":7,"units":2,"registered":"2025-10-06","catastro":"1331102TF9113S0097UX","holder":null,"holder_count":null}},{"type":"Feature","geometry":{"type":"Point","coordinates":[-5.315898,36.237458]},"properties":{"id":"VUT/CA/25604","type":"VUT","group":"Completa","address":"CAMINO DE LAS AMAPOLAS Nº 12 Compl.Dom. LA ALCAIDESA","postal_code":"11300","places":6,"units":3,"registered":"2025-12-19","catastro":"1930116TF9113S0001UX","holder":null,"holder_count":null}},{"type":"Feature","geometry":{"type":"Point","coordinates":[-5.316641,36.239802]},"properties":{"id":"VUT/CA/25657","type":"VUT","group":"Completa","address":"CALLE Jardines de España Nº 3","postal_code":"11300","places":2,"units":5,"registered":"2026-01-13","catastro":"1930101TF9113S0003HQ","holder":null,"holder_count":null}},{"type":"Feature","geometry":{"type":"Point","coordinates":[-5.321844,36.236242]},"properties":{"id":"VUT/CA/25777","type":"VUT","group":"Por habitaciones","address":"CALLE COLINAS DEL MAR DE LAS URB REGENCY Nº 60","postal_code":"11300","places":6,"units":3,"registered":"2026-02-03","catastro":"1331103TF9113S0061SK","holder":null,"holder_count":null}},{"type":"Feature","geometry":{"type":"Point","coordinates":[-5.31336,36.240061]},"properties":{"id":"VUT/CA/25829","type":"VUT","group":"Completa","address":"AVENIDA MEDITERRANEO Nº A Calif.Nº 9 Blq. 2 Pta/Letra B Compl.Dom. ALCAIDESA, puerta B","postal_code":"11360","places":8,"units":3,"registered":"2026-02-11","catastro":"2128164TF9122N0009EO","holder":null,"holder_count":null}},{"type":"Feature","geometry":{"type":"Point","coordinates":[-5.321844,36.236242]},"properties":{"id":"VUT/CA/26008","type":"VUT","group":"Completa","address":"CALLE Colinas del Mar Nº 10 Pta/Letra 62, puerta 62","postal_code":"11300","places":8,"units":4,"registered":"2026-03-16","catastro":"1331103TF9113S0063FB","holder":null,"holder_count":null}}]}