{"type":"FeatureCollection","municipio":{"slug":"los-barrios","name":"Los Barrios","total":14,"places":79,"source_updated_at":"2026-10-05"},"features":[{"type":"Feature","geometry":{"type":"Point","coordinates":[-5.496466,36.184471]},"properties":{"id":"VUT/CA/027005","type":"VUT","group":"Completa","address":"CALLE PASEO DE COCA Nº 15 Plta/Piso 0, piso 0","postal_code":"11370","places":4,"units":5,"registered":"2026-08-30","catastro":"5574808TF7057S0001RI","holder":null,"holder_count":null}},{"type":"Feature","geometry":{"type":"Point","coordinates":[-5.437598,36.192233]},"properties":{"id":"VUT/CA/09427","type":"VUT","group":"Completa","address":"CALLE Miguel Angel Nº 33","postal_code":"11379","places":10,"units":5,"registered":"2019-12-08","catastro":"0983101TF8008S0017BU","holder":null,"holder_count":null}},{"type":"Feature","geometry":{"type":"Point","coordinates":[-5.430917,36.174273]},"properties":{"id":"VUT/CA/15413","type":"VUT","group":"Completa","address":"CALLE pedro terol Nº 8","postal_code":"11379","places":7,"units":5,"registered":"2022-08-26","catastro":"1462701TF8016S0001OP","holder":null,"holder_count":null}},{"type":"Feature","geometry":{"type":"Point","coordinates":[-5.428211,36.196131]},"properties":{"id":"VUT/CA/16382","type":"VUT","group":"Completa","address":"CALLE Alcaudón Nº 3 Compl.Dom. guadacorte","postal_code":"11379","places":4,"units":4,"registered":"2023-02-11","catastro":"1886215TF8018N0001ID","holder":null,"holder_count":null}},{"type":"Feature","geometry":{"type":"Point","coordinates":[-5.439289,36.176274]},"properties":{"id":"VUT/CA/17180","type":"VUT","group":"Completa","address":"CALLE LAS SALINAS Nº 1 Pta/Letra B, puerta B","postal_code":"11379","places":2,"units":1,"registered":"2023-04-21","catastro":"0764407TF8006S0001QY","holder":null,"holder_count":null}},{"type":"Feature","geometry":{"type":"Point","coordinates":[-5.423624,36.191478]},"properties":{"id":"VUT/CA/18131","type":"VUT","group":"Completa","address":"CALLE LAS GOLONDRINAS Nº 91","postal_code":"11379","places":9,"units":4,"registered":"2023-06-26","catastro":"2182818TF8028S0001HW","holder":null,"holder_count":null}},{"type":"Feature","geometry":{"type":"Point","coordinates":[-5.502204,36.177104]},"properties":{"id":"VUT/CA/18356","type":"VUT","group":"Por habitaciones","address":"CALLE HUERTAS DE BEHARAS Nº 58","postal_code":"11370","places":6,"units":3,"registered":"2023-07-13","catastro":"11008A013000580000II","holder":null,"holder_count":null}},{"type":"Feature","geometry":{"type":"Point","coordinates":[-5.439553,36.190145]},"properties":{"id":"VUT/CA/18892","type":"VUT","group":"Completa","address":"CALLE FRANCISCO DE ZURBARÁN Nº 17","postal_code":"11379","places":10,"units":5,"registered":"2023-10-03","catastro":"0782701TF8008S0021PI","holder":null,"holder_count":null}},{"type":"Feature","geometry":{"type":"Point","coordinates":[-5.484375,36.182023]},"properties":{"id":"VUT/CA/21078","type":"VUT","group":"Por habitaciones","address":"CALLE LAS GARDENIAS Nº 21","postal_code":"11370","places":4,"units":1,"registered":"2024-06-14","catastro":"6672709TF7067S0001RS","holder":null,"holder_count":null}},{"type":"Feature","geometry":{"type":"Point","coordinates":[-5.580909,36.294055]},"properties":{"id":"VUT/CA/22432","type":"VUT","group":"Completa","address":"FINCA Autovía, 11370 Los Barrios, Cádiz Km 66","postal_code":"11370","places":9,"units":4,"registered":"2024-11-27","catastro":"11008A001000030000IL","holder":"Hermanillas SA","holder_count":1}},{"type":"Feature","geometry":{"type":"Point","coordinates":[-5.434516,36.174942]},"properties":{"id":"VUT/CA/23411","type":"VUT","group":"Completa","address":"CALLE CADIZ Nº 15 Pta/Letra A Compl.Dom. APARTAMENTO 9, puerta A","postal_code":"11379","places":4,"units":1,"registered":"2025-03-19","catastro":"1262307TF8016S0010MH","holder":null,"holder_count":null}},{"type":"Feature","geometry":{"type":"Point","coordinates":[-5.426867,36.191707]},"properties":{"id":"VUT/CA/23881","type":"VUT","group":"Completa","address":"URBANIZACION LOS CHOPOS Nº 17","postal_code":"11379","places":2,"units":1,"registered":"2025-04-02","catastro":"1881601TF8018S0017TA","holder":"DESIGNFUL S.L.","holder_count":2}},{"type":"Feature","geometry":{"type":"Point","coordinates":[-5.426867,36.191707]},"properties":{"id":"VUT/CA/23974","type":"VUT","group":"Completa","address":"URBANIZACION LOS CHOPOS Nº 18","postal_code":"11379","places":3,"units":1,"registered":"2025-04-04","catastro":"1881601TF8018S0018YS","holder":"DESIGNFUL S.L.","holder_count":2}},{"type":"Feature","geometry":{"type":"Point","coordinates":[-5.428843,36.195864]},"properties":{"id":"VUT/CA/25401","type":"VUT","group":"Completa","address":"EDIFICIO HABITAT77 Nº 16 Calif.Nº 0 Blq. A Portal A Esc. A Plta/Piso 3 Pta/Letra B, piso 3, puerta B","postal_code":"11379","places":5,"units":2,"registered":"2025-10-29","catastro":"1786101TF8018N0013FX","holder":null,"holder_count":null}}]}