{"type":"FeatureCollection","municipio":{"slug":"medina-sidonia","name":"Medina-Sidonia","total":52,"places":253,"source_updated_at":"2026-10-05"},"features":[{"type":"Feature","geometry":{"type":"Point","coordinates":[-5.928587,36.459332]},"properties":{"id":"VUT/CA/05086","type":"VUT","group":"Completa","address":"CALLE ALAMO Nº 7 Plta/Piso 3 Pta/Letra B, piso 3, puerta B","postal_code":"11170","places":4,"units":2,"registered":"2018-05-17","catastro":"7691103TF3379S0008AQ","holder":null,"holder_count":null}},{"type":"Feature","geometry":{"type":"Point","coordinates":[-5.926458,36.457703]},"properties":{"id":"VUT/CA/06445","type":"VUT","group":"Completa","address":"PLAZA IGLESIA MAYOR Nº 2","postal_code":"11170","places":2,"units":1,"registered":"2018-11-29","catastro":"7889116TF3378N0001FG","holder":"MEDINA PROPERTIES S.L","holder_count":1}},{"type":"Feature","geometry":{"type":"Point","coordinates":[-5.925187,36.453929]},"properties":{"id":"VUT/CA/07110","type":"VUT","group":"Completa","address":"CALLE Musulmanes Nº 55","postal_code":"11170","places":6,"units":2,"registered":"2019-04-09","catastro":"7985401TF3378N0012DM","holder":null,"holder_count":null}},{"type":"Feature","geometry":{"type":"Point","coordinates":[-5.928169,36.458684]},"properties":{"id":"VUT/CA/07452","type":"VUT","group":"Por habitaciones","address":"CALLE Doctor Thebussem Nº 9","postal_code":"11170","places":6,"units":3,"registered":"2019-04-23","catastro":"7790009TF3379S0003BL","holder":null,"holder_count":null}},{"type":"Feature","geometry":{"type":"Point","coordinates":[-5.926864,36.458265]},"properties":{"id":"VUT/CA/07672","type":"VUT","group":"Por habitaciones","address":"CALLE Tintoreros Nº 2","postal_code":"11170","places":6,"units":3,"registered":"2019-05-16","catastro":"7889114TF3378N0001LG","holder":null,"holder_count":null}},{"type":"Feature","geometry":{"type":"Point","coordinates":[-5.927342,36.457693]},"properties":{"id":"VUT/CA/07839","type":"VUT","group":"Completa","address":"CALLE FERMIN SALVOCHEA Nº 12","postal_code":"11170","places":8,"units":4,"registered":"2019-06-03","catastro":"7789420TF3378N0008RX","holder":null,"holder_count":null}},{"type":"Feature","geometry":{"type":"Point","coordinates":[-5.933599,36.470945]},"properties":{"id":"VUT/CA/08048","type":"VUT","group":"Completa","address":"PARCELA EL OLIVAR Nº S/N Calif.Nº 4 Compl.Dom. DS EL PINTO POLIGONO 10 PARCELA 104","postal_code":"11170","places":5,"units":3,"registered":"2019-06-18","catastro":"11023A010001040001XI","holder":null,"holder_count":null}},{"type":"Feature","geometry":{"type":"Point","coordinates":[-5.927758,36.458651]},"properties":{"id":"VUT/CA/08664","type":"VUT","group":"Completa","address":"CALLE Doctor Thebussem Nº 6 Pta/Letra 1, puerta 1","postal_code":"11170","places":4,"units":2,"registered":"2019-08-27","catastro":"7790103TF3379S0003HL","holder":null,"holder_count":null}},{"type":"Feature","geometry":{"type":"Point","coordinates":[-5.9266,36.457406]},"properties":{"id":"VUT/CA/09095","type":"VUT","group":"Completa","address":"CALLE VICTORIA Nº 16 Esc. 1 Plta/Piso 1 Pta/Letra 3, piso 1, puerta 3","postal_code":"11170","places":8,"units":4,"registered":"2019-11-08","catastro":"7888109TF3378N0005ML","holder":null,"holder_count":null}},{"type":"Feature","geometry":{"type":"Point","coordinates":[-5.930371,36.458426]},"properties":{"id":"VUT/CA/10814","type":"VUT","group":"Completa","address":"CALLE SAN FRANCISCO DE ASÍS Nº 17 Esc. 1 Plta/Piso 0 Pta/Letra F, piso 0, puerta F","postal_code":"11170","places":4,"units":3,"registered":"2020-07-23","catastro":"7590010TF3379S0041ZX","holder":null,"holder_count":null}},{"type":"Feature","geometry":{"type":"Point","coordinates":[-5.930511,36.458214]},"properties":{"id":"VUT/CA/10918","type":"VUT","group":"Completa","address":"CALLE SAN FRANCISCO DE ASIS Nº 15 Plta/Piso 1 Pta/Letra G, piso 1, puerta G","postal_code":"11170","places":4,"units":2,"registered":"2020-09-02","catastro":"7590011TF3379S0019JO","holder":null,"holder_count":null}},{"type":"Feature","geometry":{"type":"Point","coordinates":[-5.928542,36.457276]},"properties":{"id":"VUT/CA/10961","type":"VUT","group":"Completa","address":"CALLE VAROS Nº 11 Plta/Piso 1 Pta/Letra G, piso 1, puerta G","postal_code":"11170","places":3,"units":2,"registered":"2020-09-11","catastro":"7787023TF3378N0005WL","holder":null,"holder_count":null}},{"type":"Feature","geometry":{"type":"Point","coordinates":[-5.930234,36.457771]},"properties":{"id":"VUT/CA/11476","type":"VUT","group":"Completa","address":"CALLE PORVENIR Nº 6 Plta/Piso 1 Pta/Letra 3, piso 1, puerta 3","postal_code":"11170","places":5,"units":3,"registered":"2021-03-17","catastro":"7590023TF3379S0005KZ","holder":null,"holder_count":null}},{"type":"Feature","geometry":{"type":"Point","coordinates":[-5.929095,36.457405]},"properties":{"id":"VUT/CA/11511","type":"VUT","group":"Completa","address":"CALLE HERCULES Nº 9 Plta/Piso BAJO Pta/Letra IZDA., piso BAJO, puerta IZDA.","postal_code":"11170","places":2,"units":1,"registered":"2021-03-22","catastro":"7787014TF3378N0001DG","holder":null,"holder_count":null}},{"type":"Feature","geometry":{"type":"Point","coordinates":[-5.929095,36.457405]},"properties":{"id":"VUT/CA/11573","type":"VUT","group":"Completa","address":"CALLE HERCULES Plta/Piso PRIMERO Pta/Letra Z, piso PRIMERO, puerta Z","postal_code":"11170","places":4,"units":3,"registered":"2021-04-05","catastro":"7787014TF3378N0001DG","holder":null,"holder_count":null}},{"type":"Feature","geometry":{"type":"Point","coordinates":[-5.940517,36.469659]},"properties":{"id":"VUT/CA/11756","type":"VUT","group":"Completa","address":"AVENIDA PRADO DE LA FERIA Nº 60 Pta/Letra 9, puerta 9","postal_code":"11170","places":6,"units":3,"registered":"2021-05-10","catastro":"6602501TF4360N0072TY","holder":null,"holder_count":null}},{"type":"Feature","geometry":{"type":"Point","coordinates":[-5.940517,36.469659]},"properties":{"id":"VUT/CA/13116","type":"VUT","group":"Completa","address":"AVENIDA PRADO DE LA FERIA Nº 60 Pta/Letra 11 Compl.Dom. RESIDENCIAL ATALAYA DE LA JANDA, puerta 11","postal_code":"11170","places":6,"units":3,"registered":"2021-12-07","catastro":"6602501TF4360N0070ER","holder":null,"holder_count":null}},{"type":"Feature","geometry":{"type":"Point","coordinates":[-5.928512,36.463486]},"properties":{"id":"VUT/CA/13142","type":"VUT","group":"Completa","address":"CALLE SALAMANCA Nº 10","postal_code":"11170","places":4,"units":2,"registered":"2021-12-16","catastro":"7695319TF3379N0001AO","holder":null,"holder_count":null}},{"type":"Feature","geometry":{"type":"Point","coordinates":[-5.930245,36.465123]},"properties":{"id":"VUT/CA/13404","type":"VUT","group":"Completa","address":"PASEO DEL MERCADO Nº 10","postal_code":"11170","places":12,"units":6,"registered":"2022-02-07","catastro":"7697002TF3379N0001ZO","holder":null,"holder_count":null}},{"type":"Feature","geometry":{"type":"Point","coordinates":[-5.927933,36.456321]},"properties":{"id":"VUT/CA/13532","type":"VUT","group":"Completa","address":"PLAZA DE ESPAÑA Nº 18","postal_code":"11170","places":4,"units":2,"registered":"2022-02-24","catastro":"7787033TF3378N0003JJ","holder":null,"holder_count":null}},{"type":"Feature","geometry":{"type":"Point","coordinates":[-5.929045,36.459331]},"properties":{"id":"VUT/CA/15410","type":"VUT","group":"Completa","address":"CALLE Olivo Nº 3 Plta/Piso 1 Pta/Letra C, piso 1, puerta C","postal_code":"11170","places":2,"units":1,"registered":"2022-08-25","catastro":"7690203TF3379S0003TL","holder":null,"holder_count":null}},{"type":"Feature","geometry":{"type":"Point","coordinates":[-5.928373,36.457765]},"properties":{"id":"VUT/CA/17776","type":"VUT","group":"Completa","address":"CALLE HERCULES Nº 4 Pta/Letra A, puerta A","postal_code":"11170","places":2,"units":3,"registered":"2023-06-01","catastro":"7690019TF3379S3001FA","holder":null,"holder_count":null}},{"type":"Feature","geometry":{"type":"Point","coordinates":[-5.928373,36.457765]},"properties":{"id":"VUT/CA/17846","type":"VUT","group":"Completa","address":"CALLE HERCULES Nº 4 Pta/Letra B, puerta B","postal_code":"11170","places":2,"units":1,"registered":"2023-06-06","catastro":"7690019TF3379S0003XL","holder":null,"holder_count":null}},{"type":"Feature","geometry":{"type":"Point","coordinates":[-5.929752,36.459494]},"properties":{"id":"VUT/CA/17933","type":"VUT","group":"Completa","address":"CALLE ORTEGA Nº 9 Compl.Dom. VIVIENDA A3","postal_code":"11170","places":4,"units":1,"registered":"2023-06-12","catastro":"7591108TF3379S0002SK","holder":null,"holder_count":null}},{"type":"Feature","geometry":{"type":"Point","coordinates":[-5.925875,36.453934]},"properties":{"id":"VUT/CA/18248","type":"VUT","group":"Completa","address":"CALLE ALCALA Nº 9","postal_code":"11170","places":6,"units":3,"registered":"2023-07-05","catastro":"7885103TF3378S0002BQ","holder":null,"holder_count":null}},{"type":"Feature","geometry":{"type":"Point","coordinates":[-5.930082,36.458437]},"properties":{"id":"VUT/CA/18291","type":"VUT","group":"Completa","address":"CALLE SAN FRANCISCO DE ASÍS Nº 20 Pta/Letra 5, puerta 5","postal_code":"11170","places":4,"units":1,"registered":"2023-07-07","catastro":"7689015TF3378N0007MZ","holder":null,"holder_count":null}},{"type":"Feature","geometry":{"type":"Point","coordinates":[-5.930082,36.458437]},"properties":{"id":"VUT/CA/18734","type":"VUT","group":"Completa","address":"CALLE SAN FRANCISCO DE ASÍS Nº 20 Pta/Letra 6, puerta 6","postal_code":"11170","places":4,"units":2,"registered":"2023-08-30","catastro":"7689015TF3378N0008QX","holder":null,"holder_count":null}},{"type":"Feature","geometry":{"type":"Point","coordinates":[-5.927447,36.459209]},"properties":{"id":"VUT/CA/18766","type":"VUT","group":"Completa","address":"CALLE CERVANTES Nº 3 Esc. 1 Plta/Piso 0 Pta/Letra 1, piso 0, puerta 1","postal_code":"11170","places":2,"units":1,"registered":"2023-09-05","catastro":"7790214TF3379S0002XK","holder":null,"holder_count":null}},{"type":"Feature","geometry":{"type":"Point","coordinates":[-5.943458,36.468409]},"properties":{"id":"VUT/CA/18783","type":"VUT","group":"Completa","address":"CALLE CASTILLA LA MANCHA Nº 9 Plta/Piso 2 Pta/Letra A, piso 2, puerta A","postal_code":"11170","places":4,"units":3,"registered":"2023-09-09","catastro":"6301602TF3460S0020MH","holder":null,"holder_count":null}},{"type":"Feature","geometry":{"type":"Point","coordinates":[-5.928925,36.458602]},"properties":{"id":"VUT/CA/18853","type":"VUT","group":"Completa","address":"CALLE HERRETE Nº 15 Blq. 1 Compl.Dom. IZQUIERDA","postal_code":"11170","places":4,"units":3,"registered":"2023-09-25","catastro":"7690007TF3379S0001IJ","holder":null,"holder_count":null}},{"type":"Feature","geometry":{"type":"Point","coordinates":[-5.928587,36.459332]},"properties":{"id":"VUT/CA/18867","type":"VUT","group":"Completa","address":"CALLE ÁLAMO Nº 7-9 Plta/Piso 3 Pta/Letra G, piso 3, puerta G","postal_code":"11170","places":4,"units":2,"registered":"2023-09-27","catastro":"7691103TF3379S0007PM","holder":null,"holder_count":null}},{"type":"Feature","geometry":{"type":"Point","coordinates":[-5.930159,36.459305]},"properties":{"id":"VUT/CA/18946","type":"VUT","group":"Completa","address":"CALLE CID Nº 4 Plta/Piso 1 Pta/Letra 1, piso 1, puerta 1","postal_code":"11170","places":4,"units":1,"registered":"2023-10-16","catastro":"7591114TF3379S0004KB","holder":"VALSIDONIA INVERSIONES, S.l.","holder_count":1}},{"type":"Feature","geometry":{"type":"Point","coordinates":[-5.929037,36.458771]},"properties":{"id":"VUT/CA/20182","type":"VUT","group":"Por habitaciones","address":"CALLE HERRETE Nº 14 Plta/Piso BAJO, piso BAJO","postal_code":"11170","places":6,"units":3,"registered":"2024-04-05","catastro":"7690316TF3379S0003UL","holder":null,"holder_count":null}},{"type":"Feature","geometry":{"type":"Point","coordinates":[-5.929974,36.458389]},"properties":{"id":"VUT/CA/20193","type":"VUT","group":"Completa","address":"CALLE San Francisco de Asís Nº 20 Pta/Letra 7, puerta 7","postal_code":"11170","places":5,"units":2,"registered":"2024-04-06","catastro":"7689015TF3378N0009WM","holder":null,"holder_count":null}},{"type":"Feature","geometry":{"type":"Point","coordinates":[-5.928826,36.464615]},"properties":{"id":"VUT/CA/20196","type":"VUT","group":"Completa","address":"CALLE BARRIO NUEVO Nº 26 Plta/Piso BAJO Pta/Letra B, piso BAJO, puerta B","postal_code":"11170","places":6,"units":3,"registered":"2024-04-06","catastro":"7697124TF3379N0003PA","holder":null,"holder_count":null}},{"type":"Feature","geometry":{"type":"Point","coordinates":[-5.928815,36.458568]},"properties":{"id":"VUT/CA/20242","type":"VUT","group":"Completa","address":"CALLE HERRETE Nº 13","postal_code":"11170","places":6,"units":2,"registered":"2024-04-10","catastro":"7690008TF3379S0004BB","holder":null,"holder_count":null}},{"type":"Feature","geometry":{"type":"Point","coordinates":[-5.926517,36.454735]},"properties":{"id":"VUT/CA/20258","type":"VUT","group":"Completa","address":"CALLE SANTO CRISTO Nº 17","postal_code":"11170","places":8,"units":3,"registered":"2024-04-12","catastro":"7886006TF3378N0001QG","holder":null,"holder_count":null}},{"type":"Feature","geometry":{"type":"Point","coordinates":[-5.929974,36.458389]},"properties":{"id":"VUT/CA/20263","type":"VUT","group":"Completa","address":"CALLE SAN FRANCISCO DE ASÍS Nº 20 Plta/Piso 1ª Pta/Letra 4, piso 1ª, puerta 4","postal_code":"11170","places":6,"units":2,"registered":"2024-04-12","catastro":"7689015TF3378N0006XB","holder":null,"holder_count":null}},{"type":"Feature","geometry":{"type":"Point","coordinates":[-5.931291,36.458981]},"properties":{"id":"VUT/CA/20286","type":"VUT","group":"Completa","address":"CALLE TORREON Nº 16 Esc. 1 Plta/Piso BAJO Pta/Letra IZQU., piso BAJO, puerta IZQU.","postal_code":"11170","places":2,"units":1,"registered":"2024-04-16","catastro":"7490210TF3379S0001OJ","holder":null,"holder_count":null}},{"type":"Feature","geometry":{"type":"Point","coordinates":[-5.929453,36.465423]},"properties":{"id":"VUT/CA/20370","type":"VUT","group":"Completa","address":"CALLE Barrio Nuevo Nº 18 Plta/Piso 1 Pta/Letra C, piso 1, puerta C","postal_code":"11170","places":4,"units":2,"registered":"2024-04-22","catastro":"7697119TF3379N0005JD","holder":null,"holder_count":null}},{"type":"Feature","geometry":{"type":"Point","coordinates":[-5.9267,36.456827]},"properties":{"id":"VUT/CA/20440","type":"VUT","group":"Completa","address":"CALLE BASURTO Nº 13 Plta/Piso B Pta/Letra IZQ, piso B, puerta IZQ","postal_code":"11170","places":2,"units":1,"registered":"2024-04-29","catastro":"7888114TF3378N0002GH","holder":null,"holder_count":null}},{"type":"Feature","geometry":{"type":"Point","coordinates":[-5.930834,36.459672]},"properties":{"id":"VUT/CA/21689","type":"VUT","group":"Completa","address":"CALLE CALDEREROS Nº 8","postal_code":"11170","places":5,"units":2,"registered":"2024-08-02","catastro":"7491305TF3379S0001MJ","holder":null,"holder_count":null}},{"type":"Feature","geometry":{"type":"Point","coordinates":[-5.9271,36.457778]},"properties":{"id":"VUT/CA/21989","type":"VUT","group":"Por habitaciones","address":"CALLE Victoria Nº 8 Pta/Letra A, puerta A","postal_code":"11170","places":8,"units":2,"registered":"2024-09-16","catastro":"7789412TF3378N0005WL","holder":null,"holder_count":null}},{"type":"Feature","geometry":{"type":"Point","coordinates":[-5.92993,36.478245]},"properties":{"id":"VUT/CA/22075","type":"VUT","group":"Completa","address":"LUGAR EL ALGARROBILLO Nº 2 Compl.Dom. FINCA PARTICULAR- HACIENDA LA MORERA","postal_code":"11170","places":6,"units":3,"registered":"2024-10-01","catastro":"11023A010001070001XS","holder":null,"holder_count":null}},{"type":"Feature","geometry":{"type":"Point","coordinates":[-5.927049,36.455378]},"properties":{"id":"VUT/CA/22341","type":"VUT","group":"Completa","address":"CALLE SANTO CRISTO Nº 4 Plta/Piso 0, piso 0","postal_code":"11170","places":null,"units":null,"registered":"2024-11-18","catastro":"7786003TF3378N0004IK","holder":null,"holder_count":null}},{"type":"Feature","geometry":{"type":"Point","coordinates":[-5.927635,36.459328]},"properties":{"id":"VUT/CA/22525","type":"VUT","group":"Completa","address":"CALLE CORREOS Nº 1","postal_code":"11170","places":5,"units":3,"registered":"2024-12-12","catastro":"7790213TF3379S0001SJ","holder":null,"holder_count":null}},{"type":"Feature","geometry":{"type":"Point","coordinates":[-5.884853,36.369479]},"properties":{"id":"VUT/CA/22824","type":"VUT","group":"Completa","address":"DISEMINADO MESA ALTA Nº SN Compl.Dom. CORTIJO FUENTE FRIA","postal_code":"11170","places":8,"units":4,"registered":"2025-01-28","catastro":"000700100TF42G0001XT","holder":"ENCENDIDDA SL","holder_count":1}},{"type":"Feature","geometry":{"type":"Point","coordinates":[-5.928926,36.456674]},"properties":{"id":"VUT/CA/23125","type":"VUT","group":"Completa","address":"CALLE ALVARO GARRIDO Nº 12 Plta/Piso BAJO Pta/Letra F, piso BAJO, puerta F","postal_code":"11170","places":4,"units":2,"registered":"2025-02-27","catastro":"7688004TF3378N0006FB","holder":null,"holder_count":null}},{"type":"Feature","geometry":{"type":"Point","coordinates":[-5.927698,36.45545]},"properties":{"id":"VUT/CA/24574","type":"VUT","group":"Completa","address":"CALLE PABLO IGLESIAS Nº 4 Plta/Piso 1, piso 1","postal_code":"11170","places":6,"units":3,"registered":"2025-06-14","catastro":"7786107TF3378N0003QJ","holder":null,"holder_count":null}},{"type":"Feature","geometry":{"type":"Point","coordinates":[-5.933249,36.481892]},"properties":{"id":"VUT/CA/25481","type":"VUT","group":"Completa","address":"FINCA EL BONETE CHICO, EL REFUGIO CAMINO Nº S/N","postal_code":"11170","places":10,"units":5,"registered":"2025-11-17","catastro":"11023A010000850000ZP","holder":"OLE SOLUTIONS HOLIDAY RENTALS S.L.","holder_count":1}},{"type":"Feature","geometry":{"type":"Point","coordinates":[-5.928222,36.460063]},"properties":{"id":"VUT/CA/25610","type":"VUT","group":"Completa","address":"PLAZA DE LA PASTORA Nº 2 Plta/Piso B Pta/Letra IZQ, piso B, puerta IZQ","postal_code":"11170","places":2,"units":1,"registered":"2025-12-22","catastro":"7791105TF3379S0005KZ","holder":null,"holder_count":null}},{"type":"Feature","geometry":{"type":"Point","coordinates":[-5.941154,36.466329]},"properties":{"id":"VUT/CA/25653","type":"VUT","group":"Completa","address":"CALLE HONDURAS Pta/Letra 2, puerta 2","postal_code":"11170","places":9,"units":3,"registered":"2026-01-12","catastro":"6599701TF4369N0014OR","holder":null,"holder_count":null}}]}