{"type":"FeatureCollection","municipio":{"slug":"olvera","name":"Olvera","total":24,"places":129,"source_updated_at":"2026-10-05"},"features":[{"type":"Feature","geometry":{"type":"Point","coordinates":[-5.267432,36.934455]},"properties":{"id":"VUT/CA/026736","type":"VUT","group":"Completa","address":"CALLE Pozo Nº 9","postal_code":"11690","places":4,"units":4,"registered":"2026-06-23","catastro":"8202817TF9980S0001RH","holder":null,"holder_count":null}},{"type":"Feature","geometry":{"type":"Point","coordinates":[-5.255867,36.933387]},"properties":{"id":"VUT/CA/06220","type":"VUT","group":"Completa","address":"CALLE PUERTO HERMOSO Nº 2","postal_code":"11690","places":4,"units":2,"registered":"2018-10-26","catastro":"9101052TF9990S0001AB","holder":null,"holder_count":null}},{"type":"Feature","geometry":{"type":"Point","coordinates":[-5.259116,36.935895]},"properties":{"id":"VUT/CA/06223","type":"VUT","group":"Completa","address":"CALLE SANTA ROSA Nº 3","postal_code":"11690","places":4,"units":2,"registered":"2018-10-27","catastro":"8904407TF9980S0001JH","holder":null,"holder_count":null}},{"type":"Feature","geometry":{"type":"Point","coordinates":[-5.255867,36.933387]},"properties":{"id":"VUT/CA/07443","type":"VUT","group":"Completa","address":"CALLE PUERTO HERMOSO Nº 2","postal_code":"11690","places":2,"units":1,"registered":"2019-04-23","catastro":"9101052TF9990S0001AB","holder":null,"holder_count":null}},{"type":"Feature","geometry":{"type":"Point","coordinates":[-5.265586,36.933975]},"properties":{"id":"VUT/CA/07621","type":"VUT","group":"Completa","address":"CALLE PEÑÓN Nº 28","postal_code":"11690","places":8,"units":4,"registered":"2019-05-10","catastro":"8302337TF9980S0001PH","holder":null,"holder_count":null}},{"type":"Feature","geometry":{"type":"Point","coordinates":[-5.270418,36.933103]},"properties":{"id":"VUT/CA/08915","type":"VUT","group":"Completa","address":"CALLE SOCORRO Nº 21","postal_code":"11690","places":6,"units":3,"registered":"2019-10-22","catastro":"8001351TF9980S0001OH","holder":null,"holder_count":null}},{"type":"Feature","geometry":{"type":"Point","coordinates":[-5.265822,36.933992]},"properties":{"id":"VUT/CA/11539","type":"VUT","group":"Completa","address":"CALLE PEÑON Nº 27 Compl.Dom. PEÑON 27 OLVERA CADIZ","postal_code":"11690","places":8,"units":4,"registered":"2021-03-26","catastro":"8302516TF9980S0001ZH","holder":null,"holder_count":null}},{"type":"Feature","geometry":{"type":"Point","coordinates":[-5.252656,36.933623]},"properties":{"id":"VUT/CA/12737","type":"VUT","group":"Por habitaciones","address":"CALLE Sendero Nº 8","postal_code":"11690","places":1,"units":1,"registered":"2021-09-11","catastro":"9501006TF9990S0001XB","holder":null,"holder_count":null}},{"type":"Feature","geometry":{"type":"Point","coordinates":[-5.269986,36.932789]},"properties":{"id":"VUT/CA/12754","type":"VUT","group":"Completa","address":"CALLE Socorro Nº 6","postal_code":"11690","places":7,"units":4,"registered":"2021-09-15","catastro":"8000012tf9889n0001wk","holder":null,"holder_count":null}},{"type":"Feature","geometry":{"type":"Point","coordinates":[-5.252435,36.934231]},"properties":{"id":"VUT/CA/13061","type":"VUT","group":"Completa","address":"AVENIDA JULIAN BESTEIRO Nº 61 Portal 1 Plta/Piso 2 Pta/Letra A, piso 2, puerta A","postal_code":"11690","places":5,"units":3,"registered":"2021-11-27","catastro":"9501001TF9990S0003WX","holder":null,"holder_count":null}},{"type":"Feature","geometry":{"type":"Point","coordinates":[-5.264381,36.934617]},"properties":{"id":"VUT/CA/13121","type":"VUT","group":"Completa","address":"CALLE Zorrilla Nº 25 Pta/Letra Derecha, puerta Derecha","postal_code":"11690","places":8,"units":3,"registered":"2021-12-10","catastro":"8502054tf9980s0001sh","holder":null,"holder_count":null}},{"type":"Feature","geometry":{"type":"Point","coordinates":[-5.264958,36.934766]},"properties":{"id":"VUT/CA/13453","type":"VUT","group":"Completa","address":"CALLE Llana Km 01 Esc. 1 Plta/Piso 2, piso 2","postal_code":"11690","places":7,"units":3,"registered":"2022-02-14","catastro":"8402105TF9980S0003LK","holder":null,"holder_count":null}},{"type":"Feature","geometry":{"type":"Point","coordinates":[-5.262132,36.934272]},"properties":{"id":"VUT/CA/13586","type":"VUT","group":"Completa","address":"CALLE FRANCIA Nº 28","postal_code":"11690","places":7,"units":5,"registered":"2022-03-03","catastro":"8602038TF9980S0001YH","holder":null,"holder_count":null}},{"type":"Feature","geometry":{"type":"Point","coordinates":[-5.243597,36.93468]},"properties":{"id":"VUT/CA/13815","type":"VUT","group":"Completa","address":"CALLE CONEJO Nº 4","postal_code":"11690","places":8,"units":4,"registered":"2022-03-29","catastro":"0490219UF0900S0001XR","holder":null,"holder_count":null}},{"type":"Feature","geometry":{"type":"Point","coordinates":[-5.256365,36.932617]},"properties":{"id":"VUT/CA/17858","type":"VUT","group":"Completa","address":"CALLE ZAHARA Nº 2 Plta/Piso 1 Pta/Letra IZQ, piso 1, puerta IZQ","postal_code":"11690","places":5,"units":3,"registered":"2023-06-07","catastro":"9100801TF9990S0009ZT","holder":null,"holder_count":null}},{"type":"Feature","geometry":{"type":"Point","coordinates":[-5.254001,36.934134]},"properties":{"id":"VUT/CA/19270","type":"VUT","group":"Completa","address":"BARRIADA Coronación Blq. 11 Plta/Piso 1 Pta/Letra A, piso 1, puerta A","postal_code":"11690","places":6,"units":3,"registered":"2023-12-18","catastro":"9401027TF9990S0001RB","holder":null,"holder_count":null}},{"type":"Feature","geometry":{"type":"Point","coordinates":[-5.266879,36.934337]},"properties":{"id":"VUT/CA/21705","type":"VUT","group":"Completa","address":"CALLE maestro amado Nº 28","postal_code":"11690","places":10,"units":5,"registered":"2024-08-06","catastro":"8202352tf9980s0001uh","holder":null,"holder_count":null}},{"type":"Feature","geometry":{"type":"Point","coordinates":[-5.269984,36.933087]},"properties":{"id":"VUT/CA/22139","type":"VUT","group":"Por habitaciones","address":"CALLE moron Nº 32","postal_code":"11690","places":2,"units":2,"registered":"2024-10-13","catastro":"8001354TF9980S0001DH","holder":null,"holder_count":null}},{"type":"Feature","geometry":{"type":"Point","coordinates":[-5.269787,36.933261]},"properties":{"id":"VUT/CA/22994","type":"VUT","group":"Completa","address":"CALLE Morón Nº 33","postal_code":"11690","places":6,"units":2,"registered":"2025-02-15","catastro":"7901242TF9970S0001RS","holder":null,"holder_count":null}},{"type":"Feature","geometry":{"type":"Point","coordinates":[-5.254945,36.934556]},"properties":{"id":"VUT/CA/24334","type":"VUT","group":"Completa","address":"AVENIDA JULIAN BESTEIRO Nº 74 Plta/Piso 2 Pta/Letra IZQ, piso 2, puerta IZQ","postal_code":"11690","places":5,"units":3,"registered":"2025-05-26","catastro":"9302016TF9990S0006LW","holder":null,"holder_count":null}},{"type":"Feature","geometry":{"type":"Point","coordinates":[-5.264964,36.934311]},"properties":{"id":"VUT/CA/24548","type":"VUT","group":"Completa","address":"CALLE Jesus Nº 21","postal_code":"11690","places":4,"units":2,"registered":"2025-06-12","catastro":"8302323TF9980S0001EH","holder":null,"holder_count":null}},{"type":"Feature","geometry":{"type":"Point","coordinates":[-5.266698,36.932726]},"properties":{"id":"VUT/CA/25057","type":"VUT","group":"Completa","address":"CALLE PILAR Nº 2","postal_code":"11690","places":5,"units":2,"registered":"2025-08-03","catastro":"8300801TF9980S0001UH","holder":null,"holder_count":null}},{"type":"Feature","geometry":{"type":"Point","coordinates":[-5.264798,36.93516]},"properties":{"id":"VUT/CA/25218","type":"VUT","group":"Completa","address":"CALLE Mercado Nº 45 Plta/Piso 1, piso 1","postal_code":"11690","places":5,"units":2,"registered":"2025-09-09","catastro":"8303049TF9980S0002HJ","holder":null,"holder_count":null}},{"type":"Feature","geometry":{"type":"Point","coordinates":[-5.259671,36.933777]},"properties":{"id":"VUT/CA/26057","type":"VUT","group":"Por habitaciones","address":"AVENIDA Manuel de Falla Nº 7","postal_code":"11690","places":2,"units":3,"registered":"2026-03-23","catastro":"8901704TF9980S0001PH","holder":null,"holder_count":null}}]}