{"type":"FeatureCollection","municipio":{"slug":"paterna-de-rivera","name":"Paterna de Rivera","total":6,"places":28,"source_updated_at":"2026-10-05"},"features":[{"type":"Feature","geometry":{"type":"Point","coordinates":[-5.858284,36.5177]},"properties":{"id":"VUT/CA/026997","type":"VUT","group":"Completa","address":"ZONA DISEMINADO PONENCIA  POLIGONO 7 PARCELA 53 CAÑADA HONDA Nº 53","postal_code":"11178","places":6,"units":3,"registered":"2026-08-27","catastro":"11025A007000530001UA","holder":null,"holder_count":null}},{"type":"Feature","geometry":{"type":"Point","coordinates":[-5.865768,36.523388]},"properties":{"id":"VUT/CA/07004","type":"VUT","group":"Completa","address":"CALLE LA PARRADA Nº 1 Pta/Letra D, puerta D","postal_code":"11178","places":4,"units":2,"registered":"2019-03-14","catastro":"3560402TF4436S0001FD","holder":null,"holder_count":null}},{"type":"Feature","geometry":{"type":"Point","coordinates":[-5.867299,36.522175]},"properties":{"id":"VUT/CA/18544","type":"VUT","group":"Completa","address":"CALLE Mina Nº 1","postal_code":"11178","places":5,"units":3,"registered":"2023-08-02","catastro":"3359503TF4435N0003OD","holder":null,"holder_count":null}},{"type":"Feature","geometry":{"type":"Point","coordinates":[-5.867132,36.522678]},"properties":{"id":"VUT/CA/21112","type":"VUT","group":"Completa","address":"CALLE Mina Nº 12","postal_code":"11178","places":4,"units":2,"registered":"2024-06-17","catastro":"3459409TF4435N0001EA","holder":null,"holder_count":null}},{"type":"Feature","geometry":{"type":"Point","coordinates":[-5.870105,36.524953]},"properties":{"id":"VUT/CA/24081","type":"VUT","group":"Completa","address":"CALLE FELIPE TEJEDOR Calif.Nº 12","postal_code":"11178","places":2,"units":1,"registered":"2025-04-20","catastro":"3161512TF4436S0001ED","holder":null,"holder_count":null}},{"type":"Feature","geometry":{"type":"Point","coordinates":[-5.866389,36.521608]},"properties":{"id":"VUT/CA/25357","type":"VUT","group":"Completa","address":"CALLE ALCALA Nº 32","postal_code":"11178","places":7,"units":3,"registered":"2025-10-16","catastro":"3458909TF4435N0010QJ","holder":null,"holder_count":null}}]}