{"type":"FeatureCollection","municipio":{"slug":"prado-del-rey","name":"Prado del Rey","total":18,"places":87,"source_updated_at":"2026-10-05"},"features":[{"type":"Feature","geometry":{"type":"Point","coordinates":[-5.553114,36.788623]},"properties":{"id":"VUT/CA/04500","type":"VUT","group":"Completa","address":"PASAJE DON JOAQUIN Nº 5 Compl.Dom. PARALELA A CALLE T.V.E.","postal_code":"11660","places":6,"units":3,"registered":"2018-02-08","catastro":"2346401TF7724E0013MG","holder":null,"holder_count":null}},{"type":"Feature","geometry":{"type":"Point","coordinates":[-5.55729,36.787768]},"properties":{"id":"VUT/CA/06191","type":"VUT","group":"Completa","address":"CALLE FUENTE Nº 4","postal_code":"11660","places":8,"units":4,"registered":"2018-10-23","catastro":"1946313TF7714F0003OD","holder":null,"holder_count":null}},{"type":"Feature","geometry":{"type":"Point","coordinates":[-5.56072,36.785896]},"properties":{"id":"VUT/CA/07246","type":"VUT","group":"Completa","address":"CALLE Victoria Kent Nº 7 Esc. 3 Plta/Piso 17 Compl.Dom. Edificio Mirador de El Rey, piso 17","postal_code":"11660","places":2,"units":1,"registered":"2019-04-22","catastro":"1643101TF7714D0042WX","holder":null,"holder_count":null}},{"type":"Feature","geometry":{"type":"Point","coordinates":[-5.56072,36.785896]},"properties":{"id":"VUT/CA/08138","type":"VUT","group":"Completa","address":"CALLE VICTORIA KENT Nº 7 Esc. 4 Plta/Piso BAJO Pta/Letra 15, piso BAJO, puerta 15","postal_code":"11660","places":2,"units":1,"registered":"2019-06-26","catastro":"1643101TF7714D0040MB","holder":null,"holder_count":null}},{"type":"Feature","geometry":{"type":"Point","coordinates":[-5.558147,36.788702]},"properties":{"id":"VUT/CA/08650","type":"VUT","group":"Completa","address":"CALLE Cruz Nº 29 Plta/Piso 2º Pta/Letra E, piso 2º, puerta E","postal_code":"11660","places":5,"units":2,"registered":"2019-08-26","catastro":"1847424TF7714E0005IY","holder":null,"holder_count":null}},{"type":"Feature","geometry":{"type":"Point","coordinates":[-5.559915,36.785312]},"properties":{"id":"VUT/CA/17993","type":"VUT","group":"Completa","address":"CALLE CLARA CAMPOAMOR Nº 7 Plta/Piso 2 Pta/Letra A, piso 2, puerta A","postal_code":"11660","places":4,"units":2,"registered":"2023-06-20","catastro":"1643701TF7714D0039EX","holder":null,"holder_count":null}},{"type":"Feature","geometry":{"type":"Point","coordinates":[-5.557224,36.789975]},"properties":{"id":"VUT/CA/19843","type":"VUT","group":"Por habitaciones","address":"CALLE TENIENTE TRUJILLO 62 Nº 62 Plta/Piso BAJA Pta/Letra Z, piso BAJA, puerta Z","postal_code":"11660","places":6,"units":2,"registered":"2024-02-29","catastro":"1948330TF7714H0001QY","holder":null,"holder_count":null}},{"type":"Feature","geometry":{"type":"Point","coordinates":[-5.55518,36.789315]},"properties":{"id":"VUT/CA/19885","type":"VUT","group":"Completa","address":"CALLE VILLAMARTIN Nº 1 Plta/Piso 3 Pta/Letra A, piso 3, puerta A","postal_code":"11660","places":7,"units":3,"registered":"2024-03-05","catastro":"2148003TF7724G0018PG","holder":null,"holder_count":null}},{"type":"Feature","geometry":{"type":"Point","coordinates":[-5.559168,36.783842]},"properties":{"id":"VUT/CA/21389","type":"VUT","group":"Completa","address":"CALLE LOS GRANUJALES Nº 18","postal_code":"11660","places":6,"units":3,"registered":"2024-07-08","catastro":"1741901TF7714A0005FH","holder":null,"holder_count":null}},{"type":"Feature","geometry":{"type":"Point","coordinates":[-5.556742,36.78725]},"properties":{"id":"VUT/CA/21614","type":"VUT","group":"Completa","address":"CALLE CALVO SOTELO Nº 2 Plta/Piso 2, piso 2","postal_code":"11660","places":4,"units":3,"registered":"2024-07-27","catastro":"2045701TF7724E0002MU","holder":null,"holder_count":null}},{"type":"Feature","geometry":{"type":"Point","coordinates":[-5.557184,36.789874]},"properties":{"id":"VUT/CA/22222","type":"VUT","group":"Completa","address":"CALLE TENIENTE TRUJILLO 48 A Nº 48 Plta/Piso BAJA Pta/Letra A Compl.Dom. CALLE TENIENTE TRUJILLO 48A PLANTA BAJA, piso BAJA, puerta A","postal_code":"11660","places":4,"units":2,"registered":"2024-10-24","catastro":"1948329TF7714H0004XO","holder":null,"holder_count":null}},{"type":"Feature","geometry":{"type":"Point","coordinates":[-5.560669,36.786602]},"properties":{"id":"VUT/CA/22267","type":"VUT","group":"Completa","address":"CALLE MURILLO Nº 18","postal_code":"11660","places":6,"units":2,"registered":"2024-10-31","catastro":"1644603TF7714D0006ZZ","holder":null,"holder_count":null}},{"type":"Feature","geometry":{"type":"Point","coordinates":[-5.55569,36.791528]},"properties":{"id":"VUT/CA/22372","type":"VUT","group":"Completa","address":"CALLE Bellavista Nº 46 Portal 48 Plta/Piso 2 Pta/Letra c, piso 2, puerta c","postal_code":"11660","places":5,"units":3,"registered":"2024-11-18","catastro":"2150517TF7725A0005XF","holder":null,"holder_count":null}},{"type":"Feature","geometry":{"type":"Point","coordinates":[-5.535033,36.789301]},"properties":{"id":"VUT/CA/23145","type":"VUT","group":"Completa","address":"CARRETERA Villamartín-Ubrique 4  14 Nº 4","postal_code":"11660","places":6,"units":4,"registered":"2025-03-03","catastro":"53026A006000230000MD","holder":null,"holder_count":null}},{"type":"Feature","geometry":{"type":"Point","coordinates":[-5.556892,36.788203]},"properties":{"id":"VUT/CA/25268","type":"VUT","group":"Completa","address":"CALLE teniente trujillo Nº 10","postal_code":"11660","places":3,"units":3,"registered":"2025-09-24","catastro":"2046717TF7724E0001YY","holder":null,"holder_count":null}},{"type":"Feature","geometry":{"type":"Point","coordinates":[-5.559133,36.787569]},"properties":{"id":"VUT/CA/25803","type":"VUT","group":"Completa","address":"CALLE NUESTRA SEÑORA DEL CARMEN Nº 44","postal_code":"11660","places":4,"units":2,"registered":"2026-02-06","catastro":"1846714TF7714F0001JA","holder":null,"holder_count":null}},{"type":"Feature","geometry":{"type":"Point","coordinates":[-5.560109,36.785515]},"properties":{"id":"VUT/CA/25904","type":"VUT","group":"Completa","address":"CALLE CLARA CAMPOAMOR Nº 14 Plta/Piso 1º, piso 1º","postal_code":"11660","places":5,"units":3,"registered":"2026-02-25","catastro":"1743809TF7714D0008EM","holder":null,"holder_count":null}},{"type":"Feature","geometry":{"type":"Point","coordinates":[-5.560669,36.786602]},"properties":{"id":"VUT/CA/26004","type":"VUT","group":"Completa","address":"CALLE PINTOR MURILLO Nº 18","postal_code":"11660","places":4,"units":2,"registered":"2026-03-16","catastro":"1644603TF7714D0006ZZ","holder":null,"holder_count":null}}]}