{"type":"FeatureCollection","municipio":{"slug":"puerto-real","name":"Puerto Real","total":190,"places":1049,"source_updated_at":"2026-10-05"},"features":[{"type":"Feature","geometry":{"type":"Point","coordinates":[-6.200246,36.529997]},"properties":{"id":"VUT/CA/00462","type":"VUT","group":"Completa","address":"CALLE DE LA ERMITA Nº 34 Plta/Piso 1 Pta/Letra A, piso 1, puerta A","postal_code":"11510","places":5,"units":3,"registered":"2016-06-14","catastro":"0865301QA5406N0057RQ","holder":null,"holder_count":null}},{"type":"Feature","geometry":{"type":"Point","coordinates":[-6.132946,36.499976]},"properties":{"id":"VUT/CA/00988","type":"VUT","group":"Por habitaciones","address":"CALLE VILLA ROMANA Nº 10","postal_code":"11518","places":6,"units":3,"registered":"2016-08-12","catastro":"6834502QA5463S0003LS","holder":null,"holder_count":null}},{"type":"Feature","geometry":{"type":"Point","coordinates":[-6.194837,36.528819]},"properties":{"id":"VUT/CA/01140","type":"VUT","group":"Completa","address":"CALLE ROSARIO Nº 15 Plta/Piso 3 Pta/Letra C, piso 3, puerta C","postal_code":"11510","places":6,"units":4,"registered":"2016-09-12","catastro":"1264309QA6416S0027LR","holder":null,"holder_count":null}},{"type":"Feature","geometry":{"type":"Point","coordinates":[-6.228007,36.52367]},"properties":{"id":"VUT/CA/01534","type":"VUT","group":"Completa","address":"PLAZA DE CUBA Nº 6 Plta/Piso 4 Pta/Letra B, piso 4, puerta B","postal_code":"11519","places":5,"units":3,"registered":"2016-10-28","catastro":"8358801QA4485N0069LD","holder":null,"holder_count":null}},{"type":"Feature","geometry":{"type":"Point","coordinates":[-6.173251,36.536797]},"properties":{"id":"VUT/CA/02100","type":"VUT","group":"Completa","address":"CALLE LEON FELIPE Nº 25 Pta/Letra 2, puerta 2","postal_code":"11510","places":4,"units":3,"registered":"2017-02-01","catastro":"3174701QA5437S0039KE","holder":null,"holder_count":null}},{"type":"Feature","geometry":{"type":"Point","coordinates":[-6.201107,36.532501]},"properties":{"id":"VUT/CA/02352","type":"VUT","group":"Completa","address":"CALLE MEANDRO Nº 10 Plta/Piso 2 Pta/Letra A, piso 2, puerta A","postal_code":"11519","places":4,"units":3,"registered":"2017-03-09","catastro":"0668614QA5406N0011AD","holder":null,"holder_count":null}},{"type":"Feature","geometry":{"type":"Point","coordinates":[-6.199161,36.530896]},"properties":{"id":"VUT/CA/026379","type":"VUT","group":"Completa","address":"CALLE PLAYA Nº 1 Plta/Piso BJ Pta/Letra C Compl.Dom. Poligono 8-B, piso BJ, puerta C","postal_code":"11510","places":5,"units":2,"registered":"2026-05-06","catastro":"0967001QA5406N0069EP","holder":"INVERSIONES EL ITALIANO SL","holder_count":1}},{"type":"Feature","geometry":{"type":"Point","coordinates":[-6.170017,36.523411]},"properties":{"id":"VUT/CA/026389","type":"VUT","group":"Por habitaciones","address":"CALLE SOLIDARIDAD OBRERA Nº 22 Pta/Letra 6, puerta 6","postal_code":"11510","places":2,"units":1,"registered":"2026-05-07","catastro":"3559201QA5435N0003OE","holder":null,"holder_count":null}},{"type":"Feature","geometry":{"type":"Point","coordinates":[-6.226911,36.522756]},"properties":{"id":"VUT/CA/026984","type":"VUT","group":"Por habitaciones","address":"AVENIDA FERMIN SALVOCHEA Nº 22 Plta/Piso 2 Pta/Letra C, piso 2, puerta C","postal_code":"11519","places":5,"units":3,"registered":"2026-08-19","catastro":"8457903QA5485N0007UR","holder":null,"holder_count":null}},{"type":"Feature","geometry":{"type":"Point","coordinates":[-6.184025,36.526163]},"properties":{"id":"VUT/CA/02842","type":"VUT","group":"Completa","address":"CALLE Bergantin Nº 4 Plta/Piso 1 Pta/Letra b, piso 1, puerta b","postal_code":"11510","places":4,"units":2,"registered":"2017-05-25","catastro":"2262603qa6426s0002us","holder":null,"holder_count":null}},{"type":"Feature","geometry":{"type":"Point","coordinates":[-6.187599,36.52557]},"properties":{"id":"VUT/CA/02877","type":"VUT","group":"Completa","address":"CALLE CONCEPCION Nº 5 Blq. 11 Plta/Piso 2 Pta/Letra A, piso 2, puerta A","postal_code":"11510","places":5,"units":3,"registered":"2017-05-31","catastro":"1961602QA6416S0005LA","holder":null,"holder_count":null}},{"type":"Feature","geometry":{"type":"Point","coordinates":[-6.182558,36.531385]},"properties":{"id":"VUT/CA/03237","type":"VUT","group":"Completa","address":"CALLE Doctor Sánchez Bish Nº 10","postal_code":"11510","places":6,"units":3,"registered":"2017-07-06","catastro":"2468002QA5426N0037FK","holder":null,"holder_count":null}},{"type":"Feature","geometry":{"type":"Point","coordinates":[-6.184271,36.539412]},"properties":{"id":"VUT/CA/03423","type":"VUT","group":"Por habitaciones","address":"CAMINO DALÍ Nº 4","postal_code":"11510","places":2,"units":1,"registered":"2017-08-06","catastro":"2476302QA6427N0001QB","holder":null,"holder_count":null}},{"type":"Feature","geometry":{"type":"Point","coordinates":[-6.18752,36.525716]},"properties":{"id":"VUT/CA/03591","type":"VUT","group":"Completa","address":"CALLE CONCEPCION Nº 7 Portal 2 Pta/Letra D, puerta D","postal_code":"11510","places":6,"units":3,"registered":"2017-09-07","catastro":"1961601QA6416S0008DF","holder":null,"holder_count":null}},{"type":"Feature","geometry":{"type":"Point","coordinates":[-6.184853,36.526354]},"properties":{"id":"VUT/CA/03594","type":"VUT","group":"Completa","address":"CALLE LAS PALMERAS Nº 1 Plta/Piso 2 Pta/Letra B, piso 2, puerta B","postal_code":"11510","places":6,"units":3,"registered":"2017-09-07","catastro":"2162604QA6426S0006TH","holder":null,"holder_count":null}},{"type":"Feature","geometry":{"type":"Point","coordinates":[-6.178738,36.525278]},"properties":{"id":"VUT/CA/03645","type":"VUT","group":"Por habitaciones","address":"CALLE ALGODONALES Nº 47 Compl.Dom. URB. MIRAMAR","postal_code":"11510","places":5,"units":2,"registered":"2017-09-12","catastro":"2760302QA6426S0001RA","holder":null,"holder_count":null}},{"type":"Feature","geometry":{"type":"Point","coordinates":[-6.132946,36.499976]},"properties":{"id":"VUT/CA/04551","type":"VUT","group":"Completa","address":"CALLE VILLA ROMANA Nº 12 Plta/Piso 0 Compl.Dom. VILLANUEVA GOLF, piso 0","postal_code":"11518","places":8,"units":4,"registered":"2018-02-21","catastro":"6834502QA5463S0002KA","holder":null,"holder_count":null}},{"type":"Feature","geometry":{"type":"Point","coordinates":[-6.229172,36.524473]},"properties":{"id":"VUT/CA/04556","type":"VUT","group":"Completa","address":"AVENIDA DE ARGENTINA Nº 22 Portal 1 Plta/Piso BAJO Pta/Letra B, piso BAJO, puerta B","postal_code":"11519","places":6,"units":3,"registered":"2018-02-21","catastro":"8259101QA4485N0036ES","holder":null,"holder_count":null}},{"type":"Feature","geometry":{"type":"Point","coordinates":[-6.229125,36.52137]},"properties":{"id":"VUT/CA/05109","type":"VUT","group":"Completa","address":"CALLE Candelero Nº 2","postal_code":"11519","places":4,"units":2,"registered":"2018-05-21","catastro":"8255153QA5485N0001FZ","holder":null,"holder_count":null}},{"type":"Feature","geometry":{"type":"Point","coordinates":[-6.192296,36.53058]},"properties":{"id":"VUT/CA/05408","type":"VUT","group":"Por habitaciones","address":"BARRIADA SAN ELOY Portal 6 Plta/Piso 4 Pta/Letra B, piso 4, puerta B","postal_code":"11510","places":3,"units":2,"registered":"2018-06-22","catastro":"1566805QA6416N0015EP","holder":null,"holder_count":null}},{"type":"Feature","geometry":{"type":"Point","coordinates":[-6.228629,36.521423]},"properties":{"id":"VUT/CA/05486","type":"VUT","group":"Completa","address":"CALLE Genova Nº 2","postal_code":"11519","places":6,"units":3,"registered":"2018-07-04","catastro":"8356757QA5485N0001WZ","holder":null,"holder_count":null}},{"type":"Feature","geometry":{"type":"Point","coordinates":[-6.191817,36.529325]},"properties":{"id":"VUT/CA/05907","type":"VUT","group":"Por habitaciones","address":"CALLE Soledad Plta/Piso 1 Pta/Letra D, piso 1, puerta D","postal_code":"11510","places":2,"units":3,"registered":"2018-09-05","catastro":"1565401QA6416N0009SU","holder":null,"holder_count":null}},{"type":"Feature","geometry":{"type":"Point","coordinates":[-6.177101,36.525375]},"properties":{"id":"VUT/CA/05908","type":"VUT","group":"Completa","address":"CALLE ALGODONALES Nº 20 Blq. III Plta/Piso 1 Pta/Letra F, piso 1, puerta F","postal_code":"11510","places":5,"units":3,"registered":"2018-09-05","catastro":"3061406QA5426S0121BH","holder":null,"holder_count":null}},{"type":"Feature","geometry":{"type":"Point","coordinates":[-6.189882,36.530028]},"properties":{"id":"VUT/CA/06012","type":"VUT","group":"Completa","address":"CALLE SANTA TERESA DE CALCUTA Nº 49 Plta/Piso 1 Pta/Letra B Compl.Dom. PLAZA CIUDAD DE LA HABANA, 2, piso 1, puerta B","postal_code":"11510","places":6,"units":3,"registered":"2018-09-21","catastro":"1765115QA6416N0013GI","holder":"PROYECTOS Y DESARROLLOS INTEGRALES 2000, SL","holder_count":1}},{"type":"Feature","geometry":{"type":"Point","coordinates":[-6.193579,36.530803]},"properties":{"id":"VUT/CA/06141","type":"VUT","group":"Completa","address":"CALLE SAN JUAN BAUTISTA DE LA SALLE Nº 1 Plta/Piso 2 Pta/Letra A, piso 2, puerta A","postal_code":"11510","places":6,"units":3,"registered":"2018-10-17","catastro":"1367510QA6416N0004XW","holder":null,"holder_count":null}},{"type":"Feature","geometry":{"type":"Point","coordinates":[-6.200704,36.532673]},"properties":{"id":"VUT/CA/06376","type":"VUT","group":"Completa","address":"CALLE ESTUARIO Nº 24 Compl.Dom. URBANIZACION MARINA DE LA BAHIA","postal_code":"11510","places":6,"units":3,"registered":"2018-11-20","catastro":"0769023QA5406N0001IY","holder":null,"holder_count":null}},{"type":"Feature","geometry":{"type":"Point","coordinates":[-6.199593,36.531346]},"properties":{"id":"VUT/CA/06499","type":"VUT","group":"Completa","address":"CALLE REAL Nº 247 Esc. 1","postal_code":"11510","places":5,"units":3,"registered":"2018-12-12","catastro":"0867806QA5406N0029FT","holder":null,"holder_count":null}},{"type":"Feature","geometry":{"type":"Point","coordinates":[-6.229156,36.521875]},"properties":{"id":"VUT/CA/06504","type":"VUT","group":"Completa","address":"CALLE MAYOR Nº 15","postal_code":"11510","places":3,"units":2,"registered":"2018-12-13","catastro":"8255145QA5485N0001GZ","holder":null,"holder_count":null}},{"type":"Feature","geometry":{"type":"Point","coordinates":[-6.189059,36.525551]},"properties":{"id":"VUT/CA/06579","type":"VUT","group":"Completa","address":"CALLE Carretas3 Portal H Plta/Piso Baja Pta/Letra Izquierda Compl.Dom. Urbanización Brisas del Mar, piso Baja, puerta Izquierda","postal_code":"11510","places":4,"units":2,"registered":"2019-01-03","catastro":"1861101QA5416S0121AS","holder":null,"holder_count":null}},{"type":"Feature","geometry":{"type":"Point","coordinates":[-6.189963,36.528347]},"properties":{"id":"VUT/CA/06764","type":"VUT","group":"Por habitaciones","address":"CALLE ANCHA Nº 46","postal_code":"11510","places":2,"units":1,"registered":"2019-02-05","catastro":"1764604QA6416S0001KU","holder":null,"holder_count":null}},{"type":"Feature","geometry":{"type":"Point","coordinates":[-6.228007,36.52367]},"properties":{"id":"VUT/CA/06911","type":"VUT","group":"Completa","address":"CALLE PLAZA DE CUBA Nº 5 Plta/Piso 1 Pta/Letra A, piso 1, puerta A","postal_code":"11510","places":6,"units":3,"registered":"2019-02-20","catastro":"8358801QA4485N0052TX","holder":null,"holder_count":null}},{"type":"Feature","geometry":{"type":"Point","coordinates":[-6.229172,36.524473]},"properties":{"id":"VUT/CA/07028","type":"VUT","group":"Completa","address":"AVENIDA de Argentina Nº 22 Blq. 3 Plta/Piso BAJO, piso BAJO","postal_code":"11519","places":6,"units":3,"registered":"2019-03-19","catastro":"8259101QA4485N0062BY","holder":null,"holder_count":null}},{"type":"Feature","geometry":{"type":"Point","coordinates":[-6.229458,36.521835]},"properties":{"id":"VUT/CA/07268","type":"VUT","group":"Completa","address":"CALLE Borda Nº 1","postal_code":"11510","places":6,"units":3,"registered":"2019-04-23","catastro":"8255136QA5485N0001UZ","holder":null,"holder_count":null}},{"type":"Feature","geometry":{"type":"Point","coordinates":[-6.192054,36.532003]},"properties":{"id":"VUT/CA/07992","type":"VUT","group":"Por habitaciones","address":"CALLE SAN ANTONIO DE PADUA Nº 33","postal_code":"11510","places":6,"units":3,"registered":"2019-06-13","catastro":"1568762QA6416N0001RX","holder":null,"holder_count":null}},{"type":"Feature","geometry":{"type":"Point","coordinates":[-6.189674,36.526942]},"properties":{"id":"VUT/CA/07993","type":"VUT","group":"Completa","address":"CALLE CRUZ VERDE Nº 17 Plta/Piso 2, piso 2","postal_code":"11510","places":4,"units":2,"registered":"2019-06-13","catastro":"1762218QA6416S0001XU","holder":null,"holder_count":null}},{"type":"Feature","geometry":{"type":"Point","coordinates":[-6.192709,36.528446]},"properties":{"id":"VUT/CA/08097","type":"VUT","group":"Completa","address":"CALLE de La Plaza Nº 155 Plta/Piso 2 Pta/Letra I, piso 2, puerta I","postal_code":"11510","places":6,"units":2,"registered":"2019-06-24","catastro":"1464505QA6416S0007UD","holder":null,"holder_count":null}},{"type":"Feature","geometry":{"type":"Point","coordinates":[-6.194525,36.530702]},"properties":{"id":"VUT/CA/08136","type":"VUT","group":"Completa","address":"CALLE SAN VICENTE Nº 3 Plta/Piso 3 Pta/Letra E, piso 3, puerta E","postal_code":"11510","places":4,"units":3,"registered":"2019-06-26","catastro":"1366103QA6416N0046KO","holder":null,"holder_count":null}},{"type":"Feature","geometry":{"type":"Point","coordinates":[-6.175492,36.538462]},"properties":{"id":"VUT/CA/08531","type":"VUT","group":"Completa","address":"CALLE LEON FELIPE Nº 61","postal_code":"11510","places":5,"units":3,"registered":"2019-08-08","catastro":"2976702QA5427N0027BT","holder":null,"holder_count":null}},{"type":"Feature","geometry":{"type":"Point","coordinates":[-6.192296,36.53058]},"properties":{"id":"VUT/CA/09233","type":"VUT","group":"Completa","address":"CALLE SAN ELOY Blq. 6 Plta/Piso 4 Pta/Letra C, piso 4, puerta C","postal_code":"11510","places":5,"units":3,"registered":"2019-11-21","catastro":"1566805QA6416N0016RA","holder":null,"holder_count":null}},{"type":"Feature","geometry":{"type":"Point","coordinates":[-6.180098,36.530036]},"properties":{"id":"VUT/CA/09261","type":"VUT","group":"Completa","address":"CALLE PINTOR EIRIZ Nº 41 Pta/Letra 34, puerta 34","postal_code":"11510","places":8,"units":3,"registered":"2019-11-22","catastro":"2666904QA5426N0034HG","holder":null,"holder_count":null}},{"type":"Feature","geometry":{"type":"Point","coordinates":[-6.228886,36.521792]},"properties":{"id":"VUT/CA/09470","type":"VUT","group":"Completa","address":"CALLE ESLORA Nº 6","postal_code":"11510","places":6,"units":3,"registered":"2019-12-12","catastro":"8356711QA5485N0001KZ","holder":null,"holder_count":null}},{"type":"Feature","geometry":{"type":"Point","coordinates":[-6.201143,36.531332]},"properties":{"id":"VUT/CA/09472","type":"VUT","group":"Completa","address":"CALLE Amargura Nº 147","postal_code":"11510","places":6,"units":5,"registered":"2019-12-12","catastro":"0767003QA5406N0001PY","holder":null,"holder_count":null}},{"type":"Feature","geometry":{"type":"Point","coordinates":[-6.230286,36.524297]},"properties":{"id":"VUT/CA/09893","type":"VUT","group":"Por habitaciones","address":"AVENIDA DE ARGENTINA Nº 26 Portal 2 Plta/Piso 1 Pta/Letra A, piso 1, puerta A","postal_code":"11519","places":5,"units":2,"registered":"2020-02-10","catastro":"8058102QA4485N0089GR","holder":null,"holder_count":null}},{"type":"Feature","geometry":{"type":"Point","coordinates":[-6.230286,36.524297]},"properties":{"id":"VUT/CA/09971","type":"VUT","group":"Completa","address":"AVENIDA Argentina (de) Nº 24 Blq. 3 Portal 1 Plta/Piso 2 Pta/Letra c Compl.Dom. edificio vista bahía segunda fase, piso 2, puerta c","postal_code":"11519","places":4,"units":2,"registered":"2020-02-18","catastro":"8058102QA4485N0011RH","holder":null,"holder_count":null}},{"type":"Feature","geometry":{"type":"Point","coordinates":[-6.197054,36.529197]},"properties":{"id":"VUT/CA/10224","type":"VUT","group":"Completa","address":"CALLE ENMEDIO Nº 1 Portal A","postal_code":"11510","places":3,"units":1,"registered":"2020-03-19","catastro":"1064213QA6416S0003XO","holder":null,"holder_count":null}},{"type":"Feature","geometry":{"type":"Point","coordinates":[-6.193083,36.532547]},"properties":{"id":"VUT/CA/10439","type":"VUT","group":"Completa","address":"CALLE SAN ALEJANDRO Nº 97 Plta/Piso 3 Pta/Letra IZQUIERDA, piso 3, puerta IZQUIERDA","postal_code":"11510","places":6,"units":3,"registered":"2020-06-03","catastro":"1568722QA6416N0005OE","holder":null,"holder_count":null}},{"type":"Feature","geometry":{"type":"Point","coordinates":[-6.194915,36.532706]},"properties":{"id":"VUT/CA/10571","type":"VUT","group":"Completa","address":"CALLE Amapola Nº 1","postal_code":"11510","places":4,"units":4,"registered":"2020-06-22","catastro":"1269501QA6416N0059EL","holder":null,"holder_count":null}},{"type":"Feature","geometry":{"type":"Point","coordinates":[-6.197277,36.533139]},"properties":{"id":"VUT/CA/10661","type":"VUT","group":"Completa","address":"CALLE SALINAS Nº 5 Plta/Piso 2º Pta/Letra C, piso 2º, puerta C","postal_code":"11510","places":4,"units":4,"registered":"2020-07-01","catastro":"1069801QA5416S0099DB","holder":null,"holder_count":null}},{"type":"Feature","geometry":{"type":"Point","coordinates":[-6.201221,36.532431]},"properties":{"id":"VUT/CA/10678","type":"VUT","group":"Completa","address":"CALLE Meandro Nº 14","postal_code":"11510","places":8,"units":3,"registered":"2020-07-03","catastro":"0668628QA5406N0001AY","holder":null,"holder_count":null}},{"type":"Feature","geometry":{"type":"Point","coordinates":[-6.200829,36.532337]},"properties":{"id":"VUT/CA/10679","type":"VUT","group":"Completa","address":"CALLE Meandro Nº 4","postal_code":"11510","places":8,"units":3,"registered":"2020-07-03","catastro":"0668625QA5406N0001UY","holder":null,"holder_count":null}},{"type":"Feature","geometry":{"type":"Point","coordinates":[-6.200722,36.531232]},"properties":{"id":"VUT/CA/10709","type":"VUT","group":"Completa","address":"CALLE Amargura Nº 274","postal_code":"11510","places":10,"units":4,"registered":"2020-07-08","catastro":"0867002QA5406N0010XS","holder":"Calle Real 14 S.L.","holder_count":1}},{"type":"Feature","geometry":{"type":"Point","coordinates":[-6.191723,36.526815]},"properties":{"id":"VUT/CA/10757","type":"VUT","group":"Completa","address":"CALLE Ribera del Muelle Blq. 32 Portal B Plta/Piso 1 Pta/Letra Derecha, piso 1, puerta Derecha","postal_code":"11510","places":4,"units":3,"registered":"2020-07-14","catastro":"1562301QA6416S0033IU","holder":null,"holder_count":null}},{"type":"Feature","geometry":{"type":"Point","coordinates":[-6.192404,36.530309]},"properties":{"id":"VUT/CA/11233","type":"VUT","group":"Completa","address":"CALLE SAN ELOY Nº 5 Plta/Piso 4 Pta/Letra A, piso 4, puerta A","postal_code":"11510","places":6,"units":3,"registered":"2020-12-29","catastro":"1566804QA6416N0017LS","holder":null,"holder_count":null}},{"type":"Feature","geometry":{"type":"Point","coordinates":[-6.184257,36.528942]},"properties":{"id":"VUT/CA/11510","type":"VUT","group":"Completa","address":"CALLE UBRIQUE Nº 32 Plta/Piso 1 Pta/Letra B, piso 1, puerta B","postal_code":"11510","places":8,"units":3,"registered":"2021-03-22","catastro":"2165516QA6426N0080OS","holder":null,"holder_count":null}},{"type":"Feature","geometry":{"type":"Point","coordinates":[-6.189674,36.526942]},"properties":{"id":"VUT/CA/11601","type":"VUT","group":"Completa","address":"CALLE CRUZ VERDE Nº 17 Plta/Piso Bajo Pta/Letra Izq, piso Bajo, puerta Izq","postal_code":"11510","places":4,"units":1,"registered":"2021-04-13","catastro":"1762218QA6416S0001XU","holder":null,"holder_count":null}},{"type":"Feature","geometry":{"type":"Point","coordinates":[-6.230286,36.524297]},"properties":{"id":"VUT/CA/11660","type":"VUT","group":"Completa","address":"AVENIDA Argentina Nº 24 Portal 2 Plta/Piso bajo Pta/Letra c, piso bajo, puerta c","postal_code":"11519","places":4,"units":2,"registered":"2021-04-23","catastro":"8058102QA4485N0015IB","holder":null,"holder_count":null}},{"type":"Feature","geometry":{"type":"Point","coordinates":[-6.229172,36.524473]},"properties":{"id":"VUT/CA/11804","type":"VUT","group":"Completa","address":"AVENIDA ARGENTINA Nº 22 Blq. 2 Portal 2 Plta/Piso BAJO Pta/Letra D, piso BAJO, puerta D","postal_code":"11519","places":6,"units":3,"registered":"2021-05-14","catastro":"8259101QA4485N0050AB","holder":null,"holder_count":null}},{"type":"Feature","geometry":{"type":"Point","coordinates":[-6.200246,36.529997]},"properties":{"id":"VUT/CA/12070","type":"VUT","group":"Completa","address":"CALLE gallinero Nº 41 Plta/Piso 1 Pta/Letra B, piso 1, puerta B","postal_code":"11510","places":7,"units":3,"registered":"2021-06-09","catastro":"0865301QA5406N0046LH","holder":null,"holder_count":null}},{"type":"Feature","geometry":{"type":"Point","coordinates":[-6.294566,36.534086]},"properties":{"id":"VUT/CA/13138","type":"VUT","group":"Completa","address":"CALLE Beato Diego de Cádiz Nº 11 Plta/Piso 2 Pta/Letra c, piso 2, puerta c","postal_code":"11510","places":5,"units":2,"registered":"2021-12-15","catastro":"2367105QA4426E0007RL","holder":null,"holder_count":null}},{"type":"Feature","geometry":{"type":"Point","coordinates":[-6.201107,36.532501]},"properties":{"id":"VUT/CA/13376","type":"VUT","group":"Completa","address":"CALLE Estuario Nº 7A Compl.Dom. MARINA DE LA BAHIA","postal_code":"11510","places":4,"units":2,"registered":"2022-02-03","catastro":"0668614QA5406N0004UO","holder":null,"holder_count":null}},{"type":"Feature","geometry":{"type":"Point","coordinates":[-6.186605,36.526093]},"properties":{"id":"VUT/CA/14359","type":"VUT","group":"Completa","address":"CALLE ANGEL Nº 1 Plta/Piso 2º Pta/Letra A, piso 2º, puerta A","postal_code":"11510","places":7,"units":4,"registered":"2022-05-24","catastro":"2061201QA6426S0001YA","holder":"PLATISSIMO, S.L.","holder_count":2}},{"type":"Feature","geometry":{"type":"Point","coordinates":[-6.183177,36.526031]},"properties":{"id":"VUT/CA/14360","type":"VUT","group":"Completa","address":"CALLE TRAFALGAR Blq. 7 Plta/Piso 2º Pta/Letra A, piso 2º, puerta A","postal_code":"11510","places":6,"units":3,"registered":"2022-05-24","catastro":"2361402QA6426S0005EG","holder":null,"holder_count":null}},{"type":"Feature","geometry":{"type":"Point","coordinates":[-6.186181,36.526518]},"properties":{"id":"VUT/CA/14463","type":"VUT","group":"Completa","address":"CALLE ESCOLANO MORENO Blq. 4 Plta/Piso 3º Pta/Letra B, piso 3º, puerta B","postal_code":"11510","places":7,"units":4,"registered":"2022-06-01","catastro":"2062502QA6426S0004SF","holder":"PLATISSIMO, S.L.","holder_count":2}},{"type":"Feature","geometry":{"type":"Point","coordinates":[-6.191841,36.529746]},"properties":{"id":"VUT/CA/14578","type":"VUT","group":"Completa","address":"CALLE SAN JOSE Nº 56 Plta/Piso BAJO Pta/Letra 5, piso BAJO, puerta 5","postal_code":"11510","places":6,"units":4,"registered":"2022-06-07","catastro":"1566820QA6416N0005IE","holder":null,"holder_count":null}},{"type":"Feature","geometry":{"type":"Point","coordinates":[-6.186605,36.526093]},"properties":{"id":"VUT/CA/14906","type":"VUT","group":"Completa","address":"CALLE ANGEL Nº 1 Plta/Piso 3 Pta/Letra B, piso 3, puerta B","postal_code":"11510","places":6,"units":4,"registered":"2022-06-30","catastro":"2061201QA6426S0006AH","holder":null,"holder_count":null}},{"type":"Feature","geometry":{"type":"Point","coordinates":[-6.194915,36.532706]},"properties":{"id":"VUT/CA/14914","type":"VUT","group":"Completa","address":"CALLE Amapola Nº 11","postal_code":"11510","places":6,"units":4,"registered":"2022-06-30","catastro":"1269501QA6416N0005PE","holder":null,"holder_count":null}},{"type":"Feature","geometry":{"type":"Point","coordinates":[-6.229559,36.5213]},"properties":{"id":"VUT/CA/14970","type":"VUT","group":"Completa","address":"CALLE TRAPA Nº 2 Esc. T Plta/Piso OD Pta/Letra 0S, piso OD, puerta 0S","postal_code":"11510","places":8,"units":2,"registered":"2022-07-05","catastro":"8255169QA5485N0001HZ","holder":null,"holder_count":null}},{"type":"Feature","geometry":{"type":"Point","coordinates":[-6.195923,36.533888]},"properties":{"id":"VUT/CA/15131","type":"VUT","group":"Completa","address":"CALLE SAN ALEJANDRO Nº 124 Compl.Dom. PROLONGACIÓN CALLE SAN ALEJANDRO","postal_code":"11510","places":8,"units":4,"registered":"2022-07-19","catastro":"1170601QA5417S0001IS","holder":null,"holder_count":null}},{"type":"Feature","geometry":{"type":"Point","coordinates":[-6.195889,36.529749]},"properties":{"id":"VUT/CA/15338","type":"VUT","group":"Completa","address":"PLAZA ALAMEDA Blq. 2 Plta/Piso 1 Pta/Letra A, piso 1, puerta A","postal_code":"11510","places":4,"units":3,"registered":"2022-08-12","catastro":"1165303QA6416N0015GP","holder":null,"holder_count":null}},{"type":"Feature","geometry":{"type":"Point","coordinates":[-6.228455,36.521897]},"properties":{"id":"VUT/CA/15384","type":"VUT","group":"Completa","address":"CALLE BRAZOLA Nº 6","postal_code":"11510","places":12,"units":3,"registered":"2022-08-19","catastro":"8356727QA5485N0001BZ","holder":null,"holder_count":null}},{"type":"Feature","geometry":{"type":"Point","coordinates":[-6.183177,36.526031]},"properties":{"id":"VUT/CA/15435","type":"VUT","group":"Por habitaciones","address":"CALLE TRAFALGAR Blq. 7 Plta/Piso 3 Pta/Letra D, piso 3, puerta D","postal_code":"11510","places":4,"units":2,"registered":"2022-08-29","catastro":"2361402QA6426S0012UL","holder":null,"holder_count":null}},{"type":"Feature","geometry":{"type":"Point","coordinates":[-6.189046,36.526585]},"properties":{"id":"VUT/CA/15470","type":"VUT","group":"Completa","address":"CALLE AMARGURA Nº 34 Plta/Piso 2 Pta/Letra A, piso 2, puerta A","postal_code":"11510","places":4,"units":2,"registered":"2022-09-05","catastro":"1862121QA6416S0005FA","holder":null,"holder_count":null}},{"type":"Feature","geometry":{"type":"Point","coordinates":[-6.170113,36.537261]},"properties":{"id":"VUT/CA/15706","type":"VUT","group":"Completa","address":"CALLE JUAN ANTONIO CAMPUZANO Nº 165","postal_code":"11510","places":6,"units":3,"registered":"2022-10-12","catastro":"3474203QA5437S0011HR","holder":null,"holder_count":null}},{"type":"Feature","geometry":{"type":"Point","coordinates":[-6.191817,36.529325]},"properties":{"id":"VUT/CA/16031","type":"VUT","group":"Por habitaciones","address":"CALLE SOLEDAD Nº 42 Plta/Piso 1 Pta/Letra D, piso 1, puerta D","postal_code":"11510","places":1,"units":1,"registered":"2022-12-18","catastro":"1565401QA6416N0009SU","holder":null,"holder_count":null}},{"type":"Feature","geometry":{"type":"Point","coordinates":[-6.191692,36.530424]},"properties":{"id":"VUT/CA/16113","type":"VUT","group":"Por habitaciones","address":"CALLE SOLEDAD Nº 45","postal_code":"11510","places":6,"units":5,"registered":"2023-01-12","catastro":"1566815QA6416N0001OX","holder":null,"holder_count":null}},{"type":"Feature","geometry":{"type":"Point","coordinates":[-6.187262,36.526322]},"properties":{"id":"VUT/CA/16194","type":"VUT","group":"Completa","address":"CALLE calle amargura Nº 2 Esc. 3 Plta/Piso 2 Pta/Letra 6, piso 2, puerta 6","postal_code":"11510","places":6,"units":3,"registered":"2023-01-21","catastro":"1962403QA6416S0070MO","holder":null,"holder_count":null}},{"type":"Feature","geometry":{"type":"Point","coordinates":[-6.185248,36.527716]},"properties":{"id":"VUT/CA/16437","type":"VUT","group":"Completa","address":"CALLE BARRAGÁN Nº 1 Plta/Piso 1 Pta/Letra M, piso 1, puerta M","postal_code":"11510","places":6,"units":3,"registered":"2023-02-15","catastro":"2163902QA6426S0005EG","holder":null,"holder_count":null}},{"type":"Feature","geometry":{"type":"Point","coordinates":[-6.229172,36.524473]},"properties":{"id":"VUT/CA/16553","type":"VUT","group":"Completa","address":"AVENIDA Argentina Nº 20 Portal 1 Plta/Piso 1 Pta/Letra C, piso 1, puerta C","postal_code":"11519","places":8,"units":3,"registered":"2023-02-27","catastro":"8259101QA4485N0005RD","holder":null,"holder_count":null}},{"type":"Feature","geometry":{"type":"Point","coordinates":[-6.201514,36.530921]},"properties":{"id":"VUT/CA/16768","type":"VUT","group":"Por habitaciones","address":"CALLE FACTORIA DE MATAGORDA Nº 108 Compl.Dom. URBANIZACIÓN MARINA DE LA BAHÍA","postal_code":"11510","places":3,"units":2,"registered":"2023-03-16","catastro":"0767012QA5406N0001KY","holder":null,"holder_count":null}},{"type":"Feature","geometry":{"type":"Point","coordinates":[-6.189719,36.526843]},"properties":{"id":"VUT/CA/16822","type":"VUT","group":"Completa","address":"CALLE Cruz Verde Nº 15 Plta/Piso 1º Pta/Letra A, piso 1º, puerta A","postal_code":"11510","places":5,"units":2,"registered":"2023-03-21","catastro":"1762219QA6416S0006DS","holder":null,"holder_count":null}},{"type":"Feature","geometry":{"type":"Point","coordinates":[-6.189216,36.528847]},"properties":{"id":"VUT/CA/16998","type":"VUT","group":"Completa","address":"CALLE CALLE DE LA PALMA Nº 64 Plta/Piso 4 Pta/Letra C, piso 4, puerta C","postal_code":"11510","places":5,"units":3,"registered":"2023-04-06","catastro":"1864101QA6416S0023WM","holder":null,"holder_count":null}},{"type":"Feature","geometry":{"type":"Point","coordinates":[-6.179858,36.52521]},"properties":{"id":"VUT/CA/17010","type":"VUT","group":"Completa","address":"CALLE Lebrija Nº 22","postal_code":"11510","places":5,"units":4,"registered":"2023-04-09","catastro":"2661801QA6426S0052KQ","holder":null,"holder_count":null}},{"type":"Feature","geometry":{"type":"Point","coordinates":[-6.171051,36.52562]},"properties":{"id":"VUT/CA/17092","type":"VUT","group":"Completa","address":"AVENIDA JOSE LOPEZ FERNANDEZ Nº 55 Esc. 1 Plta/Piso 4 Pta/Letra B, piso 4, puerta B","postal_code":"11510","places":6,"units":3,"registered":"2023-04-14","catastro":"3461201QA5436S0047ZF","holder":null,"holder_count":null}},{"type":"Feature","geometry":{"type":"Point","coordinates":[-6.189162,36.53628]},"properties":{"id":"VUT/CA/17387","type":"VUT","group":"Completa","address":"CALLE JUPITER Nº 73","postal_code":"11510","places":6,"units":4,"registered":"2023-05-05","catastro":"1773801QA5417S0003IF","holder":null,"holder_count":null}},{"type":"Feature","geometry":{"type":"Point","coordinates":[-6.185248,36.527716]},"properties":{"id":"VUT/CA/17488","type":"VUT","group":"Completa","address":"CALLE Barragán Nº 1 Plta/Piso 3 Pta/Letra I, piso 3, puerta I","postal_code":"11510","places":6,"units":3,"registered":"2023-05-13","catastro":"2163902QA6426S0017SQ","holder":null,"holder_count":null}},{"type":"Feature","geometry":{"type":"Point","coordinates":[-6.175687,36.535571]},"properties":{"id":"VUT/CA/17557","type":"VUT","group":"Completa","address":"AVENIDA VICENTE ALEXANDRE Nº 25","postal_code":"11510","places":6,"units":3,"registered":"2023-05-18","catastro":"2972501QA5427S0011HM","holder":null,"holder_count":null}},{"type":"Feature","geometry":{"type":"Point","coordinates":[-6.195889,36.529749]},"properties":{"id":"VUT/CA/17675","type":"VUT","group":"Completa","address":"CALLE La Plaza Nº 220 Portal 3 Plta/Piso 1 Pta/Letra B Compl.Dom. Plaza Alameda, piso 1, puerta B","postal_code":"11510","places":5,"units":3,"registered":"2023-05-25","catastro":"1165303QA6416N0022LF","holder":null,"holder_count":null}},{"type":"Feature","geometry":{"type":"Point","coordinates":[-6.196924,36.528287]},"properties":{"id":"VUT/CA/17768","type":"VUT","group":"Completa","address":"CALLE AMARGURA Nº 115 Plta/Piso 4 Pta/Letra D, piso 4, puerta D","postal_code":"11510","places":4,"units":3,"registered":"2023-06-01","catastro":"1064503QA6416S0017TB","holder":null,"holder_count":null}},{"type":"Feature","geometry":{"type":"Point","coordinates":[-6.18808,36.52643]},"properties":{"id":"VUT/CA/17905","type":"VUT","group":"Por habitaciones","address":"CALLE AMARGURA Nº 14 Plta/Piso 5 Pta/Letra E, piso 5, puerta E","postal_code":"11510","places":5,"units":3,"registered":"2023-06-12","catastro":"1962803qa6416s0038ls","holder":null,"holder_count":null}},{"type":"Feature","geometry":{"type":"Point","coordinates":[-6.188352,36.531253]},"properties":{"id":"VUT/CA/18197","type":"VUT","group":"Completa","address":"CALLE San Alejandro Nº 6 Plta/Piso 3 Pta/Letra A, piso 3, puerta A","postal_code":"11510","places":6,"units":3,"registered":"2023-07-02","catastro":"1867202QA6416N0027AL","holder":null,"holder_count":null}},{"type":"Feature","geometry":{"type":"Point","coordinates":[-6.184707,36.528295]},"properties":{"id":"VUT/CA/18206","type":"VUT","group":"Completa","address":"CALLE HUERTA PLEY Blq. 2 Plta/Piso 4º Pta/Letra A, piso 4º, puerta A","postal_code":"11510","places":5,"units":3,"registered":"2023-07-02","catastro":"2264802QA6426S0009ML","holder":null,"holder_count":null}},{"type":"Feature","geometry":{"type":"Point","coordinates":[-6.182558,36.531385]},"properties":{"id":"VUT/CA/18278","type":"VUT","group":"Completa","address":"CALLE DR. SÁNCHEZ BISH Nº 16","postal_code":"11510","places":6,"units":3,"registered":"2023-07-07","catastro":"2468002QA5426N0040FK","holder":null,"holder_count":null}},{"type":"Feature","geometry":{"type":"Point","coordinates":[-6.228886,36.521792]},"properties":{"id":"VUT/CA/18284","type":"VUT","group":"Completa","address":"CALLE ESLORA Nº 6","postal_code":"11519","places":5,"units":2,"registered":"2023-07-07","catastro":"8356711QA5485N0001KZ","holder":null,"holder_count":null}},{"type":"Feature","geometry":{"type":"Point","coordinates":[-6.133713,36.500442]},"properties":{"id":"VUT/CA/18502","type":"VUT","group":"Completa","address":"CALLE VILLA ROMANA Nº 16","postal_code":"11518","places":8,"units":4,"registered":"2023-07-28","catastro":"6834501QA5463S0006DG","holder":null,"holder_count":null}},{"type":"Feature","geometry":{"type":"Point","coordinates":[-6.138479,36.492559]},"properties":{"id":"VUT/CA/18594","type":"VUT","group":"Completa","address":"CALLE ALCORNOQUE Nº 7 Compl.Dom. BARRIADA MEADERO DE LA REINA","postal_code":"11510","places":4,"units":2,"registered":"2023-08-07","catastro":"11028A042001550001LP","holder":null,"holder_count":null}},{"type":"Feature","geometry":{"type":"Point","coordinates":[-6.196226,36.529404]},"properties":{"id":"VUT/CA/18819","type":"VUT","group":"Completa","address":"CALLE FACTORIA DE MATAGORDA Nº 52 Plta/Piso 4º Pta/Letra B, piso 4º, puerta B","postal_code":"11510","places":4,"units":2,"registered":"2023-09-14","catastro":"1165505QA6416N0011FY","holder":null,"holder_count":null}},{"type":"Feature","geometry":{"type":"Point","coordinates":[-6.190019,36.529715]},"properties":{"id":"VUT/CA/18944","type":"VUT","group":"Completa","address":"CALLE ANCHA Nº 63","postal_code":"11510","places":12,"units":6,"registered":"2023-10-16","catastro":"1765110QA6416N0001UX","holder":null,"holder_count":null}},{"type":"Feature","geometry":{"type":"Point","coordinates":[-6.137116,36.503408]},"properties":{"id":"VUT/CA/18959","type":"VUT","group":"Completa","address":"AVENIDA Portus Gaditanus Nº 22 Plta/Piso 7, piso 7","postal_code":"11518","places":9,"units":3,"registered":"2023-10-19","catastro":"6739979QA5463N0008WO","holder":null,"holder_count":null}},{"type":"Feature","geometry":{"type":"Point","coordinates":[-6.181037,36.52874]},"properties":{"id":"VUT/CA/19229","type":"VUT","group":"Completa","address":"CALLE CRUZ DE LA DEGOLLADA Nº 55 Portal 4 Plta/Piso BAJO Pta/Letra A, piso BAJO, puerta A","postal_code":"11510","places":4,"units":2,"registered":"2023-12-11","catastro":"2565103QA5426N0269PQ","holder":null,"holder_count":null}},{"type":"Feature","geometry":{"type":"Point","coordinates":[-6.181037,36.52874]},"properties":{"id":"VUT/CA/19268","type":"VUT","group":"Completa","address":"CALLE CRUZ DE LA DEGOLLADA Nº 55 Blq. 2 Plta/Piso 4 Pta/Letra D, piso 4, puerta D","postal_code":"11510","places":4,"units":2,"registered":"2023-12-18","catastro":"2565103QA5426N0353MF","holder":null,"holder_count":null}},{"type":"Feature","geometry":{"type":"Point","coordinates":[-6.19683,36.529018]},"properties":{"id":"VUT/CA/19293","type":"VUT","group":"Completa","address":"CALLE Herrero de Ribera Blq. 3 Plta/Piso 1º Pta/Letra IZQ, piso 1º, puerta IZQ","postal_code":"11510","places":3,"units":2,"registered":"2023-12-20","catastro":"1164103QA6416S0002GI","holder":null,"holder_count":null}},{"type":"Feature","geometry":{"type":"Point","coordinates":[-6.195287,36.529833]},"properties":{"id":"VUT/CA/19318","type":"VUT","group":"Completa","address":"CALLE DOCTOR FLEMING Nº 1 Esc. 1 Plta/Piso 2, piso 2","postal_code":"11510","places":5,"units":3,"registered":"2023-12-26","catastro":"1265401QA6416N0007AT","holder":null,"holder_count":null}},{"type":"Feature","geometry":{"type":"Point","coordinates":[-6.200246,36.529997]},"properties":{"id":"VUT/CA/19427","type":"VUT","group":"Completa","address":"CALLE Gallinero Nº 35 Esc. 1 Plta/Piso BAJO Pta/Letra 7, piso BAJO, puerta 7","postal_code":"11510","places":4,"units":2,"registered":"2024-01-16","catastro":"0865301QA5406N0073FA","holder":null,"holder_count":null}},{"type":"Feature","geometry":{"type":"Point","coordinates":[-6.187816,36.525119]},"properties":{"id":"VUT/CA/19624","type":"VUT","group":"Completa","address":"CALLE Juan Noble Nº 8 Plta/Piso 1 Pta/Letra B, piso 1, puerta B","postal_code":"11510","places":6,"units":3,"registered":"2024-02-03","catastro":"1961605QA6416S0014YJ","holder":null,"holder_count":null}},{"type":"Feature","geometry":{"type":"Point","coordinates":[-6.168425,36.52386]},"properties":{"id":"VUT/CA/19733","type":"VUT","group":"Completa","address":"AVENIDA 14 de Abril Nº 18 Portal 1 Plta/Piso 4 Pta/Letra A, piso 4, puerta A","postal_code":"11510","places":6,"units":3,"registered":"2024-02-14","catastro":"3659902qa5435n0001dq","holder":null,"holder_count":null}},{"type":"Feature","geometry":{"type":"Point","coordinates":[-6.182718,36.525712]},"properties":{"id":"VUT/CA/19756","type":"VUT","group":"Completa","address":"CALLE Trafalgar Nº 10 Plta/Piso 4 Pta/Letra A Compl.Dom. Cartabon, piso 4, puerta A","postal_code":"11510","places":5,"units":3,"registered":"2024-02-18","catastro":"2361405QA6426S0013SB","holder":null,"holder_count":null}},{"type":"Feature","geometry":{"type":"Point","coordinates":[-6.229172,36.524473]},"properties":{"id":"VUT/CA/19827","type":"VUT","group":"Completa","address":"AVENIDA DE ARGENTINA Nº 20 Blq. 1 Portal 2 Plta/Piso 2 Pta/Letra B, piso 2, puerta B","postal_code":"11519","places":6,"units":3,"registered":"2024-02-26","catastro":"8259101QA4485N0020DX","holder":null,"holder_count":null}},{"type":"Feature","geometry":{"type":"Point","coordinates":[-6.168425,36.52386]},"properties":{"id":"VUT/CA/19853","type":"VUT","group":"Completa","address":"CALLE TRECE ROSAS Nº 40 Blq. 1 Plta/Piso 4 Pta/Letra A, piso 4, puerta A","postal_code":"11510","places":6,"units":3,"registered":"2024-03-01","catastro":"3659902QA5435N0015QS","holder":"Gades Gestión Turística SL","holder_count":1}},{"type":"Feature","geometry":{"type":"Point","coordinates":[-6.223185,36.52431]},"properties":{"id":"VUT/CA/20065","type":"VUT","group":"Completa","address":"AVENIDA AVENIDA BAHIA Nº 9 Portal 8 Plta/Piso 2 Pta/Letra A, piso 2, puerta A","postal_code":"11519","places":3,"units":2,"registered":"2024-03-21","catastro":"8759802QA5485N0118FG","holder":null,"holder_count":null}},{"type":"Feature","geometry":{"type":"Point","coordinates":[-6.195213,36.527804]},"properties":{"id":"VUT/CA/20074","type":"VUT","group":"Completa","address":"CALLE ROSARIO Nº 1 Esc. 2 Plta/Piso 3 Pta/Letra C, piso 3, puerta C","postal_code":"11510","places":5,"units":3,"registered":"2024-03-23","catastro":"1263804QA6416S0014WJ","holder":null,"holder_count":null}},{"type":"Feature","geometry":{"type":"Point","coordinates":[-6.228741,36.522519]},"properties":{"id":"VUT/CA/20154","type":"VUT","group":"Completa","address":"AVENIDA Fermin Salvochea Nº 38 Plta/Piso 3 Pta/Letra A Compl.Dom. Rio San Pedro, piso 3, puerta A","postal_code":"11519","places":4,"units":2,"registered":"2024-04-02","catastro":"8257405QA5485N0009MY","holder":null,"holder_count":null}},{"type":"Feature","geometry":{"type":"Point","coordinates":[-6.187673,36.533006]},"properties":{"id":"VUT/CA/20235","type":"VUT","group":"Completa","address":"CALLE HERCULES Nº 2 Blq. C Plta/Piso BJ Pta/Letra A, piso BJ, puerta A","postal_code":"11540","places":5,"units":3,"registered":"2024-04-10","catastro":"1969201QA5416N0007DH","holder":null,"holder_count":null}},{"type":"Feature","geometry":{"type":"Point","coordinates":[-6.194072,36.528286]},"properties":{"id":"VUT/CA/20313","type":"VUT","group":"Completa","address":"CALLE FACTORIA DE MATAGORDA Nº 25 Pta/Letra IZQ, puerta IZQ","postal_code":"11510","places":6,"units":3,"registered":"2024-04-17","catastro":"1363115QA5416S0001TK","holder":null,"holder_count":null}},{"type":"Feature","geometry":{"type":"Point","coordinates":[-6.184921,36.527019]},"properties":{"id":"VUT/CA/20444","type":"VUT","group":"Completa","address":"CALLE Real Nº 7 Plta/Piso 4 Pta/Letra A, piso 4, puerta A","postal_code":"11510","places":6,"units":3,"registered":"2024-04-28","catastro":"2262101QA6426S0101JF","holder":null,"holder_count":null}},{"type":"Feature","geometry":{"type":"Point","coordinates":[-6.228822,36.523323]},"properties":{"id":"VUT/CA/20447","type":"VUT","group":"Completa","address":"AVENIDA v Centenario Nº 15 Blq. D Esc. 3 Plta/Piso 3 Pta/Letra D, piso 3, puerta D","postal_code":"519","places":4,"units":2,"registered":"2024-04-28","catastro":"8257303QA5485N0058SJ","holder":null,"holder_count":null}},{"type":"Feature","geometry":{"type":"Point","coordinates":[-6.201334,36.531715]},"properties":{"id":"VUT/CA/20567","type":"VUT","group":"Completa","address":"CALLE MAREJADA Nº 44 Blq. 1 Plta/Piso 2 Pta/Letra IZ, piso 2, puerta IZ","postal_code":"11510","places":4,"units":3,"registered":"2024-05-08","catastro":"0667515QA5406N0010PS","holder":null,"holder_count":null}},{"type":"Feature","geometry":{"type":"Point","coordinates":[-6.133722,36.507314]},"properties":{"id":"VUT/CA/20704","type":"VUT","group":"Completa","address":"AVENIDA Via Augusta Nº 62 Plta/Piso 21 Compl.Dom. Residencial Villanueva Golf 62 - N21, piso 21","postal_code":"11510","places":2,"units":4,"registered":"2024-05-18","catastro":"6739929QA5463N0008OO","holder":null,"holder_count":null}},{"type":"Feature","geometry":{"type":"Point","coordinates":[-6.177532,36.524367]},"properties":{"id":"VUT/CA/20706","type":"VUT","group":"Completa","address":"CALLE OLVERA Nº 4","postal_code":"11510","places":6,"units":3,"registered":"2024-05-18","catastro":"2860504QA6426S0001XA","holder":null,"holder_count":null}},{"type":"Feature","geometry":{"type":"Point","coordinates":[-6.17485,36.53893]},"properties":{"id":"VUT/CA/20743","type":"VUT","group":"Completa","address":"CALLE PRINCIPAL Nº 2 Pta/Letra D, puerta D","postal_code":"11510","places":8,"units":4,"registered":"2024-05-21","catastro":"3176901QA5437N0008FL","holder":null,"holder_count":null}},{"type":"Feature","geometry":{"type":"Point","coordinates":[-6.190061,36.527683]},"properties":{"id":"VUT/CA/20782","type":"VUT","group":"Completa","address":"CALLE CALLE DE LA PLAZA Nº 103 Portal 2 Pta/Letra C, puerta C","postal_code":"11510","places":2,"units":2,"registered":"2024-05-23","catastro":"1763711QA6416S0005AA","holder":null,"holder_count":null}},{"type":"Feature","geometry":{"type":"Point","coordinates":[-6.22723,36.523731]},"properties":{"id":"VUT/CA/20864","type":"VUT","group":"Completa","address":"CALLE AVENIDA DE LA BAHIA Nº 7 Plta/Piso 4 Pta/Letra F Compl.Dom. EL RÍO SAN PEDRO, piso 4, puerta F","postal_code":"11519","places":6,"units":3,"registered":"2024-05-29","catastro":"8458001QA4485N0313HR","holder":null,"holder_count":null}},{"type":"Feature","geometry":{"type":"Point","coordinates":[-6.22723,36.523731]},"properties":{"id":"VUT/CA/20867","type":"VUT","group":"Completa","address":"CALLE AVENIDA DE LA BAHIA Nº 7 Plta/Piso 4 Pta/Letra F Compl.Dom. EL RÍO SAN PEDRO, piso 4, puerta F","postal_code":"11519","places":6,"units":3,"registered":"2024-05-29","catastro":"8458001QA4485N0313HR","holder":null,"holder_count":null}},{"type":"Feature","geometry":{"type":"Point","coordinates":[-6.189719,36.526843]},"properties":{"id":"VUT/CA/20894","type":"VUT","group":"Completa","address":"CALLE CRUZ VERDE Nº 15 Plta/Piso 1 Pta/Letra D, piso 1, puerta D","postal_code":"11510","places":3,"units":1,"registered":"2024-05-31","catastro":"1762219QA6416S0009HG","holder":null,"holder_count":null}},{"type":"Feature","geometry":{"type":"Point","coordinates":[-6.182513,36.526587]},"properties":{"id":"VUT/CA/21001","type":"VUT","group":"Completa","address":"PLAZA JULIAN BESTEIRO Nº 3 Plta/Piso 3 Pta/Letra A, piso 3, puerta A","postal_code":"11510","places":4,"units":3,"registered":"2024-06-09","catastro":"2462803QA6426S0007RJ","holder":null,"holder_count":null}},{"type":"Feature","geometry":{"type":"Point","coordinates":[-6.196422,36.529461]},"properties":{"id":"VUT/CA/21099","type":"VUT","group":"Completa","address":"CALLE SAN BENITO Nº 10 Plta/Piso 1 Pta/Letra G, piso 1, puerta G","postal_code":"11510","places":6,"units":3,"registered":"2024-06-17","catastro":"1165508QA6416N0051MA","holder":null,"holder_count":null}},{"type":"Feature","geometry":{"type":"Point","coordinates":[-6.226458,36.523855]},"properties":{"id":"VUT/CA/21140","type":"VUT","group":"Completa","address":"CALLE REPUBLICA DEL SALVADOR Nº 2 Portal 12 Plta/Piso 2 Pta/Letra A, piso 2, puerta A","postal_code":"11519","places":6,"units":3,"registered":"2024-06-19","catastro":"8458601QA4485N0288XO","holder":null,"holder_count":null}},{"type":"Feature","geometry":{"type":"Point","coordinates":[-6.171661,36.525934]},"properties":{"id":"VUT/CA/21166","type":"VUT","group":"Completa","address":"CALLE TIERRA Y LIBERTAD Nº 18 Plta/Piso 5 Pta/Letra B, piso 5, puerta B","postal_code":"11510","places":4,"units":2,"registered":"2024-06-20","catastro":"3362802QA5436S0027UM","holder":null,"holder_count":null}},{"type":"Feature","geometry":{"type":"Point","coordinates":[-6.171514,36.536653]},"properties":{"id":"VUT/CA/21184","type":"VUT","group":"Completa","address":"CALLE MIGUEL DELIBES Nº 112","postal_code":"11510","places":6,"units":3,"registered":"2024-06-23","catastro":"3474201QA5437S0043ZR","holder":null,"holder_count":null}},{"type":"Feature","geometry":{"type":"Point","coordinates":[-6.18746,36.525953]},"properties":{"id":"VUT/CA/21270","type":"VUT","group":"Completa","address":"CALLE CONCEPCION Nº 9 Plta/Piso 4 Pta/Letra C, piso 4, puerta C","postal_code":"11510","places":5,"units":4,"registered":"2024-06-29","catastro":"1961105QA6416S0011YF","holder":null,"holder_count":null}},{"type":"Feature","geometry":{"type":"Point","coordinates":[-6.19043,36.530154]},"properties":{"id":"VUT/CA/21398","type":"VUT","group":"Completa","address":"CALLE LUISA TERRY Nº 76","postal_code":"11510","places":4,"units":2,"registered":"2024-07-09","catastro":"1665307QA6416N0003WQ","holder":null,"holder_count":null}},{"type":"Feature","geometry":{"type":"Point","coordinates":[-6.183297,36.527547]},"properties":{"id":"VUT/CA/21426","type":"VUT","group":"Completa","address":"CALLE SEVILLA Nº 19 Esc. 3 Plta/Piso 1 Pta/Letra G, piso 1, puerta G","postal_code":"11510","places":4,"units":1,"registered":"2024-07-11","catastro":"2263301QA5426S0126EZ","holder":null,"holder_count":null}},{"type":"Feature","geometry":{"type":"Point","coordinates":[-6.193042,36.531165]},"properties":{"id":"VUT/CA/21451","type":"VUT","group":"Completa","address":"CALLE santo domingo Nº 67 Plta/Piso 3 Pta/Letra d, piso 3, puerta d","postal_code":"11510","places":5,"units":4,"registered":"2024-07-15","catastro":"1466106QA6416N0005IE","holder":null,"holder_count":null}},{"type":"Feature","geometry":{"type":"Point","coordinates":[-6.169301,36.524307]},"properties":{"id":"VUT/CA/21533","type":"VUT","group":"Completa","address":"CALLE Jose Lopez Fernandez Nº 47 Blq. 2 Plta/Piso 5 Pta/Letra C, piso 5, puerta C","postal_code":"11510","places":7,"units":3,"registered":"2024-07-23","catastro":"3560601QA5436S0339TK","holder":null,"holder_count":null}},{"type":"Feature","geometry":{"type":"Point","coordinates":[-6.187905,36.530707]},"properties":{"id":"VUT/CA/21674","type":"VUT","group":"Completa","address":"CALLE SAN ALEJANDRO Nº 17 Plta/Piso 1 Pta/Letra DCH, piso 1, puerta DCH","postal_code":"11510","places":6,"units":2,"registered":"2024-08-02","catastro":"1866308QA6416N0009YU","holder":null,"holder_count":null}},{"type":"Feature","geometry":{"type":"Point","coordinates":[-6.188771,36.525951]},"properties":{"id":"VUT/CA/21704","type":"VUT","group":"Completa","address":"PLAZA MADRE LORETO Nº 2 Plta/Piso 1 Pta/Letra 45, piso 1, puerta 45","postal_code":"11510","places":8,"units":3,"registered":"2024-08-06","catastro":"1861902QA6416S0001SU","holder":null,"holder_count":null}},{"type":"Feature","geometry":{"type":"Point","coordinates":[-6.18952,36.528633]},"properties":{"id":"VUT/CA/21744","type":"VUT","group":"Completa","address":"CALLE DE LA PALMA Nº 59 Plta/Piso 4 Pta/Letra C, piso 4, puerta C","postal_code":"11510","places":5,"units":3,"registered":"2024-08-12","catastro":"1764203QA6416S0012QG","holder":null,"holder_count":null}},{"type":"Feature","geometry":{"type":"Point","coordinates":[-6.229458,36.521835]},"properties":{"id":"VUT/CA/21758","type":"VUT","group":"Completa","address":"CALLE Borda Nº 1","postal_code":"11519","places":8,"units":3,"registered":"2024-08-12","catastro":"8255136QA5485N0001UZ","holder":null,"holder_count":null}},{"type":"Feature","geometry":{"type":"Point","coordinates":[-6.19663,36.528458]},"properties":{"id":"VUT/CA/21905","type":"VUT","group":"Completa","address":"CALLE AMARGURA Nº 140","postal_code":"11510","places":6,"units":3,"registered":"2024-09-02","catastro":"1064221QA6416S0002BI","holder":null,"holder_count":null}},{"type":"Feature","geometry":{"type":"Point","coordinates":[-6.188282,36.534325]},"properties":{"id":"VUT/CA/21906","type":"VUT","group":"Completa","address":"CALLE ANDROMEDA Nº 8 Pta/Letra C, puerta C","postal_code":"11510","places":5,"units":2,"registered":"2024-09-02","catastro":"1870401QA5417S0066FD","holder":null,"holder_count":null}},{"type":"Feature","geometry":{"type":"Point","coordinates":[-6.196801,36.529403]},"properties":{"id":"VUT/CA/21907","type":"VUT","group":"Completa","address":"CALLE FACTORIA DE MATAGORDA Nº 63 Plta/Piso 1 Pta/Letra C, piso 1, puerta C","postal_code":"11510","places":6,"units":3,"registered":"2024-09-02","catastro":"1064205QA6416S0003MO","holder":null,"holder_count":null}},{"type":"Feature","geometry":{"type":"Point","coordinates":[-6.181037,36.52874]},"properties":{"id":"VUT/CA/21953","type":"VUT","group":"Completa","address":"CALLE CRUZ DE LA DEGOLLADA Nº 53 Blq. 5 Plta/Piso BAJO Pta/Letra A, piso BAJO, puerta A","postal_code":"11510","places":6,"units":2,"registered":"2024-09-09","catastro":"2565103QA5426N0289QG","holder":null,"holder_count":null}},{"type":"Feature","geometry":{"type":"Point","coordinates":[-6.226458,36.523855]},"properties":{"id":"VUT/CA/21966","type":"VUT","group":"Completa","address":"CALLE Calle República del Salvador Edificio Miramar Portal 6 Plta/Piso 4 Pta/Letra G, piso 4, puerta G","postal_code":"11519","places":7,"units":3,"registered":"2024-09-11","catastro":"8458601QA4485N0328YH","holder":null,"holder_count":null}},{"type":"Feature","geometry":{"type":"Point","coordinates":[-6.168425,36.52386]},"properties":{"id":"VUT/CA/22014","type":"VUT","group":"Completa","address":"CALLE DE LAS TRECE ROSAS Nº 40 Portal 5 Plta/Piso 3 Pta/Letra B, piso 3, puerta B","postal_code":"11510","places":6,"units":3,"registered":"2024-09-18","catastro":"3659902QA5435N0001DQ","holder":null,"holder_count":null}},{"type":"Feature","geometry":{"type":"Point","coordinates":[-6.229172,36.524473]},"properties":{"id":"VUT/CA/22042","type":"VUT","group":"Completa","address":"AVENIDA ARGENTINA Nº 22 Blq. 2 Plta/Piso B Pta/Letra C, piso B, puerta C","postal_code":"11510","places":6,"units":3,"registered":"2024-09-25","catastro":"8259101QA4485N0045OK","holder":null,"holder_count":null}},{"type":"Feature","geometry":{"type":"Point","coordinates":[-6.186196,36.526153]},"properties":{"id":"VUT/CA/22047","type":"VUT","group":"Completa","address":"CALLE ALMIRANTE GENER Blq. 4 Plta/Piso 2 Pta/Letra A, piso 2, puerta A","postal_code":"11510","places":8,"units":3,"registered":"2024-09-25","catastro":"2061302QA6426S0001LA","holder":null,"holder_count":null}},{"type":"Feature","geometry":{"type":"Point","coordinates":[-6.191266,36.526354]},"properties":{"id":"VUT/CA/22078","type":"VUT","group":"Completa","address":"CALLE RIBERA DEL MUELLE Nº 1 Pta/Letra 27, puerta 27","postal_code":"11510","places":3,"units":3,"registered":"2024-10-01","catastro":"1662704QA5416S0065BK","holder":null,"holder_count":null}},{"type":"Feature","geometry":{"type":"Point","coordinates":[-6.188986,36.529607]},"properties":{"id":"VUT/CA/22327","type":"VUT","group":"Completa","address":"CALLE DE LA PALMA Nº 84 Pta/Letra 2, puerta 2","postal_code":"11510","places":4,"units":1,"registered":"2024-11-10","catastro":"1865805QA6416N0001OX","holder":null,"holder_count":null}},{"type":"Feature","geometry":{"type":"Point","coordinates":[-6.193043,36.527241]},"properties":{"id":"VUT/CA/22398","type":"VUT","group":"Completa","address":"CALLE Amargura Nº 75","postal_code":"11510","places":8,"units":3,"registered":"2024-11-21","catastro":"1462303QA6416S0001AU","holder":"Romahemelup, s.l.","holder_count":1}},{"type":"Feature","geometry":{"type":"Point","coordinates":[-6.189723,36.530502]},"properties":{"id":"VUT/CA/22479","type":"VUT","group":"Completa","address":"CALLE ANCHA Nº 75 Plta/Piso BAJO Pta/Letra A, piso BAJO, puerta A","postal_code":"11510","places":4,"units":2,"registered":"2024-12-04","catastro":"1766904QA6416N0010MT","holder":null,"holder_count":null}},{"type":"Feature","geometry":{"type":"Point","coordinates":[-6.19137,36.527337]},"properties":{"id":"VUT/CA/22565","type":"VUT","group":"Completa","address":"CALLE VAQUEROS Nº 11","postal_code":"11510","places":15,"units":7,"registered":"2024-12-18","catastro":"1663820QA6416S0001RU","holder":null,"holder_count":null}},{"type":"Feature","geometry":{"type":"Point","coordinates":[-6.194409,36.531194]},"properties":{"id":"VUT/CA/23018","type":"VUT","group":"Completa","address":"CALLE ALAMO Nº 1 Plta/Piso 2 Pta/Letra IZ, piso 2, puerta IZ","postal_code":"11510","places":6,"units":4,"registered":"2025-02-17","catastro":"1367701QA6416N0005ME","holder":null,"holder_count":null}},{"type":"Feature","geometry":{"type":"Point","coordinates":[-6.188395,36.536152]},"properties":{"id":"VUT/CA/23260","type":"VUT","group":"Completa","address":"CALLE LIBRA Nº 56 Compl.Dom. C. LIBRA Nº 56","postal_code":"11510","places":8,"units":4,"registered":"2025-03-09","catastro":"1873611QA6417S0001UQ","holder":null,"holder_count":null}},{"type":"Feature","geometry":{"type":"Point","coordinates":[-6.228007,36.52367]},"properties":{"id":"VUT/CA/23289","type":"VUT","group":"Completa","address":"PLAZA DE CUBA Nº 8 Plta/Piso 3 Pta/Letra B, piso 3, puerta B","postal_code":"11519","places":6,"units":3,"registered":"2025-03-11","catastro":"8358801QA4485N0090IW","holder":null,"holder_count":null}},{"type":"Feature","geometry":{"type":"Point","coordinates":[-6.140944,36.507458]},"properties":{"id":"VUT/CA/23297","type":"VUT","group":"Por habitaciones","address":"AVENIDA VÍA AUGUSTA Nº 5 Pta/Letra 6, puerta 6","postal_code":"11518","places":2,"units":1,"registered":"2025-03-12","catastro":"6444404QA5464S0007SP","holder":null,"holder_count":null}},{"type":"Feature","geometry":{"type":"Point","coordinates":[-6.188987,36.526055]},"properties":{"id":"VUT/CA/23486","type":"VUT","group":"Completa","address":"PLAZA MADRE LORETO Nº 1 Pta/Letra 68, puerta 68","postal_code":"11510","places":4,"units":3,"registered":"2025-03-22","catastro":"1861901QA6416S0004YP","holder":null,"holder_count":null}},{"type":"Feature","geometry":{"type":"Point","coordinates":[-6.174411,36.524974]},"properties":{"id":"VUT/CA/23487","type":"VUT","group":"Completa","address":"CALLE DE LA ESPERANZA 12 Pta/Letra 15 Compl.Dom. RESIDENCIAL LA GOLETA, puerta 15","postal_code":"11510","places":5,"units":3,"registered":"2025-03-22","catastro":"3160301QA5436S0018QJ","holder":null,"holder_count":null}},{"type":"Feature","geometry":{"type":"Point","coordinates":[-6.194525,36.530702]},"properties":{"id":"VUT/CA/23497","type":"VUT","group":"Completa","address":"CALLE San Vicente Nº 3 Plta/Piso 1 Pta/Letra F, piso 1, puerta F","postal_code":"11510","places":4,"units":3,"registered":"2025-03-23","catastro":"1366103QA6416N0035PQ","holder":null,"holder_count":null}},{"type":"Feature","geometry":{"type":"Point","coordinates":[-6.182735,36.527168]},"properties":{"id":"VUT/CA/23498","type":"VUT","group":"Completa","address":"CALLE Bornos Nº 5 Esc. 2 Plta/Piso 3 Pta/Letra L, piso 3, puerta L","postal_code":"11510","places":6,"units":3,"registered":"2025-03-23","catastro":"2363701QA5426S0079MP","holder":null,"holder_count":null}},{"type":"Feature","geometry":{"type":"Point","coordinates":[-6.181037,36.52874]},"properties":{"id":"VUT/CA/23565","type":"VUT","group":"Completa","address":"CALLE CRUZ DE LA DEGOLLADA Nº 55 Blq. 4 Plta/Piso BAJO Pta/Letra D, piso BAJO, puerta D","postal_code":"11510","places":10,"units":3,"registered":"2025-03-26","catastro":"2565103QA5426N0377KO","holder":null,"holder_count":null}},{"type":"Feature","geometry":{"type":"Point","coordinates":[-6.176387,36.525281]},"properties":{"id":"VUT/CA/23710","type":"VUT","group":"Completa","address":"CALLE ALGODONALES Nº 14","postal_code":"11510","places":4,"units":1,"registered":"2025-03-31","catastro":"3061405QA5426S0045EI","holder":null,"holder_count":null}},{"type":"Feature","geometry":{"type":"Point","coordinates":[-6.192476,36.530117]},"properties":{"id":"VUT/CA/23866","type":"VUT","group":"Por habitaciones","address":"CALLE San Eloy Nº 7 Esc. 9 Plta/Piso 2 Pta/Letra P Compl.Dom. Calle san Miguel 1, piso 2ºB, piso 2, puerta P","postal_code":"11510","places":6,"units":3,"registered":"2025-04-02","catastro":"1566833QA6416N0106PU","holder":null,"holder_count":null}},{"type":"Feature","geometry":{"type":"Point","coordinates":[-6.192476,36.530117]},"properties":{"id":"VUT/CA/23870","type":"VUT","group":"Completa","address":"CALLE San Eloy Nº 7 Esc. 9 Plta/Piso 2 Pta/Letra P Compl.Dom. Calle san Miguel 1, piso 2ºB, piso 2, puerta P","postal_code":"11510","places":6,"units":3,"registered":"2025-04-02","catastro":"1566833QA6416N0106PU","holder":null,"holder_count":null}},{"type":"Feature","geometry":{"type":"Point","coordinates":[-6.177156,36.527025]},"properties":{"id":"VUT/CA/23899","type":"VUT","group":"Completa","address":"CALLE FACINAS Nº 8","postal_code":"11510","places":14,"units":6,"registered":"2025-04-02","catastro":"2963701QA6426S0017MQ","holder":null,"holder_count":null}},{"type":"Feature","geometry":{"type":"Point","coordinates":[-6.171661,36.525934]},"properties":{"id":"VUT/CA/23952","type":"VUT","group":"Completa","address":"AVENIDA JOSÉ LÓPEZ FERNÁNDEZ Nº 61 Blq. 3 Plta/Piso 6 Pta/Letra B, piso 6, puerta B","postal_code":"11510","places":8,"units":3,"registered":"2025-04-03","catastro":"3362802QA5436S0089TZ","holder":null,"holder_count":null}},{"type":"Feature","geometry":{"type":"Point","coordinates":[-6.192476,36.530117]},"properties":{"id":"VUT/CA/23953","type":"VUT","group":"Completa","address":"CALLE San Eloy Nº 7 Esc. 8 Plta/Piso 2 Pta/Letra P Compl.Dom. Piso en calle San Miguel 1, 2ºA, piso 2, puerta P","postal_code":"11510","places":8,"units":3,"registered":"2025-04-04","catastro":"1566833QA6416N0105OY","holder":null,"holder_count":null}},{"type":"Feature","geometry":{"type":"Point","coordinates":[-6.195563,36.533023]},"properties":{"id":"VUT/CA/23959","type":"VUT","group":"Completa","address":"CALLE LAS FLORES Nº 44","postal_code":"11510","places":5,"units":2,"registered":"2025-04-04","catastro":"1269701QA6416N0026PK","holder":null,"holder_count":null}},{"type":"Feature","geometry":{"type":"Point","coordinates":[-6.226911,36.522756]},"properties":{"id":"VUT/CA/23964","type":"VUT","group":"Completa","address":"AVENIDA fermin salvochea Nº 22 Plta/Piso 2 Pta/Letra C, piso 2, puerta C","postal_code":"11519","places":5,"units":3,"registered":"2025-04-04","catastro":"8457903QA5485N0007UR","holder":null,"holder_count":null}},{"type":"Feature","geometry":{"type":"Point","coordinates":[-6.196702,36.529954]},"properties":{"id":"VUT/CA/24215","type":"VUT","group":"Completa","address":"CALLE FANDANGO Nº 8","postal_code":"11510","places":7,"units":4,"registered":"2025-05-12","catastro":"1165203QA6416N0005RE","holder":null,"holder_count":null}},{"type":"Feature","geometry":{"type":"Point","coordinates":[-6.193416,36.530273]},"properties":{"id":"VUT/CA/24278","type":"VUT","group":"Completa","address":"CALLE SANTO DOMINGO Nº 51","postal_code":"11510","places":6,"units":2,"registered":"2025-05-21","catastro":"1466112QA5416N0001IP","holder":null,"holder_count":null}},{"type":"Feature","geometry":{"type":"Point","coordinates":[-6.190726,36.528333]},"properties":{"id":"VUT/CA/24388","type":"VUT","group":"Por habitaciones","address":"CALLE Vaqueros Nº 38 Plta/Piso 2, piso 2","postal_code":"11510","places":1,"units":2,"registered":"2025-05-29","catastro":"1664503QA6416S0004HP","holder":null,"holder_count":null}},{"type":"Feature","geometry":{"type":"Point","coordinates":[-6.168424,36.522666]},"properties":{"id":"VUT/CA/24392","type":"VUT","group":"Por habitaciones","address":"AVENIDA 14 DE ABRIL Nº 31","postal_code":"11510","places":4,"units":1,"registered":"2025-05-30","catastro":"3658908QA5435N0001HQ","holder":null,"holder_count":null}},{"type":"Feature","geometry":{"type":"Point","coordinates":[-6.171661,36.525934]},"properties":{"id":"VUT/CA/24464","type":"VUT","group":"Completa","address":"CALLE unión de hermanos proletarios Nº 7 Blq. 4 Plta/Piso 2 Pta/Letra b, piso 2, puerta b","postal_code":"1510","places":5,"units":2,"registered":"2025-06-06","catastro":"3362802QA5436S0103GI","holder":null,"holder_count":null}},{"type":"Feature","geometry":{"type":"Point","coordinates":[-6.184707,36.528295]},"properties":{"id":"VUT/CA/24488","type":"VUT","group":"Completa","address":"CALLE huerta pley Blq. 2 Plta/Piso 2 Pta/Letra c, piso 2, puerta c","postal_code":"11510","places":3,"units":3,"registered":"2025-06-08","catastro":"2264802QA6426S0003JD","holder":null,"holder_count":null}},{"type":"Feature","geometry":{"type":"Point","coordinates":[-6.183864,36.527548]},"properties":{"id":"VUT/CA/24543","type":"VUT","group":"Completa","address":"CALLE Huerta Pley Nº 12 Esc. 3 Plta/Piso 3 Pta/Letra J, piso 3, puerta J","postal_code":"11510","places":6,"units":3,"registered":"2025-06-11","catastro":"2263310QA5426S0126AZ","holder":null,"holder_count":null}},{"type":"Feature","geometry":{"type":"Point","coordinates":[-6.191865,36.526496]},"properties":{"id":"VUT/CA/24551","type":"VUT","group":"Completa","address":"CALLE VAQUERO Nº 1 Blq. 1 Plta/Piso 2 Pta/Letra D, piso 2, puerta D","postal_code":"11510","places":4,"units":2,"registered":"2025-06-12","catastro":"1562701QA5416S0053GO","holder":null,"holder_count":null}},{"type":"Feature","geometry":{"type":"Point","coordinates":[-6.202066,36.53227]},"properties":{"id":"VUT/CA/24552","type":"VUT","group":"Completa","address":"CALLE REAL Nº 248","postal_code":"11510","places":6,"units":3,"registered":"2025-06-12","catastro":"0668744QA5406N0001DY","holder":null,"holder_count":null}},{"type":"Feature","geometry":{"type":"Point","coordinates":[-6.177284,36.52778]},"properties":{"id":"VUT/CA/24595","type":"VUT","group":"Completa","address":"CALLE LA LINEA Nº 13 Plta/Piso 3º Pta/Letra D, piso 3º, puerta D","postal_code":"11510","places":7,"units":3,"registered":"2025-06-16","catastro":"2864502QA6426S0012OL","holder":null,"holder_count":null}},{"type":"Feature","geometry":{"type":"Point","coordinates":[-6.172527,36.526192]},"properties":{"id":"VUT/CA/24837","type":"VUT","group":"Completa","address":"CALLE JOSÉ LÓPEZ FERNÁNDEZ Nº 75 Blq. 1 Plta/Piso 1º Pta/Letra DCHA, piso 1º, puerta DCHA","postal_code":"11510","places":8,"units":3,"registered":"2025-06-30","catastro":"3262601QA5436S0072TU","holder":null,"holder_count":null}},{"type":"Feature","geometry":{"type":"Point","coordinates":[-6.225532,36.524127]},"properties":{"id":"VUT/CA/24985","type":"VUT","group":"Completa","address":"CALLE URUGUAY Nº 23","postal_code":"11510","places":5,"units":3,"registered":"2025-07-21","catastro":"8558901QA4485N0122ZR","holder":null,"holder_count":null}},{"type":"Feature","geometry":{"type":"Point","coordinates":[-6.185897,36.526261]},"properties":{"id":"VUT/CA/25089","type":"VUT","group":"Completa","address":"CALLE escolano moreno Nº 1 Plta/Piso 3 Pta/Letra a, piso 3, puerta a","postal_code":"11510","places":8,"units":4,"registered":"2025-08-07","catastro":"2062602QA6426S0003GD","holder":null,"holder_count":null}},{"type":"Feature","geometry":{"type":"Point","coordinates":[-6.133722,36.507314]},"properties":{"id":"VUT/CA/25203","type":"VUT","group":"Completa","address":"AVENIDA Via Augusta Nº 62 Pta/Letra 24 Compl.Dom. Residencial Villanueva Golf, puerta 24","postal_code":"11510","places":8,"units":4,"registered":"2025-09-04","catastro":"6739929QA5463N0001WW","holder":null,"holder_count":null}},{"type":"Feature","geometry":{"type":"Point","coordinates":[-6.19562,36.529979]},"properties":{"id":"VUT/CA/25287","type":"VUT","group":"Completa","address":"CALLE RAMON Y CAJAL Nº 4 Portal 4 Plta/Piso 1 Pta/Letra DCHA, piso 1, puerta DCHA","postal_code":"11510","places":2,"units":4,"registered":"2025-09-29","catastro":"1165302QA6416N0047YP","holder":"GUZMAN PALLARES INVERSIONES SL","holder_count":1}},{"type":"Feature","geometry":{"type":"Point","coordinates":[-6.181037,36.52874]},"properties":{"id":"VUT/CA/25336","type":"VUT","group":"Completa","address":"CALLE CRUZ DE LA DEGOLLADA Nº 53 Blq. 5 Plta/Piso 1 Pta/Letra C, piso 1, puerta C","postal_code":"11510","places":4,"units":2,"registered":"2025-10-13","catastro":"2565103QA5426N0295RK","holder":null,"holder_count":null}},{"type":"Feature","geometry":{"type":"Point","coordinates":[-6.181037,36.52874]},"properties":{"id":"VUT/CA/25362","type":"VUT","group":"Completa","address":"CALLE CRUZ DE LA DEGOLLADA Nº 51 Blq. 3 Plta/Piso 1 Pta/Letra D, piso 1, puerta D","postal_code":"11510","places":6,"units":3,"registered":"2025-10-19","catastro":"2565103QA5426N0160ZS","holder":null,"holder_count":null}},{"type":"Feature","geometry":{"type":"Point","coordinates":[-6.200528,36.531411]},"properties":{"id":"VUT/CA/25415","type":"VUT","group":"Completa","address":"CALLE REAL Nº 249 Plta/Piso 2 Pta/Letra 16, piso 2, puerta 16","postal_code":"11510","places":6,"units":2,"registered":"2025-10-31","catastro":"0867802QA5406N0030XE","holder":null,"holder_count":null}},{"type":"Feature","geometry":{"type":"Point","coordinates":[-6.201398,36.532098]},"properties":{"id":"VUT/CA/25600","type":"VUT","group":"Completa","address":"CALLE REAL Nº 226 Compl.Dom. CALLE REAL 226","postal_code":"11510","places":9,"units":6,"registered":"2025-12-18","catastro":"0668733QA5406N0001PY","holder":null,"holder_count":null}},{"type":"Feature","geometry":{"type":"Point","coordinates":[-6.201334,36.531715]},"properties":{"id":"VUT/CA/25720","type":"VUT","group":"Completa","address":"CALLE Marejada Nº 44","postal_code":"11510","places":4,"units":1,"registered":"2026-01-25","catastro":"0667515QA5406N0002TU","holder":null,"holder_count":null}},{"type":"Feature","geometry":{"type":"Point","coordinates":[-6.184707,36.528295]},"properties":{"id":"VUT/CA/25974","type":"VUT","group":"Completa","address":"CALLE Huerta Pley Blq. 2 Plta/Piso 2 Pta/Letra C, piso 2, puerta C","postal_code":"11510","places":6,"units":3,"registered":"2026-03-11","catastro":"2264802QA6426S0003JD","holder":null,"holder_count":null}},{"type":"Feature","geometry":{"type":"Point","coordinates":[-6.195923,36.533888]},"properties":{"id":"VUT/CA/26019","type":"VUT","group":"Completa","address":"CALLE San Alejandro Nº 124","postal_code":"11510","places":2,"units":4,"registered":"2026-03-17","catastro":"1170601QA5417s0001IS","holder":null,"holder_count":null}},{"type":"Feature","geometry":{"type":"Point","coordinates":[-6.195923,36.533888]},"properties":{"id":"VUT/CA/26021","type":"VUT","group":"Completa","address":"CALLE San Alejandro Nº 124","postal_code":"11510","places":8,"units":4,"registered":"2026-03-17","catastro":"1170601QA5417s0001IS","holder":null,"holder_count":null}}]}