{"type":"FeatureCollection","municipio":{"slug":"san-fernando","name":"San Fernando","total":236,"places":1333,"source_updated_at":"2026-10-05"},"features":[{"type":"Feature","geometry":{"type":"Point","coordinates":[-6.210177,36.469756]},"properties":{"id":"A/CA/00195","type":"AT","group":"Conjunto","address":"CALLE CAÑO HERRERA Nº S/N Compl.Dom. BAHIA SUR","postal_code":"11100","places":163,"units":30,"registered":"2016-04-27","catastro":null,"holder":"BAHIA SUR GESTION TURISTICA, S.L.U.","holder_count":1}},{"type":"Feature","geometry":{"type":"Point","coordinates":[-6.206934,36.464236]},"properties":{"id":"VUT/CA/00442","type":"VUT","group":"Completa","address":"CALLE ANTONIO ULLOA Nº 61","postal_code":"11100","places":8,"units":4,"registered":"2016-06-10","catastro":"0493077QA5309C0001ZX","holder":null,"holder_count":null}},{"type":"Feature","geometry":{"type":"Point","coordinates":[-6.204722,36.468184]},"properties":{"id":"VUT/CA/01796","type":"VUT","group":"Completa","address":"CALLE PUERTO DE PALOS Blq. 9 Plta/Piso 1 Pta/Letra B, piso 1, puerta B","postal_code":"11100","places":4,"units":3,"registered":"2016-12-05","catastro":"0597701QA5309H0006IE","holder":null,"holder_count":null}},{"type":"Feature","geometry":{"type":"Point","coordinates":[-6.209534,36.47105]},"properties":{"id":"VUT/CA/026137","type":"VUT","group":"Completa","address":"CALLE CAÑO HERRERA Nº 33 Pta/Letra 73, puerta 73","postal_code":"11100","places":4,"units":2,"registered":"2026-04-05","catastro":"0500004QA5400B0184DL","holder":null,"holder_count":null}},{"type":"Feature","geometry":{"type":"Point","coordinates":[-6.191451,36.467231]},"properties":{"id":"VUT/CA/026252","type":"VUT","group":"Por habitaciones","address":"CALLE SAN MARCOS Nº 13 Calif.Nº D","postal_code":"11100","places":4,"units":1,"registered":"2026-04-21","catastro":"1796440QA5319F0001LU","holder":null,"holder_count":null}},{"type":"Feature","geometry":{"type":"Point","coordinates":[-6.193667,36.468922]},"properties":{"id":"VUT/CA/026270","type":"VUT","group":"Completa","address":"CALLE MARIANA PINEDA Nº 18D","postal_code":"11100","places":3,"units":3,"registered":"2026-04-22","catastro":"1698101QA5319H0001SW","holder":null,"holder_count":null}},{"type":"Feature","geometry":{"type":"Point","coordinates":[-6.198112,36.46645]},"properties":{"id":"VUT/CA/026750","type":"VUT","group":"Completa","address":"CALLE CALLE GENERAL GARCIA DE LA HERRAN Nº 25 Plta/Piso BJ, piso BJ","postal_code":"11100","places":2,"units":1,"registered":"2026-06-26","catastro":"1295106QA5319E0001TZ","holder":null,"holder_count":null}},{"type":"Feature","geometry":{"type":"Point","coordinates":[-6.196036,36.468415]},"properties":{"id":"VUT/CA/02818","type":"VUT","group":"Completa","address":"CALLE GONZALEZ DE LA VEGA Nº 12 Plta/Piso 5 Pta/Letra A, piso 5, puerta A","postal_code":"11100","places":4,"units":2,"registered":"2017-05-20","catastro":"1497801QA5319E0010AR","holder":null,"holder_count":null}},{"type":"Feature","geometry":{"type":"Point","coordinates":[-6.207477,36.443997]},"properties":{"id":"VUT/CA/03027","type":"VUT","group":"Completa","address":"AVENIDA RONDA DEL ESTERO Portal 71 Esc. 1 Plta/Piso 2 Pta/Letra 1, piso 2, puerta 1","postal_code":"11100","places":5,"units":2,"registered":"2017-06-15","catastro":"0470101QA5307A0264WZ","holder":null,"holder_count":null}},{"type":"Feature","geometry":{"type":"Point","coordinates":[-6.19266,36.464758]},"properties":{"id":"VUT/CA/04067","type":"VUT","group":"Completa","address":"CALLE ALMIRANTE CERVERA Nº 32 Esc. 1 Plta/Piso 3 Pta/Letra A, piso 3, puerta A","postal_code":"11100","places":8,"units":3,"registered":"2017-11-07","catastro":"1796456QA5319F0015OK","holder":null,"holder_count":null}},{"type":"Feature","geometry":{"type":"Point","coordinates":[-6.196583,36.471596]},"properties":{"id":"VUT/CA/04305","type":"VUT","group":"Completa","address":"CALLE COMANDANTE RUIZ MARCET Nº 12 Plta/Piso 4, piso 4","postal_code":"11100","places":2,"units":1,"registered":"2018-01-11","catastro":"1301314QA5410A0005KW","holder":null,"holder_count":null}},{"type":"Feature","geometry":{"type":"Point","coordinates":[-6.21211,36.455916]},"properties":{"id":"VUT/CA/04416","type":"VUT","group":"Completa","address":"CALLE REAL Nº 240 Plta/Piso 4 Pta/Letra A, piso 4, puerta A","postal_code":"11100","places":4,"units":1,"registered":"2018-01-24","catastro":"9983206QA4398D0021EY","holder":null,"holder_count":null}},{"type":"Feature","geometry":{"type":"Point","coordinates":[-6.203514,36.456005]},"properties":{"id":"VUT/CA/04876","type":"VUT","group":"Completa","address":"PLAZA EMPERADOR CARLOS Blq. 10 Plta/Piso 1 Pta/Letra B, piso 1, puerta B","postal_code":"11100","places":6,"units":3,"registered":"2018-04-19","catastro":"0883105QA5308D0002YG","holder":null,"holder_count":null}},{"type":"Feature","geometry":{"type":"Point","coordinates":[-6.198818,36.464415]},"properties":{"id":"VUT/CA/04959","type":"VUT","group":"Completa","address":"PLAZA DEL REY Nº 4 Plta/Piso 3 Pta/Letra DERECHA, piso 3, puerta DERECHA","postal_code":"11100","places":7,"units":3,"registered":"2018-05-01","catastro":"1193104QA5319C0006DI","holder":null,"holder_count":null}},{"type":"Feature","geometry":{"type":"Point","coordinates":[-6.195671,36.463907]},"properties":{"id":"VUT/CA/05156","type":"VUT","group":"Completa","address":"CALLE SAN CRISTÓBAL Nº 25 Plta/Piso 1 Pta/Letra IZQ, piso 1, puerta IZQ","postal_code":"11100","places":4,"units":2,"registered":"2018-05-24","catastro":"1493009QA5319C0007IO","holder":null,"holder_count":null}},{"type":"Feature","geometry":{"type":"Point","coordinates":[-6.209474,36.454237]},"properties":{"id":"VUT/CA/05361","type":"VUT","group":"Completa","address":"CALLE VOLUNTARIOS REALISTAS Nº 1 Plta/Piso 1 Pta/Letra G, piso 1, puerta G","postal_code":"11100","places":6,"units":3,"registered":"2018-06-15","catastro":"0181401qa5308a0186XT","holder":null,"holder_count":null}},{"type":"Feature","geometry":{"type":"Point","coordinates":[-6.206281,36.458573]},"properties":{"id":"VUT/CA/05880","type":"VUT","group":"Completa","address":"CALLE MATRONA ANA MARISCAL Nº 1 Esc. 2 Plta/Piso 1 Pta/Letra D Compl.Dom. URBANIZACION LOS CANALES, piso 1, puerta D","postal_code":"11100","places":5,"units":3,"registered":"2018-09-03","catastro":"0586201QA5308E0118YJ","holder":null,"holder_count":null}},{"type":"Feature","geometry":{"type":"Point","coordinates":[-6.191858,36.470286]},"properties":{"id":"VUT/CA/05942","type":"VUT","group":"Completa","address":"CALLE GENERAL FLORENCIO MONTOJO Nº 48 Esc. 1 Plta/Piso 01 Pta/Letra D, piso 01, puerta D","postal_code":"11100","places":4,"units":2,"registered":"2018-09-10","catastro":"1700401QA5410B0007SD","holder":null,"holder_count":null}},{"type":"Feature","geometry":{"type":"Point","coordinates":[-6.204492,36.457217]},"properties":{"id":"VUT/CA/05972","type":"VUT","group":"Completa","address":"CALLE Real Nº 229 Blq. E Plta/Piso 1 Pta/Letra C, piso 1, puerta C","postal_code":"11100","places":2,"units":1,"registered":"2018-09-17","catastro":"0684613QA5308D0344HI","holder":null,"holder_count":null}},{"type":"Feature","geometry":{"type":"Point","coordinates":[-6.196674,36.46951]},"properties":{"id":"VUT/CA/06032","type":"VUT","group":"Completa","address":"CALLE CHURRUCA Nº 1 Plta/Piso 1 Pta/Letra B, piso 1, puerta B","postal_code":"11100","places":6,"units":2,"registered":"2018-09-25","catastro":"1399004QA5319G0024SP","holder":null,"holder_count":null}},{"type":"Feature","geometry":{"type":"Point","coordinates":[-6.197675,36.48222]},"properties":{"id":"VUT/CA/06054","type":"VUT","group":"Completa","address":"CALLE SANTO ANGEL Nº 14 Portal G Plta/Piso 2 Pta/Letra 3, piso 2, puerta 3","postal_code":"11100","places":6,"units":3,"registered":"2018-09-27","catastro":"1112501QA5411C0360GF","holder":null,"holder_count":null}},{"type":"Feature","geometry":{"type":"Point","coordinates":[-6.20998,36.460689]},"properties":{"id":"VUT/CA/06410","type":"VUT","group":"Por habitaciones","address":"AVENIDA Pery Junquera Nº 7 Plta/Piso 7 Pta/Letra d, piso 7, puerta d","postal_code":"11100","places":2,"units":1,"registered":"2018-11-26","catastro":"0288618QA5308G0028WH","holder":null,"holder_count":null}},{"type":"Feature","geometry":{"type":"Point","coordinates":[-6.197377,36.471992]},"properties":{"id":"VUT/CA/06461","type":"VUT","group":"Por habitaciones","address":"CALLE SERVANDO GUTIÉRREZ Nº 1 Plta/Piso 2 Pta/Letra B, piso 2, puerta B","postal_code":"11100","places":2,"units":1,"registered":"2018-12-04","catastro":"1202401QA5410C0024RP","holder":null,"holder_count":null}},{"type":"Feature","geometry":{"type":"Point","coordinates":[-6.200355,36.482837]},"properties":{"id":"VUT/CA/06673","type":"VUT","group":"Completa","address":"CALLE INGENIERO VARGAS MACHUCA Nº 1 Plta/Piso 9 Pta/Letra 2, piso 9, puerta 2","postal_code":"11100","places":5,"units":2,"registered":"2019-01-23","catastro":"0913901QA5401D0167YB","holder":null,"holder_count":null}},{"type":"Feature","geometry":{"type":"Point","coordinates":[-6.209639,36.445366]},"properties":{"id":"VUT/CA/06691","type":"VUT","group":"Por habitaciones","address":"CALLE ESTRELLA Nº 4","postal_code":"11100","places":2,"units":1,"registered":"2019-01-24","catastro":"0272810QA5307A0001DH","holder":null,"holder_count":null}},{"type":"Feature","geometry":{"type":"Point","coordinates":[-6.184095,36.372538]},"properties":{"id":"VUT/CA/06749","type":"VUT","group":"Completa","address":"CALLE cañadilla Nº S/N Compl.Dom. urb.pinomar mar egeo B 2 E","postal_code":"11100","places":6,"units":3,"registered":"2019-02-03","catastro":"2792002QA5229S0187AD","holder":null,"holder_count":null}},{"type":"Feature","geometry":{"type":"Point","coordinates":[-6.202968,36.459804]},"properties":{"id":"VUT/CA/07148","type":"VUT","group":"Por habitaciones","address":"CALLE FRESIA Nº 6 Plta/Piso 2 Pta/Letra B, piso 2, puerta B","postal_code":"11100","places":3,"units":2,"registered":"2019-04-17","catastro":"0888008QA5308H0006SO","holder":null,"holder_count":null}},{"type":"Feature","geometry":{"type":"Point","coordinates":[-6.199975,36.465211]},"properties":{"id":"VUT/CA/07254","type":"VUT","group":"Completa","address":"CALLE ISAAC PERAL Nº 21","postal_code":"11100","places":5,"units":3,"registered":"2019-04-22","catastro":"1094304QA5319C0001YE","holder":null,"holder_count":null}},{"type":"Feature","geometry":{"type":"Point","coordinates":[-6.196213,36.478929]},"properties":{"id":"VUT/CA/07510","type":"VUT","group":"Completa","address":"CALLE BATALLA DEL EBRO Nº 19 Plta/Piso 1 Pta/Letra C, piso 1, puerta C","postal_code":"11100","places":6,"units":3,"registered":"2019-04-29","catastro":"1310004QA5411A0007ZZ","holder":null,"holder_count":null}},{"type":"Feature","geometry":{"type":"Point","coordinates":[-6.198563,36.479327]},"properties":{"id":"VUT/CA/07511","type":"VUT","group":"Completa","address":"CALLE MAGALLANES Nº 64","postal_code":"11100","places":6,"units":3,"registered":"2019-04-29","catastro":"1010705QA5411A0001UG","holder":null,"holder_count":null}},{"type":"Feature","geometry":{"type":"Point","coordinates":[-6.193098,36.470995]},"properties":{"id":"VUT/CA/07690","type":"VUT","group":"Completa","address":"CALLE Greneral Florencio Montojo Nº 43 Esc. Izq Plta/Piso 4 Pta/Letra D, piso 4, puerta D","postal_code":"11100","places":5,"units":2,"registered":"2019-05-17","catastro":"1601027QA5410B0009UG","holder":null,"holder_count":null}},{"type":"Feature","geometry":{"type":"Point","coordinates":[-6.193922,36.474804]},"properties":{"id":"VUT/CA/07733","type":"VUT","group":"Completa","address":"CALLE SERVANDO CAMUÑEZ Nº 2 Plta/Piso 4 Pta/Letra H Compl.Dom. EDIFICIO GLORIETA, piso 4, puerta H","postal_code":"11100","places":7,"units":4,"registered":"2019-05-22","catastro":"1504223QA5410D0047TD","holder":null,"holder_count":null}},{"type":"Feature","geometry":{"type":"Point","coordinates":[-6.196437,36.469433]},"properties":{"id":"VUT/CA/07746","type":"VUT","group":"Completa","address":"CALLE Mazarredo Nº 26 Plta/Piso 1 Pta/Letra c, piso 1, puerta c","postal_code":"11100","places":5,"units":2,"registered":"2019-05-23","catastro":"1499708QA5319G0007AX","holder":"Lightbooking SL","holder_count":3}},{"type":"Feature","geometry":{"type":"Point","coordinates":[-6.193338,36.469089]},"properties":{"id":"VUT/CA/08232","type":"VUT","group":"Completa","address":"CALLE SANTA ROSALIA Nº 13","postal_code":"11100","places":5,"units":2,"registered":"2019-07-04","catastro":"1699607QA5319H0001XW","holder":null,"holder_count":null}},{"type":"Feature","geometry":{"type":"Point","coordinates":[-6.196742,36.482332]},"properties":{"id":"VUT/CA/08326","type":"VUT","group":"Completa","address":"CALLE CONSTRUCTOR TAPIA Nº 1 Blq. 1 Esc. 2 Plta/Piso 2 Pta/Letra D, piso 2, puerta D","postal_code":"11100","places":6,"units":3,"registered":"2019-07-17","catastro":"1211430QA5411C0116TW","holder":null,"holder_count":null}},{"type":"Feature","geometry":{"type":"Point","coordinates":[-6.195464,36.469192]},"properties":{"id":"VUT/CA/08447","type":"VUT","group":"Completa","address":"CALLE MAZARREDO Nº 16 Pta/Letra IZ, puerta IZ","postal_code":"11100","places":6,"units":2,"registered":"2019-07-31","catastro":"1499419QA5319G0002BJ","holder":null,"holder_count":null}},{"type":"Feature","geometry":{"type":"Point","coordinates":[-6.196594,36.462518]},"properties":{"id":"VUT/CA/08627","type":"VUT","group":"Completa","address":"CALLE TOMAS DEL VALLE Nº 38 Esc. 2 Plta/Piso 4 Pta/Letra D, piso 4, puerta D","postal_code":"11100","places":4,"units":2,"registered":"2019-08-22","catastro":"1491701QA5319A0056AW","holder":null,"holder_count":null}},{"type":"Feature","geometry":{"type":"Point","coordinates":[-6.199926,36.455954]},"properties":{"id":"VUT/CA/09231","type":"VUT","group":"Completa","address":"CALLE ALSEDO Nº 52 Plta/Piso 2 Pta/Letra B, piso 2, puerta B","postal_code":"11100","places":6,"units":3,"registered":"2019-11-21","catastro":"0983301QA5308D0021YT","holder":null,"holder_count":null}},{"type":"Feature","geometry":{"type":"Point","coordinates":[-6.19217,36.469688]},"properties":{"id":"VUT/CA/09267","type":"VUT","group":"Completa","address":"CALLE CADIZ Nº 4 Plta/Piso 2 Pta/Letra D, piso 2, puerta D","postal_code":"11100","places":6,"units":3,"registered":"2019-11-24","catastro":"1799007QA5319H0005JY","holder":null,"holder_count":null}},{"type":"Feature","geometry":{"type":"Point","coordinates":[-6.197675,36.48222]},"properties":{"id":"VUT/CA/09305","type":"VUT","group":"Completa","address":"CALLE Santo Ángel Nº 14 Blq. I Plta/Piso Bajo Pta/Letra 2, piso Bajo, puerta 2","postal_code":"11100","places":6,"units":3,"registered":"2019-11-26","catastro":"1112501QA5411C0373WQ","holder":null,"holder_count":null}},{"type":"Feature","geometry":{"type":"Point","coordinates":[-6.199926,36.455954]},"properties":{"id":"VUT/CA/09307","type":"VUT","group":"Completa","address":"CALLE Carmen Nº 43 Plta/Piso 3 Pta/Letra F, piso 3, puerta F","postal_code":"11100","places":4,"units":2,"registered":"2019-11-26","catastro":"0983301QA5308D0070JH","holder":null,"holder_count":null}},{"type":"Feature","geometry":{"type":"Point","coordinates":[-6.202226,36.45877]},"properties":{"id":"VUT/CA/09312","type":"VUT","group":"Completa","address":"CALLE SAN ANTONIO Nº 2 Plta/Piso 1 Pta/Letra D, piso 1, puerta D","postal_code":"11100","places":4,"units":2,"registered":"2019-11-27","catastro":"0887404QA5308h0004IU","holder":null,"holder_count":null}},{"type":"Feature","geometry":{"type":"Point","coordinates":[-6.202323,36.463161]},"properties":{"id":"VUT/CA/09318","type":"VUT","group":"Completa","address":"CALLE Calle Almirante faustino Ruiz Nº 15 Plta/Piso 3 Pta/Letra b, piso 3, puerta b","postal_code":"11100","places":6,"units":3,"registered":"2019-11-27","catastro":"0892401QA5309D0042JF","holder":null,"holder_count":null}},{"type":"Feature","geometry":{"type":"Point","coordinates":[-6.197433,36.46732]},"properties":{"id":"VUT/CA/09362","type":"VUT","group":"Completa","address":"CALLE González Hontoria Nº 9 Plta/Piso Alta, piso Alta","postal_code":"11100","places":6,"units":3,"registered":"2019-11-29","catastro":"1396826QA5319E0002LX","holder":null,"holder_count":null}},{"type":"Feature","geometry":{"type":"Point","coordinates":[-6.208229,36.457644]},"properties":{"id":"VUT/CA/09395","type":"VUT","group":"Completa","address":"AVENIDA DUQUE DE ARCOS Blq. 7 Plta/Piso 6 Pta/Letra B, piso 6, puerta B","postal_code":"11100","places":4,"units":2,"registered":"2019-12-03","catastro":"0385802QA5308E0022WG","holder":null,"holder_count":null}},{"type":"Feature","geometry":{"type":"Point","coordinates":[-6.213155,36.437093]},"properties":{"id":"VUT/CA/09528","type":"VUT","group":"Completa","address":"CALLE BARRIADA BUEN PASTOR Nº 429 Calif.Nº A","postal_code":"11100","places":2,"units":1,"registered":"2019-12-17","catastro":"04710P1QA5307A0001AH","holder":null,"holder_count":null}},{"type":"Feature","geometry":{"type":"Point","coordinates":[-6.20065,36.458484]},"properties":{"id":"VUT/CA/09567","type":"VUT","group":"Completa","address":"CALLE OLIVARILLO Nº 12 Plta/Piso 3 Pta/Letra A, piso 3, puerta A","postal_code":"11100","places":4,"units":2,"registered":"2020-01-01","catastro":"1086306QA5318E0011YA","holder":null,"holder_count":null}},{"type":"Feature","geometry":{"type":"Point","coordinates":[-6.196966,36.472879]},"properties":{"id":"VUT/CA/09632","type":"VUT","group":"Completa","address":"CALLE San Jose y San Antonio Nº 9-11 Portal 4 Plta/Piso 1 Pta/Letra E, piso 1, puerta E","postal_code":"11100","places":4,"units":2,"registered":"2020-01-14","catastro":"1303612QA5410C0067BK","holder":null,"holder_count":null}},{"type":"Feature","geometry":{"type":"Point","coordinates":[-6.2023,36.453876]},"properties":{"id":"VUT/CA/09756","type":"VUT","group":"Completa","address":"AVENIDA RONDA DEL ESTERO Nº 29","postal_code":"11100","places":6,"units":3,"registered":"2020-01-27","catastro":"0880407QA5308B0019SA","holder":null,"holder_count":null}},{"type":"Feature","geometry":{"type":"Point","coordinates":[-6.215141,36.449499]},"properties":{"id":"VUT/CA/09882","type":"VUT","group":"Completa","address":"CALLE Palo Nº 2 Portal A Plta/Piso Bajo Pta/Letra Derecha, piso Bajo, puerta Derecha","postal_code":"11100","places":4,"units":1,"registered":"2020-02-05","catastro":"9776819QA4397F0006SZ","holder":null,"holder_count":null}},{"type":"Feature","geometry":{"type":"Point","coordinates":[-6.19775,36.467754]},"properties":{"id":"VUT/CA/09894","type":"VUT","group":"Completa","address":"CALLE SAN ESTEBAN Nº 5 Esc. 1 Plta/Piso 3 Pta/Letra A, piso 3, puerta A","postal_code":"11100","places":2,"units":1,"registered":"2020-02-10","catastro":"1297006QA5319E0016MP","holder":null,"holder_count":null}},{"type":"Feature","geometry":{"type":"Point","coordinates":[-6.197618,36.472206]},"properties":{"id":"VUT/CA/10414","type":"VUT","group":"Completa","address":"CALLE GABRIEL GONZALEZ CAMOYANO Nº 2 Plta/Piso 2 Pta/Letra IZDA., piso 2, puerta IZDA.","postal_code":"11100","places":5,"units":4,"registered":"2020-05-27","catastro":"1202011QA5410A0008KT","holder":null,"holder_count":null}},{"type":"Feature","geometry":{"type":"Point","coordinates":[-6.199505,36.46001]},"properties":{"id":"VUT/CA/10438","type":"VUT","group":"Completa","address":"CALLE SAN BRUNO Nº 27 Plta/Piso 2 Pta/Letra DCHA, piso 2, puerta DCHA","postal_code":"11100","places":6,"units":3,"registered":"2020-06-03","catastro":"1188110QA5318G0067RQ","holder":null,"holder_count":null}},{"type":"Feature","geometry":{"type":"Point","coordinates":[-6.19575,36.461602]},"properties":{"id":"VUT/CA/11118","type":"VUT","group":"Completa","address":"CALLE SAN MARCOS Nº 149 Blq. 2 Plta/Piso 02 Pta/Letra A, piso 02, puerta A","postal_code":"11100","places":8,"units":3,"registered":"2020-10-28","catastro":"1490004QA5319A0025YE","holder":null,"holder_count":null}},{"type":"Feature","geometry":{"type":"Point","coordinates":[-6.200355,36.482837]},"properties":{"id":"VUT/CA/11311","type":"VUT","group":"Completa","address":"CALLE INGENIERO VARGAS MACHUCA Nº 1 Plta/Piso 10 Pta/Letra 4, piso 10, puerta 4","postal_code":"11100","places":4,"units":3,"registered":"2021-02-05","catastro":"0913901QA5401D0173OM","holder":null,"holder_count":null}},{"type":"Feature","geometry":{"type":"Point","coordinates":[-6.201147,36.459618]},"properties":{"id":"VUT/CA/11653","type":"VUT","group":"Completa","address":"AVENIDA MANUEL DE FALLA Portal 1B Plta/Piso 5 Pta/Letra A, piso 5, puerta A","postal_code":"11100","places":4,"units":2,"registered":"2021-04-22","catastro":"1088732QA5318G0024AH","holder":null,"holder_count":null}},{"type":"Feature","geometry":{"type":"Point","coordinates":[-6.195282,36.465915]},"properties":{"id":"VUT/CA/11712","type":"VUT","group":"Completa","address":"CALLE Real Nº 67 Plta/Piso 3 Pta/Letra G, piso 3, puerta G","postal_code":"11100","places":3,"units":1,"registered":"2021-05-03","catastro":"1595716QA5319F0028BT","holder":null,"holder_count":null}},{"type":"Feature","geometry":{"type":"Point","coordinates":[-6.217459,36.4353]},"properties":{"id":"VUT/CA/11787","type":"VUT","group":"Completa","address":"CALLE BUEN PASTOR Nº 473 Pta/Letra C, puerta C","postal_code":"11100","places":8,"units":4,"registered":"2021-05-12","catastro":"04710R0QA5307A0001DH","holder":null,"holder_count":null}},{"type":"Feature","geometry":{"type":"Point","coordinates":[-6.199926,36.455954]},"properties":{"id":"VUT/CA/11839","type":"VUT","group":"Completa","address":"CALLE CARMEN Nº 43 Plta/Piso 1 Pta/Letra D, piso 1, puerta D","postal_code":"11100","places":5,"units":3,"registered":"2021-05-19","catastro":"0983301qa5308d0050ew","holder":null,"holder_count":null}},{"type":"Feature","geometry":{"type":"Point","coordinates":[-6.297759,36.529561]},"properties":{"id":"VUT/CA/12019","type":"VUT","group":"Completa","address":"CALLE DESAMPARADOS Nº 6 Plta/Piso 1 Pta/Letra A, piso 1, puerta A","postal_code":"11100","places":4,"units":2,"registered":"2021-06-04","catastro":"2063336QA4426C0019HP","holder":null,"holder_count":null}},{"type":"Feature","geometry":{"type":"Point","coordinates":[-6.214979,36.446447]},"properties":{"id":"VUT/CA/12201","type":"VUT","group":"Completa","address":"CALLE ACIBELO VEGA Nº 4","postal_code":"11100","places":6,"units":3,"registered":"2021-06-22","catastro":"9773126QA4397D0001MZ","holder":null,"holder_count":null}},{"type":"Feature","geometry":{"type":"Point","coordinates":[-6.200947,36.462943]},"properties":{"id":"VUT/CA/13156","type":"VUT","group":"Completa","address":"CALLE ALMIRANTE FAUSTINO RUIZ Nº 2 Plta/Piso 1 Pta/Letra A, piso 1, puerta A","postal_code":"11100","places":5,"units":2,"registered":"2021-12-19","catastro":"1092815QA5319A0094HT","holder":null,"holder_count":null}},{"type":"Feature","geometry":{"type":"Point","coordinates":[-6.204722,36.468184]},"properties":{"id":"VUT/CA/13222","type":"VUT","group":"Completa","address":"CALLE Puerto de Palos Nº 9 Plta/Piso 1 Pta/Letra D, piso 1, puerta D","postal_code":"11100","places":4,"units":3,"registered":"2022-01-09","catastro":"0597701QA5309H0008PT","holder":null,"holder_count":null}},{"type":"Feature","geometry":{"type":"Point","coordinates":[-6.198105,36.467203]},"properties":{"id":"VUT/CA/13245","type":"VUT","group":"Completa","address":"CALLE ANTONIO LOPEZ Nº 31 Plta/Piso 1 Pta/Letra E, piso 1, puerta E","postal_code":"11100","places":4,"units":1,"registered":"2022-01-13","catastro":"1196802QA5319E0029OB","holder":null,"holder_count":null}},{"type":"Feature","geometry":{"type":"Point","coordinates":[-6.191587,36.470378]},"properties":{"id":"VUT/CA/13310","type":"VUT","group":"Completa","address":"CALLE General Florencio Montojo Nº 67 Plta/Piso 1 Pta/Letra A, piso 1, puerta A","postal_code":"11100","places":4,"units":3,"registered":"2022-01-25","catastro":"1700211QA5410B0008XF","holder":null,"holder_count":null}},{"type":"Feature","geometry":{"type":"Point","coordinates":[-6.203051,36.466921]},"properties":{"id":"VUT/CA/13458","type":"VUT","group":"Completa","address":"CALLE CAPITAN ANGEL SEVILLANO Nº 5 Esc. 1 Plta/Piso 1 Pta/Letra IZQ, piso 1, puerta IZQ","postal_code":"11100","places":5,"units":3,"registered":"2022-02-15","catastro":"0896607QA5309F0004RY","holder":null,"holder_count":null}},{"type":"Feature","geometry":{"type":"Point","coordinates":[-6.196817,36.464878]},"properties":{"id":"VUT/CA/13582","type":"VUT","group":"Completa","address":"CALLE SAN NICOLAS Nº 4 Plta/Piso 1 Pta/Letra A, piso 1, puerta A","postal_code":"11100","places":4,"units":2,"registered":"2022-03-03","catastro":"1394002QA5319C0009YA","holder":null,"holder_count":null}},{"type":"Feature","geometry":{"type":"Point","coordinates":[-6.201576,36.454435]},"properties":{"id":"VUT/CA/13782","type":"VUT","group":"Completa","address":"AVENIDA Ronda del Estero Nº 28 Esc. 3 Plta/Piso BAJO Pta/Letra A, piso BAJO, puerta A","postal_code":"11100","places":4,"units":2,"registered":"2022-03-24","catastro":"0880409QA5308B0037LM","holder":null,"holder_count":null}},{"type":"Feature","geometry":{"type":"Point","coordinates":[-6.190554,36.472416]},"properties":{"id":"VUT/CA/14023","type":"VUT","group":"Completa","address":"CALLE COFRADIA DEL HUERTO Nº 6 Plta/Piso 2 Pta/Letra B, piso 2, puerta B","postal_code":"11100","places":6,"units":3,"registered":"2022-04-24","catastro":"1702315QA5410D0019AJ","holder":null,"holder_count":null}},{"type":"Feature","geometry":{"type":"Point","coordinates":[-6.194835,36.464037]},"properties":{"id":"VUT/CA/14199","type":"VUT","group":"Completa","address":"CALLE Amargura Nº 41 Pta/Letra B, puerta B","postal_code":"11100","places":4,"units":1,"registered":"2022-05-11","catastro":"1593009QA5319D0002KD","holder":null,"holder_count":null}},{"type":"Feature","geometry":{"type":"Point","coordinates":[-6.20359,36.461185]},"properties":{"id":"VUT/CA/14206","type":"VUT","group":"Completa","address":"AVENIDA LAS MARISMAS Blq. 3 Plta/Piso 6 Pta/Letra B, piso 6, puerta B","postal_code":"11100","places":8,"units":3,"registered":"2022-05-12","catastro":"0789101QA5308H0209ZK","holder":null,"holder_count":null}},{"type":"Feature","geometry":{"type":"Point","coordinates":[-6.201576,36.454435]},"properties":{"id":"VUT/CA/14304","type":"VUT","group":"Completa","address":"AVENIDA Ronda del Estero Nº 28 Portal 3 Plta/Piso BAJO Pta/Letra A, piso BAJO, puerta A","postal_code":"11100","places":4,"units":2,"registered":"2022-05-19","catastro":"0880409QA5308B0037LM","holder":null,"holder_count":null}},{"type":"Feature","geometry":{"type":"Point","coordinates":[-6.215566,36.446644]},"properties":{"id":"VUT/CA/14340","type":"VUT","group":"Completa","address":"CALLE Acibelo Vega Nº 26","postal_code":"11100","places":8,"units":4,"registered":"2022-05-23","catastro":"9773137QA4397D0001EZ","holder":null,"holder_count":null}},{"type":"Feature","geometry":{"type":"Point","coordinates":[-6.195775,36.462588]},"properties":{"id":"VUT/CA/14442","type":"VUT","group":"Completa","address":"CALLE SAN MARCOS Nº 94 Plta/Piso 4 Pta/Letra D, piso 4, puerta D","postal_code":"11100","places":5,"units":2,"registered":"2022-05-31","catastro":"1392422QA5319C0018YJ","holder":null,"holder_count":null}},{"type":"Feature","geometry":{"type":"Point","coordinates":[-6.193731,36.467958]},"properties":{"id":"VUT/CA/14710","type":"VUT","group":"Completa","address":"CALLE ESCAÑO Nº 7 Plta/Piso 3, piso 3","postal_code":"11100","places":4,"units":3,"registered":"2022-06-16","catastro":"1697115QA5319F0004JP","holder":null,"holder_count":null}},{"type":"Feature","geometry":{"type":"Point","coordinates":[-6.212648,36.451474]},"properties":{"id":"VUT/CA/14759","type":"VUT","group":"Completa","address":"CARRETERA CAMPOSOTO Portal 16S Compl.Dom. A-1","postal_code":"11100","places":4,"units":1,"registered":"2022-06-20","catastro":"9978201qa4397n0104ow","holder":null,"holder_count":null}},{"type":"Feature","geometry":{"type":"Point","coordinates":[-6.212648,36.451474]},"properties":{"id":"VUT/CA/14761","type":"VUT","group":"Completa","address":"CARRETERA CAMPOSOTO Portal 16S Compl.Dom. A-2","postal_code":"11100","places":4,"units":1,"registered":"2022-06-20","catastro":"9978201qa4397n0104ow","holder":null,"holder_count":null}},{"type":"Feature","geometry":{"type":"Point","coordinates":[-6.196725,36.468492]},"properties":{"id":"VUT/CA/14930","type":"VUT","group":"Completa","address":"CALLE COLON Nº 35 Esc. 1 Plta/Piso 2 Pta/Letra IZ, piso 2, puerta IZ","postal_code":"11100","places":6,"units":3,"registered":"2022-07-01","catastro":"1398506QA5319G0005OB","holder":null,"holder_count":null}},{"type":"Feature","geometry":{"type":"Point","coordinates":[-6.19896,36.465967]},"properties":{"id":"VUT/CA/15461","type":"VUT","group":"Completa","address":"CALLE San Diego de Alcalá Nº 36 Plta/Piso 1, piso 1","postal_code":"11100","places":4,"units":2,"registered":"2022-09-01","catastro":"1195007QA5319E0002LX","holder":null,"holder_count":null}},{"type":"Feature","geometry":{"type":"Point","coordinates":[-6.191624,36.470711]},"properties":{"id":"VUT/CA/15481","type":"VUT","group":"Completa","address":"CALLE Juan de Austria Nº 68 Pta/Letra A, puerta A","postal_code":"11100","places":6,"units":2,"registered":"2022-09-06","catastro":"1700203QA5410B0001HU","holder":null,"holder_count":null}},{"type":"Feature","geometry":{"type":"Point","coordinates":[-6.207477,36.443997]},"properties":{"id":"VUT/CA/15503","type":"VUT","group":"Completa","address":"AVENIDA RONDA DEL ESTERO Nº 71 Plta/Piso BAJO Pta/Letra 52, piso BAJO, puerta 52","postal_code":"11100","places":6,"units":2,"registered":"2022-09-09","catastro":"0470101QA5307A0211PY","holder":null,"holder_count":null}},{"type":"Feature","geometry":{"type":"Point","coordinates":[-6.198523,36.459369]},"properties":{"id":"VUT/CA/15813","type":"VUT","group":"Completa","address":"CALLE VELARDE Nº 17 Plta/Piso 4 Pta/Letra DERECHA, piso 4, puerta DERECHA","postal_code":"11100","places":6,"units":3,"registered":"2022-11-05","catastro":"1288509QA5318G0059WL","holder":null,"holder_count":null}},{"type":"Feature","geometry":{"type":"Point","coordinates":[-6.198523,36.459369]},"properties":{"id":"VUT/CA/15814","type":"VUT","group":"Completa","address":"CALLE PESCADORES Nº 3 Plta/Piso 4 Pta/Letra IZQUIERDA, piso 4, puerta IZQUIERDA","postal_code":"11100","places":5,"units":3,"registered":"2022-11-05","catastro":"1288509QA5318G0020KS","holder":null,"holder_count":null}},{"type":"Feature","geometry":{"type":"Point","coordinates":[-6.196742,36.482332]},"properties":{"id":"VUT/CA/15856","type":"VUT","group":"Completa","address":"CALLE construcor tapia Nº 1 Portal 1 Plta/Piso baja Pta/Letra J, piso baja, puerta J","postal_code":"11100","places":4,"units":1,"registered":"2022-11-13","catastro":"1211430QA5411C0095AI","holder":null,"holder_count":null}},{"type":"Feature","geometry":{"type":"Point","coordinates":[-6.204535,36.468717]},"properties":{"id":"VUT/CA/15975","type":"VUT","group":"Completa","address":"BARRIADA PUERTO DE PALOS Blq. 5 Plta/Piso BAJO Pta/Letra C, piso BAJO, puerta C","postal_code":"11100","places":5,"units":2,"registered":"2022-12-05","catastro":"0697303QA5309H0005QW","holder":null,"holder_count":null}},{"type":"Feature","geometry":{"type":"Point","coordinates":[-6.211003,36.445064]},"properties":{"id":"VUT/CA/15983","type":"VUT","group":"Completa","address":"CALLE MALAGUEÑAS Nº 12","postal_code":"11100","places":6,"units":3,"registered":"2022-12-06","catastro":"0171201QA5307A0006SZ","holder":null,"holder_count":null}},{"type":"Feature","geometry":{"type":"Point","coordinates":[-6.20709,36.445448]},"properties":{"id":"VUT/CA/16418","type":"VUT","group":"Completa","address":"CALLE RONDA DEL ESTERO Nº 70 Portal 2 Plta/Piso 3 Pta/Letra 13, piso 3, puerta 13","postal_code":"11100","places":6,"units":3,"registered":"2023-02-14","catastro":"0470401QA5307A0108LE","holder":null,"holder_count":null}},{"type":"Feature","geometry":{"type":"Point","coordinates":[-6.198265,36.469478]},"properties":{"id":"VUT/CA/16583","type":"VUT","group":"Completa","address":"CALLE Colón Nº 54 Plta/Piso 2 Pta/Letra C, piso 2, puerta C","postal_code":"11100","places":8,"units":3,"registered":"2023-03-02","catastro":"1299808QA5319G0008OM","holder":null,"holder_count":null}},{"type":"Feature","geometry":{"type":"Point","coordinates":[-6.208648,36.45529]},"properties":{"id":"VUT/CA/16879","type":"VUT","group":"Completa","address":"CALLE Albenda Nº 2 Plta/Piso 4 Pta/Letra B, piso 4, puerta B","postal_code":"11100","places":6,"units":3,"registered":"2023-03-27","catastro":"0483521QA5308C0034YY","holder":null,"holder_count":null}},{"type":"Feature","geometry":{"type":"Point","coordinates":[-6.206307,36.455842]},"properties":{"id":"VUT/CA/16995","type":"VUT","group":"Completa","address":"CALLE BATALLONES DE MARINA Nº 11 Plta/Piso 2, piso 2","postal_code":"11100","places":6,"units":3,"registered":"2023-04-06","catastro":"0684701QA5308D0026PP","holder":null,"holder_count":null}},{"type":"Feature","geometry":{"type":"Point","coordinates":[-6.191335,36.474883]},"properties":{"id":"VUT/CA/16996","type":"VUT","group":"Completa","address":"CALLE El pardo Nº 7 Plta/Piso 2 Pta/Letra 5, piso 2, puerta 5","postal_code":"11100","places":8,"units":2,"registered":"2023-04-06","catastro":"1705402QA5410F0007ME","holder":null,"holder_count":null}},{"type":"Feature","geometry":{"type":"Point","coordinates":[-6.212648,36.451474]},"properties":{"id":"VUT/CA/17048","type":"VUT","group":"Completa","address":"CARRETERA CAMPOSOTO Nº 16 Blq. S Plta/Piso 3 Pta/Letra A, piso 3, puerta A","postal_code":"11100","places":4,"units":2,"registered":"2023-04-11","catastro":"9978201QA4397N0093XG","holder":null,"holder_count":null}},{"type":"Feature","geometry":{"type":"Point","coordinates":[-6.211915,36.454287]},"properties":{"id":"VUT/CA/17126","type":"VUT","group":"Completa","address":"CALLE Ruiseñor Nº 4 Calif.Nº A","postal_code":"11100","places":9,"units":5,"registered":"2023-04-18","catastro":"9882840QA4398B0001UB","holder":null,"holder_count":null}},{"type":"Feature","geometry":{"type":"Point","coordinates":[-6.200199,36.460337]},"properties":{"id":"VUT/CA/17307","type":"VUT","group":"Completa","address":"CALLE Pizarro Nº 7 Plta/Piso Bajo Pta/Letra Izq, piso Bajo, puerta Izq","postal_code":"11100","places":6,"units":2,"registered":"2023-05-01","catastro":"1089324qa5318g0002im","holder":null,"holder_count":null}},{"type":"Feature","geometry":{"type":"Point","coordinates":[-6.219911,36.449959]},"properties":{"id":"VUT/CA/17493","type":"VUT","group":"Completa","address":"CALLE VENEZUELA Nº 10","postal_code":"11100","places":4,"units":2,"registered":"2023-05-14","catastro":"9376224QA4397E0001PU","holder":null,"holder_count":null}},{"type":"Feature","geometry":{"type":"Point","coordinates":[-6.195191,36.467146]},"properties":{"id":"VUT/CA/17634","type":"VUT","group":"Completa","address":"CALLE MURILLO Nº 7 Plta/Piso 1 Pta/Letra B, piso 1, puerta B","postal_code":"11100","places":6,"units":3,"registered":"2023-05-23","catastro":"1596109QA5319F0003GO","holder":null,"holder_count":null}},{"type":"Feature","geometry":{"type":"Point","coordinates":[-6.209042,36.44245]},"properties":{"id":"VUT/CA/17683","type":"VUT","group":"Completa","address":"CALLE UNIVERSO Nº 22","postal_code":"11100","places":4,"units":1,"registered":"2023-05-26","catastro":"0268606QA5306G0042BD","holder":null,"holder_count":null}},{"type":"Feature","geometry":{"type":"Point","coordinates":[-6.195359,36.47124]},"properties":{"id":"VUT/CA/17790","type":"VUT","group":"Completa","address":"CALLE San Rafael Nº 41 Plta/Piso 1 Pta/Letra D, piso 1, puerta D","postal_code":"11100","places":4,"units":2,"registered":"2023-06-02","catastro":"1401503QA5410A0004FQ","holder":null,"holder_count":null}},{"type":"Feature","geometry":{"type":"Point","coordinates":[-6.189408,36.472617]},"properties":{"id":"VUT/CA/17807","type":"VUT","group":"Completa","address":"AVENIDA CARLOS III Nº 39 Esc. 2 Plta/Piso 1 Pta/Letra C, piso 1, puerta C","postal_code":"11100","places":4,"units":2,"registered":"2023-06-05","catastro":"1903024QA5410D0032EQ","holder":null,"holder_count":null}},{"type":"Feature","geometry":{"type":"Point","coordinates":[-6.199989,36.46586]},"properties":{"id":"VUT/CA/17853","type":"VUT","group":"Completa","address":"CALLE JOSE LOPEZ RODRIGUEZ Nº 6 Plta/Piso 1 Pta/Letra G, piso 1, puerta G","postal_code":"11100","places":8,"units":3,"registered":"2023-06-07","catastro":"1095302QA5319E0038ZE","holder":null,"holder_count":null}},{"type":"Feature","geometry":{"type":"Point","coordinates":[-6.206817,36.455262]},"properties":{"id":"VUT/CA/17868","type":"VUT","group":"Completa","address":"CALLE SANTO ENTIERRO Nº 12 Esc. 6 Plta/Piso BAJA Pta/Letra A, piso BAJA, puerta A","postal_code":"11100","places":4,"units":1,"registered":"2023-06-07","catastro":"0482401QA5308S0162IB","holder":null,"holder_count":null}},{"type":"Feature","geometry":{"type":"Point","coordinates":[-6.199486,36.467886]},"properties":{"id":"VUT/CA/17876","type":"VUT","group":"Completa","address":"PLAZA DE LA LADRILLERA Nº 1 Plta/Piso 4 Pta/Letra A, piso 4, puerta A","postal_code":"11100","places":6,"units":3,"registered":"2023-06-08","catastro":"1097801QA5319E0090UF","holder":"MARINWBANET S.L.L.","holder_count":1}},{"type":"Feature","geometry":{"type":"Point","coordinates":[-6.195889,36.476977]},"properties":{"id":"VUT/CA/17891","type":"VUT","group":"Completa","address":"CALLE HERMANOS PINZON Nº 11 Plta/Piso 1 Pta/Letra B, piso 1, puerta B","postal_code":"11100","places":7,"units":4,"registered":"2023-06-08","catastro":"1407801QA5410E0007KJ","holder":null,"holder_count":null}},{"type":"Feature","geometry":{"type":"Point","coordinates":[-6.206211,36.460105]},"properties":{"id":"VUT/CA/17953","type":"VUT","group":"Completa","address":"CALLE Profesor José Aumente Blq. 1 Plta/Piso 5 Pta/Letra A, piso 5, puerta A","postal_code":"11100","places":4,"units":3,"registered":"2023-06-13","catastro":"0588902QA5308H0088UZ","holder":null,"holder_count":null}},{"type":"Feature","geometry":{"type":"Point","coordinates":[-6.209281,36.441632]},"properties":{"id":"VUT/CA/17984","type":"VUT","group":"Completa","address":"CALLE ESCRITORA MARIA ZAMBRANO Nº 6 Plta/Piso 1 Pta/Letra IZQ, piso 1, puerta IZQ","postal_code":"11100","places":4,"units":2,"registered":"2023-06-20","catastro":"0268704QA5306G0020DB","holder":null,"holder_count":null}},{"type":"Feature","geometry":{"type":"Point","coordinates":[-6.199726,36.483227]},"properties":{"id":"VUT/CA/18030","type":"VUT","group":"Completa","address":"CALLE INGENIERO VARGAS MACHUCA Nº 5 Plta/Piso 13 Pta/Letra 2, piso 13, puerta 2","postal_code":"11100","places":4,"units":2,"registered":"2023-06-20","catastro":"1014103QA5411G0289OQ","holder":null,"holder_count":null}},{"type":"Feature","geometry":{"type":"Point","coordinates":[-6.200355,36.482837]},"properties":{"id":"VUT/CA/18208","type":"VUT","group":"Completa","address":"CALLE INGENIERO VARGAS MACHUCA Nº 1 Plta/Piso 6 Pta/Letra 1, piso 6, puerta 1","postal_code":"11100","places":5,"units":3,"registered":"2023-07-02","catastro":"0913901QA5401D0154LP","holder":null,"holder_count":null}},{"type":"Feature","geometry":{"type":"Point","coordinates":[-6.199887,36.4613]},"properties":{"id":"VUT/CA/18224","type":"VUT","group":"Por habitaciones","address":"CALLE LOPE DE VEGA Nº 5","postal_code":"11100","places":14,"units":7,"registered":"2023-07-04","catastro":"1190706QA5319A0001SI","holder":null,"holder_count":null}},{"type":"Feature","geometry":{"type":"Point","coordinates":[-6.20921,36.45404]},"properties":{"id":"VUT/CA/18244","type":"VUT","group":"Completa","address":"CALLE JOSÉ RAMOS BORRERO Nº 10 Blq. 2 Plta/Piso 1 Pta/Letra D, piso 1, puerta D","postal_code":"11100","places":6,"units":3,"registered":"2023-07-04","catastro":"0282902QA5308A0009GK","holder":null,"holder_count":null}},{"type":"Feature","geometry":{"type":"Point","coordinates":[-6.20709,36.445448]},"properties":{"id":"VUT/CA/18280","type":"VUT","group":"Completa","address":"AVENIDA Ronda del Estero Km 1 Calif.Nº 0 Blq. 1 Portal 1 Esc. 1 Plta/Piso 2 Pta/Letra 24 Compl.Dom. Av. Ronda del Estero 70 224, piso 2, puerta 24","postal_code":"11100","places":4,"units":2,"registered":"2023-07-07","catastro":"0470401QA5307A0087WO","holder":null,"holder_count":null}},{"type":"Feature","geometry":{"type":"Point","coordinates":[-6.196437,36.469433]},"properties":{"id":"VUT/CA/18438","type":"VUT","group":"Completa","address":"CALLE Mazarredo Nº 26 Plta/Piso Bajo Pta/Letra C, piso Bajo, puerta C","postal_code":"11100","places":4,"units":2,"registered":"2023-07-21","catastro":"1499708QA5319G0004IL","holder":null,"holder_count":null}},{"type":"Feature","geometry":{"type":"Point","coordinates":[-6.206211,36.460105]},"properties":{"id":"VUT/CA/18603","type":"VUT","group":"Completa","address":"CALLE Profesor José Aumente Blq. 1 Plta/Piso 5 Pta/Letra A, piso 5, puerta A","postal_code":"11100","places":4,"units":3,"registered":"2023-08-08","catastro":"0588902QA5308H0088UZ","holder":null,"holder_count":null}},{"type":"Feature","geometry":{"type":"Point","coordinates":[-6.200307,36.467217]},"properties":{"id":"VUT/CA/18611","type":"VUT","group":"Completa","address":"CALLE Poeta Jimenez Ayllon Nº 2 Plta/Piso 3 Pta/Letra D, piso 3, puerta D","postal_code":"11100","places":4,"units":2,"registered":"2023-08-09","catastro":"1096704QA5319E0078LI","holder":null,"holder_count":null}},{"type":"Feature","geometry":{"type":"Point","coordinates":[-6.19627,36.464331]},"properties":{"id":"VUT/CA/18628","type":"VUT","group":"Completa","address":"CALLE SAN FRANCISCO DE ASIS Nº 18 Plta/Piso 3, piso 3","postal_code":"11100","places":6,"units":3,"registered":"2023-08-14","catastro":"1493806QA5319C0004PY","holder":null,"holder_count":null}},{"type":"Feature","geometry":{"type":"Point","coordinates":[-6.19583,36.465701]},"properties":{"id":"VUT/CA/18671","type":"VUT","group":"Completa","address":"CALLE CAPATAZ NICOLÁS CARRILLO Nº 3 Plta/Piso BAJO, piso BAJO","postal_code":"11100","places":4,"units":1,"registered":"2023-08-21","catastro":"1595701QA5319F0001YU","holder":null,"holder_count":null}},{"type":"Feature","geometry":{"type":"Point","coordinates":[-6.194664,36.464231]},"properties":{"id":"VUT/CA/18692","type":"VUT","group":"Completa","address":"CALLE Amargura Nº 37 Compl.Dom. vivienda 1","postal_code":"11100","places":4,"units":2,"registered":"2023-08-24","catastro":"1593011QA5319D0001IS","holder":"Proyectos y Servicios la Aurora, SL","holder_count":1}},{"type":"Feature","geometry":{"type":"Point","coordinates":[-6.20743,36.463171]},"properties":{"id":"VUT/CA/18803","type":"VUT","group":"Completa","address":"PLAZA DE LAS SIRENAS Nº 2 Plta/Piso BAJO Pta/Letra B, piso BAJO, puerta B","postal_code":"11100","places":6,"units":3,"registered":"2023-09-12","catastro":"0491802QA5309A0050TG","holder":null,"holder_count":null}},{"type":"Feature","geometry":{"type":"Point","coordinates":[-6.173408,36.410362]},"properties":{"id":"VUT/CA/19047","type":"VUT","group":"Completa","address":"CALLE SAN NICOLAS Nº 4 Plta/Piso EN Pta/Letra C, piso EN, puerta C","postal_code":"11100","places":5,"units":2,"registered":"2023-11-05","catastro":"11015A021000080000QZ","holder":null,"holder_count":null}},{"type":"Feature","geometry":{"type":"Point","coordinates":[-6.202582,36.454251]},"properties":{"id":"VUT/CA/19159","type":"VUT","group":"Completa","address":"CALLE SAN ONOFRE Nº 119","postal_code":"11100","places":10,"units":4,"registered":"2023-11-24","catastro":"0983353QA5308D0001EF","holder":null,"holder_count":null}},{"type":"Feature","geometry":{"type":"Point","coordinates":[-6.197879,36.463716]},"properties":{"id":"VUT/CA/19175","type":"VUT","group":"Completa","address":"CALLE SAN JOSE Nº 9 Plta/Piso BAJO Pta/Letra B, piso BAJO, puerta B","postal_code":"11100","places":4,"units":1,"registered":"2023-11-28","catastro":"1293405QA5319C0003MT","holder":null,"holder_count":null}},{"type":"Feature","geometry":{"type":"Point","coordinates":[-6.197879,36.463716]},"properties":{"id":"VUT/CA/19176","type":"VUT","group":"Completa","address":"CALLE SAN JOSE Nº 9 Plta/Piso BAJO Pta/Letra C, piso BAJO, puerta C","postal_code":"11100","places":4,"units":1,"registered":"2023-11-28","catastro":"1293405QA5319C0004QY","holder":null,"holder_count":null}},{"type":"Feature","geometry":{"type":"Point","coordinates":[-6.197879,36.463716]},"properties":{"id":"VUT/CA/19179","type":"VUT","group":"Completa","address":"CALLE SAN JOSE Nº 9 Plta/Piso 1 Pta/Letra D, piso 1, puerta D","postal_code":"11100","places":4,"units":1,"registered":"2023-11-28","catastro":"1293405QA5319C0005WU","holder":null,"holder_count":null}},{"type":"Feature","geometry":{"type":"Point","coordinates":[-6.197879,36.463716]},"properties":{"id":"VUT/CA/19180","type":"VUT","group":"Completa","address":"CALLE SAN JOSE Nº 9 Plta/Piso ATICO, piso ATICO","postal_code":"11100","places":4,"units":1,"registered":"2023-11-28","catastro":"1293405QA5319C0007RO","holder":null,"holder_count":null}},{"type":"Feature","geometry":{"type":"Point","coordinates":[-6.21679,36.445954]},"properties":{"id":"VUT/CA/19238","type":"VUT","group":"Completa","address":"CALLE CETINA Nº 7 Plta/Piso BAJO, piso BAJO","postal_code":"11100","places":4,"units":2,"registered":"2023-12-13","catastro":"9571510QA4397B0001BE","holder":null,"holder_count":null}},{"type":"Feature","geometry":{"type":"Point","coordinates":[-6.200968,36.465137]},"properties":{"id":"VUT/CA/19408","type":"VUT","group":"Completa","address":"CALLE Arenal Nº 13 Plta/Piso 1 Pta/Letra B, piso 1, puerta B","postal_code":"11100","places":6,"units":4,"registered":"2024-01-12","catastro":"1093801QA5319C0002KR","holder":null,"holder_count":null}},{"type":"Feature","geometry":{"type":"Point","coordinates":[-6.209281,36.441632]},"properties":{"id":"VUT/CA/19440","type":"VUT","group":"Completa","address":"AVENIDA OSA MENOR Nº 3 Pta/Letra A, puerta A","postal_code":"11100","places":5,"units":2,"registered":"2024-01-17","catastro":"0268704QA5306G0004EP","holder":null,"holder_count":null}},{"type":"Feature","geometry":{"type":"Point","coordinates":[-6.199726,36.483227]},"properties":{"id":"VUT/CA/19473","type":"VUT","group":"Completa","address":"CALLE INGENIERO VARGAS MACHUCA Nº 3 Blq. 2 Esc. 2 Plta/Piso 5 Pta/Letra 2, piso 5, puerta 2","postal_code":"11100","places":5,"units":2,"registered":"2024-01-21","catastro":"1014103QA5411G0257OQ","holder":null,"holder_count":null}},{"type":"Feature","geometry":{"type":"Point","coordinates":[-6.195721,36.467195]},"properties":{"id":"VUT/CA/19537","type":"VUT","group":"Completa","address":"CALLE MURILLO Nº 8 Plta/Piso 3, piso 3","postal_code":"11100","places":10,"units":4,"registered":"2024-01-27","catastro":"1497510QA5319G0006YZ","holder":null,"holder_count":null}},{"type":"Feature","geometry":{"type":"Point","coordinates":[-6.192072,36.469863]},"properties":{"id":"VUT/CA/19584","type":"VUT","group":"Completa","address":"CALLE CADIZ Nº 2 Plta/Piso 2 Pta/Letra IZ, piso 2, puerta IZ","postal_code":"11100","places":6,"units":3,"registered":"2024-01-31","catastro":"1799006QA5319H0007PI","holder":null,"holder_count":null}},{"type":"Feature","geometry":{"type":"Point","coordinates":[-6.20709,36.445448]},"properties":{"id":"VUT/CA/19599","type":"VUT","group":"Completa","address":"CALLE sol Nº 70 Plta/Piso 3 Pta/Letra 25, piso 3, puerta 25","postal_code":"11100","places":4,"units":2,"registered":"2024-02-01","catastro":"0470401QA5307A0120WO","holder":null,"holder_count":null}},{"type":"Feature","geometry":{"type":"Point","coordinates":[-6.195669,36.465046]},"properties":{"id":"VUT/CA/19619","type":"VUT","group":"Completa","address":"CALLE CALLE SAN PEDRO APOSTOL Nº 6","postal_code":"11100","places":3,"units":1,"registered":"2024-02-02","catastro":"1494003QA5319C0002MR","holder":null,"holder_count":null}},{"type":"Feature","geometry":{"type":"Point","coordinates":[-6.212648,36.451474]},"properties":{"id":"VUT/CA/19871","type":"VUT","group":"Completa","address":"CARRETERA DE CAMPOSOTO Nº 16 Blq. R Plta/Piso 2 Pta/Letra D, piso 2, puerta D","postal_code":"11100","places":6,"units":2,"registered":"2024-03-04","catastro":"9978201QA4397N0068YX","holder":"IG CADIZ SL","holder_count":1}},{"type":"Feature","geometry":{"type":"Point","coordinates":[-6.201627,36.455472]},"properties":{"id":"VUT/CA/19919","type":"VUT","group":"Completa","address":"PLAZA Tercio de Flandes Nº 17 Blq. 1 Plta/Piso 6 Pta/Letra A, piso 6, puerta A","postal_code":"11100","places":6,"units":3,"registered":"2024-03-09","catastro":"0984501QA5308D0025MO","holder":null,"holder_count":null}},{"type":"Feature","geometry":{"type":"Point","coordinates":[-6.209374,36.45559]},"properties":{"id":"VUT/CA/19920","type":"VUT","group":"Completa","address":"CALLE LUIS MILENA Nº 6 Portal 1 Plta/Piso 5 Pta/Letra B, piso 5, puerta B","postal_code":"11100","places":8,"units":3,"registered":"2024-03-09","catastro":"0183502QA5308C0044SD","holder":null,"holder_count":null}},{"type":"Feature","geometry":{"type":"Point","coordinates":[-6.199778,36.459601]},"properties":{"id":"VUT/CA/19930","type":"VUT","group":"Completa","address":"CALLE MARIANA DE ARTEAGA Nº 14 Blq. 14 Plta/Piso 1 Pta/Letra B, piso 1, puerta B","postal_code":"11100","places":6,"units":2,"registered":"2024-03-10","catastro":"1088403QA5318G0005DE","holder":null,"holder_count":null}},{"type":"Feature","geometry":{"type":"Point","coordinates":[-6.197433,36.46732]},"properties":{"id":"VUT/CA/20037","type":"VUT","group":"Completa","address":"CALLE González Hontoria Nº 9 Plta/Piso 1º, piso 1º","postal_code":"11100","places":7,"units":3,"registered":"2024-03-19","catastro":"1396826QA5319E0002LX","holder":null,"holder_count":null}},{"type":"Feature","geometry":{"type":"Point","coordinates":[-6.20248,36.455197]},"properties":{"id":"VUT/CA/20064","type":"VUT","group":"Completa","address":"PLAZA EMPERADOR CARLOS V Nº 2 Pta/Letra 5 Compl.Dom. APARTAMENTO, puerta 5","postal_code":"11100","places":5,"units":2,"registered":"2024-03-21","catastro":"0883101qa5308d0035jh","holder":null,"holder_count":null}},{"type":"Feature","geometry":{"type":"Point","coordinates":[-6.208405,36.44238]},"properties":{"id":"VUT/CA/20081","type":"VUT","group":"Completa","address":"CALLE Cayo Junio Draco Nº 1","postal_code":"11100","places":12,"units":4,"registered":"2024-03-25","catastro":"04710Q7QA5306N0001DQ","holder":null,"holder_count":null}},{"type":"Feature","geometry":{"type":"Point","coordinates":[-6.189755,36.473902]},"properties":{"id":"VUT/CA/20173","type":"VUT","group":"Por habitaciones","address":"CALLE REVELACIÓN Nº 19","postal_code":"11100","places":4,"units":1,"registered":"2024-04-04","catastro":"1904306QA5410D0001TW","holder":null,"holder_count":null}},{"type":"Feature","geometry":{"type":"Point","coordinates":[-6.194808,36.466125]},"properties":{"id":"VUT/CA/20212","type":"VUT","group":"Por habitaciones","address":"CALLE Almirante Cervera Nº 4 Pta/Letra B, puerta B","postal_code":"11100","places":1,"units":5,"registered":"2024-04-08","catastro":"1595712QA5319F0003AO","holder":null,"holder_count":null}},{"type":"Feature","geometry":{"type":"Point","coordinates":[-6.199582,36.464856]},"properties":{"id":"VUT/CA/20213","type":"VUT","group":"Completa","address":"CALLE ISAAC PERAL Nº 11 Plta/Piso 2 Pta/Letra A, piso 2, puerta A","postal_code":"11100","places":6,"units":3,"registered":"2024-04-08","catastro":"1194601QA5319C0007SO","holder":null,"holder_count":null}},{"type":"Feature","geometry":{"type":"Point","coordinates":[-6.210703,36.453382]},"properties":{"id":"VUT/CA/20233","type":"VUT","group":"Completa","address":"CALLE MARQUES DE RECAÑO Nº 30 Pta/Letra 36, puerta 36","postal_code":"11100","places":4,"units":2,"registered":"2024-04-09","catastro":"0181411QA5308A0073EG","holder":null,"holder_count":null}},{"type":"Feature","geometry":{"type":"Point","coordinates":[-6.198523,36.459369]},"properties":{"id":"VUT/CA/20332","type":"VUT","group":"Completa","address":"CALLE VELARDE Nº 15 Plta/Piso 3 Pta/Letra DCHA, piso 3, puerta DCHA","postal_code":"11100","places":6,"units":3,"registered":"2024-04-19","catastro":"1288509QA5318G0047HP","holder":"PHYTONTEX SL","holder_count":1}},{"type":"Feature","geometry":{"type":"Point","coordinates":[-6.205102,36.457619]},"properties":{"id":"VUT/CA/20355","type":"VUT","group":"Completa","address":"CALLE REAL Nº 198 Plta/Piso 2 Pta/Letra M, piso 2, puerta M","postal_code":"11100","places":6,"units":2,"registered":"2024-04-21","catastro":"0686007QA5308F0008AH","holder":null,"holder_count":null}},{"type":"Feature","geometry":{"type":"Point","coordinates":[-6.215181,36.44667]},"properties":{"id":"VUT/CA/20438","type":"VUT","group":"Completa","address":"CALLE Francisco de la Vega Nº 13","postal_code":"11100","places":8,"units":3,"registered":"2024-04-26","catastro":"9773113QA4397D0001WZ","holder":null,"holder_count":null}},{"type":"Feature","geometry":{"type":"Point","coordinates":[-6.210781,36.455965]},"properties":{"id":"VUT/CA/20443","type":"VUT","group":"Completa","address":"CALLE Real Nº 234 Esc. 2 Plta/Piso 3 Pta/Letra A, piso 3, puerta A","postal_code":"11100","places":3,"units":1,"registered":"2024-04-28","catastro":"0083404QA5308C0113GJ","holder":null,"holder_count":null}},{"type":"Feature","geometry":{"type":"Point","coordinates":[-6.207305,36.451015]},"properties":{"id":"VUT/CA/20587","type":"VUT","group":"Completa","address":"CALLE PINTOR HERNANDEZ HOMEDES Nº 6 Plta/Piso 2 Pta/Letra C, piso 2, puerta C","postal_code":"11100","places":8,"units":3,"registered":"2024-05-09","catastro":"0478703QA5307G0011JI","holder":null,"holder_count":null}},{"type":"Feature","geometry":{"type":"Point","coordinates":[-6.212693,36.450464]},"properties":{"id":"VUT/CA/20592","type":"VUT","group":"Completa","address":"CALLE CARRETERA DE CAMPOSOTO Nº 29A","postal_code":"11100","places":6,"units":3,"registered":"2024-05-10","catastro":"9978707QA4397H0008GK","holder":null,"holder_count":null}},{"type":"Feature","geometry":{"type":"Point","coordinates":[-6.210781,36.455965]},"properties":{"id":"VUT/CA/20603","type":"VUT","group":"Completa","address":"CALLE real Nº 234 Esc. 2 Plta/Piso 4 Pta/Letra b, piso 4, puerta b","postal_code":"11100","places":4,"units":1,"registered":"2024-05-10","catastro":"0083404qa5308c0126wr","holder":null,"holder_count":null}},{"type":"Feature","geometry":{"type":"Point","coordinates":[-6.198112,36.470008]},"properties":{"id":"VUT/CA/20757","type":"VUT","group":"Por habitaciones","address":"AVENIDA REYES CATOLICOS Portal 26 Plta/Piso 1 Pta/Letra D, piso 1, puerta D","postal_code":"11100","places":6,"units":3,"registered":"2024-05-22","catastro":"1299809QA5319G0007JX","holder":null,"holder_count":null}},{"type":"Feature","geometry":{"type":"Point","coordinates":[-6.19336,36.473497]},"properties":{"id":"VUT/CA/20775","type":"VUT","group":"Completa","address":"CALLE ANA MARIA MATUTE Portal 2 Plta/Piso 1 Pta/Letra A, piso 1, puerta A","postal_code":"11100","places":6,"units":3,"registered":"2024-05-23","catastro":"1540301QA5410D0065BW","holder":null,"holder_count":null}},{"type":"Feature","geometry":{"type":"Point","coordinates":[-6.209281,36.441632]},"properties":{"id":"VUT/CA/20786","type":"VUT","group":"Completa","address":"CALLE ESCRITORA MARIA ZAMBRANO Nº 4A","postal_code":"11100","places":4,"units":2,"registered":"2024-05-23","catastro":"0268704QA5306G0022GX","holder":null,"holder_count":null}},{"type":"Feature","geometry":{"type":"Point","coordinates":[-6.200355,36.482837]},"properties":{"id":"VUT/CA/20794","type":"VUT","group":"Completa","address":"CALLE INGENIERO VARGAS MACHUCA Nº 1 Blq. 1 Plta/Piso 15 Pta/Letra 2 Compl.Dom. LAS TORRES DEL ARENAL, piso 15, puerta 2","postal_code":"11100","places":4,"units":3,"registered":"2024-05-29","catastro":"0913901QA5401D0190BA","holder":"ACTIVIDADES ECONOMICAS JEVEG, S.L.","holder_count":2}},{"type":"Feature","geometry":{"type":"Point","coordinates":[-6.210878,36.44967]},"properties":{"id":"VUT/CA/20800","type":"VUT","group":"Completa","address":"PLAZA PLAZA DE LAS ALEGRIAS Nº 3 Portal 3 Plta/Piso 2 Pta/Letra B, piso 2, puerta B","postal_code":"11100","places":10,"units":4,"registered":"2024-05-24","catastro":"0076601QA5307E0038GA","holder":null,"holder_count":null}},{"type":"Feature","geometry":{"type":"Point","coordinates":[-6.194368,36.466997]},"properties":{"id":"VUT/CA/20810","type":"VUT","group":"Por habitaciones","address":"CALLE real Nº 8 Plta/Piso 1 Pta/Letra b, piso 1, puerta b","postal_code":"11100","places":6,"units":3,"registered":"2024-05-26","catastro":"1596114QA5319F0014KJ","holder":null,"holder_count":null}},{"type":"Feature","geometry":{"type":"Point","coordinates":[-6.212342,36.455985]},"properties":{"id":"VUT/CA/20832","type":"VUT","group":"Completa","address":"CALLE REAL Nº 242","postal_code":"11100","places":2,"units":4,"registered":"2024-05-27","catastro":"9983201QA4398D0001DG","holder":"ISLA PARQUE SL","holder_count":2}},{"type":"Feature","geometry":{"type":"Point","coordinates":[-6.212521,36.455959]},"properties":{"id":"VUT/CA/20833","type":"VUT","group":"Completa","address":"CALLE REAL Nº 244","postal_code":"11100","places":2,"units":2,"registered":"2024-05-27","catastro":"9983202QA4398D0013IQ","holder":"ISLA PARQUE SL","holder_count":2}},{"type":"Feature","geometry":{"type":"Point","coordinates":[-6.210781,36.455965]},"properties":{"id":"VUT/CA/20932","type":"VUT","group":"Completa","address":"AVENIDA PONCE DE LEON Portal 2 Plta/Piso 1 Pta/Letra B Compl.Dom. EDIFICIO LOS ESTEROS, piso 1, puerta B","postal_code":"11100","places":2,"units":1,"registered":"2024-06-04","catastro":"0083404QA5308C0134UO","holder":null,"holder_count":null}},{"type":"Feature","geometry":{"type":"Point","coordinates":[-6.200862,36.460981]},"properties":{"id":"VUT/CA/21025","type":"VUT","group":"Completa","address":"CALLE REAL Nº 124","postal_code":"11100","places":8,"units":3,"registered":"2024-06-11","catastro":"0990011QA5309B0001JD","holder":null,"holder_count":null}},{"type":"Feature","geometry":{"type":"Point","coordinates":[-6.19266,36.464758]},"properties":{"id":"VUT/CA/21127","type":"VUT","group":"Completa","address":"AVENIDA san juan bosco6754867 Nº 36 Plta/Piso 2 Pta/Letra a, piso 2, puerta a","postal_code":"11100","places":6,"units":2,"registered":"2024-06-18","catastro":"1796456QA5319F0070MO","holder":null,"holder_count":null}},{"type":"Feature","geometry":{"type":"Point","coordinates":[-6.190554,36.472416]},"properties":{"id":"VUT/CA/21182","type":"VUT","group":"Completa","address":"CALLE COFRADIA DEL HUERTO Nº 8 Plta/Piso 3 Pta/Letra B, piso 3, puerta B","postal_code":"11100","places":6,"units":3,"registered":"2024-06-22","catastro":"1702315QA5410D0028JM","holder":null,"holder_count":null}},{"type":"Feature","geometry":{"type":"Point","coordinates":[-6.208968,36.450428]},"properties":{"id":"VUT/CA/21265","type":"VUT","group":"Completa","address":"CALLE ESCRITOR LUIS BERENGER Nº 1 Esc. 1 Plta/Piso 5 Pta/Letra B, piso 5, puerta B","postal_code":"11100","places":4,"units":2,"registered":"2024-06-28","catastro":"0478721QA5307G0021JG","holder":null,"holder_count":null}},{"type":"Feature","geometry":{"type":"Point","coordinates":[-6.196377,36.479365]},"properties":{"id":"VUT/CA/21300","type":"VUT","group":"Completa","address":"CALLE BATALLA DEL EBRO Nº 23 Plta/Piso 1 Pta/Letra J, piso 1, puerta J","postal_code":"11100","places":4,"units":1,"registered":"2024-07-02","catastro":"1310003QA5411A0099IJ","holder":null,"holder_count":null}},{"type":"Feature","geometry":{"type":"Point","coordinates":[-6.197377,36.471992]},"properties":{"id":"VUT/CA/21406","type":"VUT","group":"Completa","address":"CALLE SERVANDO GUTIERREZ Blq. 1 Plta/Piso 5 Pta/Letra B, piso 5, puerta B","postal_code":"11100","places":4,"units":2,"registered":"2024-07-15","catastro":"1202401QA5410C0033PH","holder":null,"holder_count":null}},{"type":"Feature","geometry":{"type":"Point","coordinates":[-6.206841,36.452364]},"properties":{"id":"VUT/CA/21437","type":"VUT","group":"Completa","address":"AVENIDA DE LA CONSTITUCIÓN DE 1978 Nº 15 Plta/Piso 3 Pta/Letra D, piso 3, puerta D","postal_code":"11100","places":6,"units":3,"registered":"2024-07-12","catastro":"0580202QA5308B0016EI","holder":null,"holder_count":null}},{"type":"Feature","geometry":{"type":"Point","coordinates":[-6.20709,36.445448]},"properties":{"id":"VUT/CA/21458","type":"VUT","group":"Completa","address":"CALLE Sol Nº 70 Portal 1 Plta/Piso 2 Pta/Letra 26, piso 2, puerta 26","postal_code":"11100","places":4,"units":2,"registered":"2024-07-16","catastro":"0470401QA5307A0089RA","holder":null,"holder_count":null}},{"type":"Feature","geometry":{"type":"Point","coordinates":[-6.21442,36.454225]},"properties":{"id":"VUT/CA/21548","type":"VUT","group":"Completa","address":"CALLE FLAMENCO Nº 10","postal_code":"11100","places":4,"units":2,"registered":"2024-07-23","catastro":"9882713QA4398B0001WB","holder":null,"holder_count":null}},{"type":"Feature","geometry":{"type":"Point","coordinates":[-6.195331,36.471852]},"properties":{"id":"VUT/CA/21561","type":"VUT","group":"Completa","address":"CALLE CHURRUCA Nº 40 Plta/Piso 1 Pta/Letra C, piso 1, puerta C","postal_code":"11100","places":4,"units":1,"registered":"2024-07-24","catastro":"1402407QA5410C0003RK","holder":null,"holder_count":null}},{"type":"Feature","geometry":{"type":"Point","coordinates":[-6.194788,36.470313]},"properties":{"id":"VUT/CA/21566","type":"VUT","group":"Completa","address":"CALLE DOCTOR FRANCISCO COBOS Portal 4 Plta/Piso 2 Pta/Letra B, piso 2, puerta B","postal_code":"11100","places":4,"units":1,"registered":"2024-07-24","catastro":"1500501QA5410B0008PF","holder":null,"holder_count":null}},{"type":"Feature","geometry":{"type":"Point","coordinates":[-6.205903,36.45471]},"properties":{"id":"VUT/CA/21673","type":"VUT","group":"Completa","address":"CALLE GALERA Nº 7 Plta/Piso 1 Pta/Letra C, piso 1, puerta C","postal_code":"11100","places":2,"units":3,"registered":"2024-08-02","catastro":"0582809QA5308B0008EE","holder":null,"holder_count":null}},{"type":"Feature","geometry":{"type":"Point","coordinates":[-6.20072,36.458541]},"properties":{"id":"VUT/CA/21702","type":"VUT","group":"Completa","address":"CALLE OLIVARILLO Nº 10 Plta/Piso ÁTICO Pta/Letra H, piso ÁTICO, puerta H","postal_code":"11100","places":4,"units":2,"registered":"2024-08-05","catastro":"1086305QA5318E0008BA","holder":"GADES GESTIÓN TURÍSTICA SL","holder_count":1}},{"type":"Feature","geometry":{"type":"Point","coordinates":[-6.207938,36.46016]},"properties":{"id":"VUT/CA/21711","type":"VUT","group":"Completa","address":"AVENIDA AL ANDALUS Nº 13 Plta/Piso 6 Pta/Letra C, piso 6, puerta C","postal_code":"11100","places":5,"units":3,"registered":"2024-08-06","catastro":"0288001QA5308G0025PD","holder":null,"holder_count":null}},{"type":"Feature","geometry":{"type":"Point","coordinates":[-6.21679,36.445954]},"properties":{"id":"VUT/CA/21741","type":"VUT","group":"Completa","address":"CALLE cetina Nº 7 Plta/Piso Bjs, piso Bjs","postal_code":"11100","places":4,"units":2,"registered":"2024-08-11","catastro":"9571510QA4397B0001BE","holder":null,"holder_count":null}},{"type":"Feature","geometry":{"type":"Point","coordinates":[-6.197925,36.458744]},"properties":{"id":"VUT/CA/21742","type":"VUT","group":"Completa","address":"CALLE SAN MARCOS Nº 185 Plta/Piso 3 Pta/Letra C, piso 3, puerta C","postal_code":"11100","places":4,"units":2,"registered":"2024-08-11","catastro":"1387713QA5318E0017XJ","holder":null,"holder_count":null}},{"type":"Feature","geometry":{"type":"Point","coordinates":[-6.198224,36.459122]},"properties":{"id":"VUT/CA/21757","type":"VUT","group":"Completa","address":"CALLE PESCADORES Nº 4 Plta/Piso 2 Pta/Letra IZQ, piso 2, puerta IZQ","postal_code":"11100","places":6,"units":2,"registered":"2024-08-12","catastro":"1288507QA5318G0046BO","holder":null,"holder_count":null}},{"type":"Feature","geometry":{"type":"Point","coordinates":[-6.199037,36.469166]},"properties":{"id":"VUT/CA/21765","type":"VUT","group":"Completa","address":"AVENIDA REYES CATÓLICOS Nº 24 Plta/Piso 3 Pta/Letra D, piso 3, puerta D","postal_code":"11100","places":5,"units":3,"registered":"2024-08-13","catastro":"1198701QA5319E0018ZS","holder":null,"holder_count":null}},{"type":"Feature","geometry":{"type":"Point","coordinates":[-6.192631,36.469846]},"properties":{"id":"VUT/CA/21794","type":"VUT","group":"Completa","address":"CALLE MARQUES DE LA VICTORIA Portal 3 Plta/Piso 3 Pta/Letra DCH, piso 3, puerta DCH","postal_code":"11100","places":4,"units":3,"registered":"2024-08-17","catastro":"1799028QA5319H0007HI","holder":null,"holder_count":null}},{"type":"Feature","geometry":{"type":"Point","coordinates":[-6.200947,36.462943]},"properties":{"id":"VUT/CA/21810","type":"VUT","group":"Completa","address":"AVENIDA almirante fausitino ruiz Nº 2 Plta/Piso 1 Pta/Letra a, piso 1, puerta a","postal_code":"11100","places":4,"units":2,"registered":"2024-08-19","catastro":"1092815QA5319A0094HT","holder":null,"holder_count":null}},{"type":"Feature","geometry":{"type":"Point","coordinates":[-6.19794,36.465102]},"properties":{"id":"VUT/CA/21960","type":"VUT","group":"Completa","address":"CALLE calle las cortes Nº 4 Esc. 1 Pta/Letra dch, puerta dch","postal_code":"11100","places":3,"units":2,"registered":"2024-09-10","catastro":"1294501QA5319C0005ZU","holder":null,"holder_count":null}},{"type":"Feature","geometry":{"type":"Point","coordinates":[-6.193585,36.466075]},"properties":{"id":"VUT/CA/21967","type":"VUT","group":"Completa","address":"CALLE SAN SERVANDO Nº 50 Calif.Nº 1 Pta/Letra DCHA, puerta DCHA","postal_code":"11100","places":3,"units":1,"registered":"2024-09-11","catastro":"1695107QA5319F0003UO","holder":null,"holder_count":null}},{"type":"Feature","geometry":{"type":"Point","coordinates":[-6.204385,36.468562]},"properties":{"id":"VUT/CA/22019","type":"VUT","group":"Completa","address":"BARRIADA PUERTO DE PALOS Nº 6 Plta/Piso 1 Pta/Letra B, piso 1, puerta B","postal_code":"11100","places":4,"units":3,"registered":"2024-09-19","catastro":"0697304QA5309H0004OQ","holder":null,"holder_count":null}},{"type":"Feature","geometry":{"type":"Point","coordinates":[-6.203103,36.461673]},"properties":{"id":"VUT/CA/22020","type":"VUT","group":"Completa","address":"CALLE CASCOS AZULES DE LA ISLA Nº 4 Plta/Piso 6 Pta/Letra A, piso 6, puerta A","postal_code":"11100","places":7,"units":4,"registered":"2024-09-20","catastro":"0890701QA5309B0225FF","holder":null,"holder_count":null}},{"type":"Feature","geometry":{"type":"Point","coordinates":[-6.199644,36.458723]},"properties":{"id":"VUT/CA/22068","type":"VUT","group":"Completa","address":"AVENIDA Manuel de Falla Nº 9 Plta/Piso 6 Pta/Letra B, piso 6, puerta B","postal_code":"11100","places":6,"units":3,"registered":"2024-09-29","catastro":"1187015QA5318E0026AM","holder":null,"holder_count":null}},{"type":"Feature","geometry":{"type":"Point","coordinates":[-6.204672,36.461738]},"properties":{"id":"VUT/CA/22149","type":"VUT","group":"Completa","address":"CALLE MONTIGNY Nº 2 Calif.Nº C Blq. 1 Plta/Piso 1 Pta/Letra C, piso 1, puerta C","postal_code":"11100","places":4,"units":2,"registered":"2024-10-15","catastro":"0690101QA5309B0007AL","holder":null,"holder_count":null}},{"type":"Feature","geometry":{"type":"Point","coordinates":[-6.198818,36.464415]},"properties":{"id":"VUT/CA/22164","type":"VUT","group":"Completa","address":"PLAZA del rey Nº 4 Plta/Piso 2 Pta/Letra D, piso 2, puerta D","postal_code":"11100","places":3,"units":2,"registered":"2024-10-15","catastro":"1193104QA5319C0004AY","holder":null,"holder_count":null}},{"type":"Feature","geometry":{"type":"Point","coordinates":[-6.197853,36.464798]},"properties":{"id":"VUT/CA/22176","type":"VUT","group":"Completa","address":"CALLE REAL Nº 70 Plta/Piso 3, piso 3","postal_code":"11100","places":8,"units":4,"registered":"2024-10-17","catastro":"1294507QA5319C0006UI","holder":null,"holder_count":null}},{"type":"Feature","geometry":{"type":"Point","coordinates":[-6.19782,36.461348]},"properties":{"id":"VUT/CA/22186","type":"VUT","group":"Por habitaciones","address":"CALLE LEZO Nº 15","postal_code":"11100","places":2,"units":4,"registered":"2024-10-18","catastro":"1290305QA5319A0001WI","holder":null,"holder_count":null}},{"type":"Feature","geometry":{"type":"Point","coordinates":[-6.197908,36.470176]},"properties":{"id":"VUT/CA/22250","type":"VUT","group":"Completa","address":"CALLE PROFESOR ANTONIO RAMOS Nº 5 Plta/Piso 1 Pta/Letra D, piso 1, puerta D","postal_code":"11100","places":7,"units":3,"registered":"2024-10-28","catastro":"1299802QA5319G0005ZB","holder":null,"holder_count":null}},{"type":"Feature","geometry":{"type":"Point","coordinates":[-6.194362,36.470162]},"properties":{"id":"VUT/CA/22323","type":"VUT","group":"Completa","address":"CALLE SAN MIGUEL Nº 22","postal_code":"11100","places":4,"units":1,"registered":"2024-11-08","catastro":"1500506QA5410B0001WU","holder":null,"holder_count":null}},{"type":"Feature","geometry":{"type":"Point","coordinates":[-6.212648,36.451474]},"properties":{"id":"VUT/CA/22487","type":"VUT","group":"Completa","address":"CARRETERA camposoto Nº 16 s Compl.Dom. apartamento 3 entrada por calle trasera","postal_code":"11100","places":4,"units":1,"registered":"2024-12-04","catastro":"9978201qa4397n0106ar","holder":"kisa s xxl sl","holder_count":2}},{"type":"Feature","geometry":{"type":"Point","coordinates":[-6.203525,36.454581]},"properties":{"id":"VUT/CA/22529","type":"VUT","group":"Completa","address":"CALLE Bergantín Nº 13","postal_code":"11100","places":6,"units":3,"registered":"2024-12-13","catastro":"0774005QA5307D0001WB","holder":null,"holder_count":null}},{"type":"Feature","geometry":{"type":"Point","coordinates":[-6.198818,36.464415]},"properties":{"id":"VUT/CA/22555","type":"VUT","group":"Completa","address":"PLAZA DEL REY Nº 4 Plta/Piso 1 Pta/Letra DCHA, piso 1, puerta DCHA","postal_code":"11100","places":6,"units":2,"registered":"2024-12-16","catastro":"1193104QA5319C0002OR","holder":null,"holder_count":null}},{"type":"Feature","geometry":{"type":"Point","coordinates":[-6.212648,36.451474]},"properties":{"id":"VUT/CA/22567","type":"VUT","group":"Completa","address":"CARRETERA camposoto Nº 16 s Compl.Dom. apartamento 3 entrada por calle trasera","postal_code":"11100","places":4,"units":1,"registered":"2024-12-18","catastro":"9978201qa4397n0106ar","holder":"kisa s xxl sl","holder_count":2}},{"type":"Feature","geometry":{"type":"Point","coordinates":[-6.206841,36.452364]},"properties":{"id":"VUT/CA/22572","type":"VUT","group":"Completa","address":"AVENIDA CONSTITUCION 1978 Nº 17 Plta/Piso 4 Pta/Letra B, piso 4, puerta B","postal_code":"11100","places":6,"units":3,"registered":"2024-12-19","catastro":"0580202QA5308B0049RO","holder":"ACTIVIDADES ECONOMICAS JEVEG, S.L.","holder_count":2}},{"type":"Feature","geometry":{"type":"Point","coordinates":[-6.196831,36.467393]},"properties":{"id":"VUT/CA/22630","type":"VUT","group":"Por habitaciones","address":"CALLE MURILLO Nº 27","postal_code":"11100","places":6,"units":2,"registered":"2025-01-04","catastro":"1396805QA5319E0001ZZ","holder":null,"holder_count":null}},{"type":"Feature","geometry":{"type":"Point","coordinates":[-6.204069,36.459767]},"properties":{"id":"VUT/CA/22731","type":"VUT","group":"Completa","address":"CALLE benjamin lopez Blq. 9 Plta/Piso 4 Pta/Letra B, piso 4, puerta B","postal_code":"11100","places":5,"units":3,"registered":"2025-01-17","catastro":"0688622QA5308H0018KK","holder":null,"holder_count":null}},{"type":"Feature","geometry":{"type":"Point","coordinates":[-6.197454,36.473285]},"properties":{"id":"VUT/CA/22747","type":"VUT","group":"Completa","address":"CALLE Sa José y San Antonio Nº 15 Plta/Piso 4 Pta/Letra H, piso 4, puerta H","postal_code":"11100","places":6,"units":2,"registered":"2025-01-20","catastro":"1203101QA5410C0080SW","holder":null,"holder_count":null}},{"type":"Feature","geometry":{"type":"Point","coordinates":[-6.214195,36.447442]},"properties":{"id":"VUT/CA/22843","type":"VUT","group":"Completa","address":"CALLE CARRETERA DE CAMPOSOTO Nº 61 Pta/Letra C, puerta C","postal_code":"11100","places":5,"units":2,"registered":"2025-01-30","catastro":"9975303QA4397F0003SK","holder":null,"holder_count":null}},{"type":"Feature","geometry":{"type":"Point","coordinates":[-6.197853,36.464798]},"properties":{"id":"VUT/CA/22968","type":"VUT","group":"Completa","address":"PLAZA PLAZA DEL REY Nº 8","postal_code":"11100","places":4,"units":2,"registered":"2025-02-13","catastro":"1294507QA5319C0001WE","holder":"ESPECTACULOS DAEX, SL","holder_count":1}},{"type":"Feature","geometry":{"type":"Point","coordinates":[-6.200307,36.467217]},"properties":{"id":"VUT/CA/23011","type":"VUT","group":"Completa","address":"CALLE General Garcia de la Herran Blq. 36A Plta/Piso 3 Pta/Letra B, piso 3, puerta B","postal_code":"11100","places":4,"units":2,"registered":"2025-02-17","catastro":"1096704QA5319E0046LI","holder":null,"holder_count":null}},{"type":"Feature","geometry":{"type":"Point","coordinates":[-6.213155,36.437093]},"properties":{"id":"VUT/CA/23059","type":"VUT","group":"Completa","address":"CALLE BUEN PASTOR Nº 429 Calif.Nº A","postal_code":"11100","places":3,"units":1,"registered":"2025-02-21","catastro":"04710P1QA5307A0001AH","holder":null,"holder_count":null}},{"type":"Feature","geometry":{"type":"Point","coordinates":[-6.202125,36.460133]},"properties":{"id":"VUT/CA/23158","type":"VUT","group":"Completa","address":"CALLE QUIDORA Nº 4 Plta/Piso BAJO Pta/Letra B, piso BAJO, puerta B","postal_code":"11100","places":5,"units":3,"registered":"2025-03-03","catastro":"0888004QA5308H0002KT","holder":null,"holder_count":null}},{"type":"Feature","geometry":{"type":"Point","coordinates":[-6.196437,36.469433]},"properties":{"id":"VUT/CA/23287","type":"VUT","group":"Completa","address":"CALLE Mazarredo Nº 26 Plta/Piso Bajo Pta/Letra B, piso Bajo, puerta B","postal_code":"11100","places":4,"units":2,"registered":"2025-03-11","catastro":"1499708QA5319G0003UK","holder":"Lightbooking SL","holder_count":3}},{"type":"Feature","geometry":{"type":"Point","coordinates":[-6.206211,36.460105]},"properties":{"id":"VUT/CA/23407","type":"VUT","group":"Completa","address":"CALLE PROFESOR AUMENTE Nº 1 Plta/Piso 6 Pta/Letra A, piso 6, puerta A","postal_code":"11100","places":4,"units":2,"registered":"2025-03-19","catastro":"0588902QA5308H0090YB","holder":null,"holder_count":null}},{"type":"Feature","geometry":{"type":"Point","coordinates":[-6.199505,36.46001]},"properties":{"id":"VUT/CA/23471","type":"VUT","group":"Completa","address":"CALLE SAN BRUNO Nº 29 Pta/Letra B, puerta B","postal_code":"11100","places":4,"units":1,"registered":"2025-03-21","catastro":"1188110QA5318G0119BJ","holder":null,"holder_count":null}},{"type":"Feature","geometry":{"type":"Point","coordinates":[-6.198298,36.467819]},"properties":{"id":"VUT/CA/23547","type":"VUT","group":"Completa","address":"CALLE CONSTRUCTORA NAVAL Nº 1 Esc. 2 Plta/Piso 3 Pta/Letra A, piso 3, puerta A","postal_code":"11100","places":4,"units":2,"registered":"2025-03-25","catastro":"1197701QA5319E0031ML","holder":null,"holder_count":null}},{"type":"Feature","geometry":{"type":"Point","coordinates":[-6.208048,36.457649]},"properties":{"id":"VUT/CA/23677","type":"VUT","group":"Completa","address":"AVENIDA DUQUE DE ARCOS Nº 9 Esc. 1 Plta/Piso 6 Pta/Letra B, piso 6, puerta B","postal_code":"11100","places":4,"units":2,"registered":"2025-03-28","catastro":"0385801QA5308E0022HG","holder":null,"holder_count":null}},{"type":"Feature","geometry":{"type":"Point","coordinates":[-6.195548,36.476394]},"properties":{"id":"VUT/CA/23756","type":"VUT","group":"Completa","address":"CALLE SAN FEDERICO Nº 8 Plta/Piso 4 Pta/Letra E, piso 4, puerta E","postal_code":"11100","places":4,"units":3,"registered":"2025-03-31","catastro":"1407602QA5410E0073KH","holder":null,"holder_count":null}},{"type":"Feature","geometry":{"type":"Point","coordinates":[-6.199037,36.469166]},"properties":{"id":"VUT/CA/23760","type":"VUT","group":"Completa","address":"CALLE COLON Nº 55 Plta/Piso 8 Pta/Letra C, piso 8, puerta C","postal_code":"11100","places":8,"units":3,"registered":"2025-03-31","catastro":"1198701QA5319E0081JI","holder":null,"holder_count":null}},{"type":"Feature","geometry":{"type":"Point","coordinates":[-6.210781,36.455965]},"properties":{"id":"VUT/CA/23802","type":"VUT","group":"Completa","address":"CALLE real Nº 234 Esc. 2 Plta/Piso 2 Pta/Letra b, piso 2, puerta b","postal_code":"11100","places":3,"units":1,"registered":"2025-04-01","catastro":"0083404qa5308c0102uo","holder":null,"holder_count":null}},{"type":"Feature","geometry":{"type":"Point","coordinates":[-6.198112,36.470008]},"properties":{"id":"VUT/CA/23911","type":"VUT","group":"Por habitaciones","address":"CALLE REYES CATOLICOS Portal 26 Plta/Piso 1 Pta/Letra D, piso 1, puerta D","postal_code":"11100","places":6,"units":3,"registered":"2025-04-03","catastro":"1299809QA5319G0007JX","holder":null,"holder_count":null}},{"type":"Feature","geometry":{"type":"Point","coordinates":[-6.203765,36.462949]},"properties":{"id":"VUT/CA/23949","type":"VUT","group":"Completa","address":"AVENIDA Almirante Leon Herrero Nº 13 Calif.Nº A Plta/Piso 5 Pta/Letra C, piso 5, puerta C","postal_code":"11100","places":4,"units":2,"registered":"2025-04-03","catastro":"0690533QA5309B0075TB","holder":null,"holder_count":null}},{"type":"Feature","geometry":{"type":"Point","coordinates":[-6.206281,36.458573]},"properties":{"id":"VUT/CA/23955","type":"VUT","group":"Completa","address":"CALLE matrona ana mariscal Nº 6","postal_code":"11100","places":4,"units":1,"registered":"2025-04-04","catastro":"0586201QA5308E0197GE","holder":null,"holder_count":null}},{"type":"Feature","geometry":{"type":"Point","coordinates":[-6.21839,36.449389]},"properties":{"id":"VUT/CA/24037","type":"VUT","group":"Completa","address":"CALLE HONDURAS Nº 2","postal_code":"11100","places":7,"units":4,"registered":"2025-04-10","catastro":"9476101QA4397E0013GH","holder":null,"holder_count":null}},{"type":"Feature","geometry":{"type":"Point","coordinates":[-6.194185,36.46427]},"properties":{"id":"VUT/CA/24130","type":"VUT","group":"Completa","address":"CALLE San Marcos Nº 87","postal_code":"11100","places":5,"units":3,"registered":"2025-04-27","catastro":"1693812QA5319D0001KS","holder":null,"holder_count":null}},{"type":"Feature","geometry":{"type":"Point","coordinates":[-6.20933,36.45291]},"properties":{"id":"VUT/CA/24137","type":"VUT","group":"Por habitaciones","address":"CALLE CONDE DE LA MARQUINA Nº 3 Plta/Piso 2 Pta/Letra G, piso 2, puerta G","postal_code":"11100","places":2,"units":1,"registered":"2025-04-29","catastro":"0180410QA5308A0008FJ","holder":null,"holder_count":null}},{"type":"Feature","geometry":{"type":"Point","coordinates":[-6.213127,36.449411]},"properties":{"id":"VUT/CA/24328","type":"VUT","group":"Completa","address":"CARRETERA CAMPOSOTO Nº 31 Esc. 2 Plta/Piso 0 Pta/Letra 2B, piso 0, puerta 2B","postal_code":"11100","places":4,"units":1,"registered":"2025-05-24","catastro":"9976101QA4397F0118YP","holder":"BUSTOBELGESTION SL","holder_count":2}},{"type":"Feature","geometry":{"type":"Point","coordinates":[-6.213127,36.449411]},"properties":{"id":"VUT/CA/24330","type":"VUT","group":"Completa","address":"CARRETERA CAMPOSOTO Nº 31 Esc. 2 Plta/Piso 0 Pta/Letra 2C, piso 0, puerta 2C","postal_code":"11100","places":4,"units":1,"registered":"2025-05-24","catastro":"9976101QA4397F0119UA","holder":"BUSTOBELGESTION SL","holder_count":2}},{"type":"Feature","geometry":{"type":"Point","coordinates":[-6.194996,36.464187]},"properties":{"id":"VUT/CA/24424","type":"VUT","group":"Completa","address":"CALLE SAN SERVANDO Nº 2A Portal A","postal_code":"11100","places":2,"units":1,"registered":"2025-06-03","catastro":"1593107QA5319D1001QP","holder":null,"holder_count":null}},{"type":"Feature","geometry":{"type":"Point","coordinates":[-6.200999,36.460852]},"properties":{"id":"VUT/CA/24611","type":"VUT","group":"Por habitaciones","address":"CALLE REAL Nº 132","postal_code":"11100","places":4,"units":1,"registered":"2025-06-16","catastro":"0990014QA5309B0001ZD","holder":null,"holder_count":null}},{"type":"Feature","geometry":{"type":"Point","coordinates":[-6.193622,36.471467]},"properties":{"id":"VUT/CA/24627","type":"VUT","group":"Completa","address":"CALLE JUAN DE AUSTRIA Nº 36","postal_code":"11100","places":7,"units":3,"registered":"2025-06-18","catastro":"1601010QA5410B0001AU","holder":null,"holder_count":null}},{"type":"Feature","geometry":{"type":"Point","coordinates":[-6.209382,36.461192]},"properties":{"id":"VUT/CA/24686","type":"VUT","group":"Completa","address":"AVENIDA ANDALUCIA Nº 4 Blq. 4 Portal 4 Esc. 4 Plta/Piso 3 Pta/Letra D Compl.Dom. RESIDENCIAL ISLA DE LEON, piso 3, puerta D","postal_code":"11100","places":4,"units":2,"registered":"2025-06-22","catastro":"0288301QA5308G0111FT","holder":null,"holder_count":null}},{"type":"Feature","geometry":{"type":"Point","coordinates":[-6.199926,36.455954]},"properties":{"id":"VUT/CA/24973","type":"VUT","group":"Completa","address":"CALLE CARMEN Nº 43 Plta/Piso 2 Pta/Letra F, piso 2, puerta F","postal_code":"11100","places":6,"units":2,"registered":"2025-07-19","catastro":"0983301QA5308D0061AP","holder":null,"holder_count":null}},{"type":"Feature","geometry":{"type":"Point","coordinates":[-6.198956,36.461192]},"properties":{"id":"VUT/CA/24983","type":"VUT","group":"Completa","address":"CALLE TIRSO DE MOLINA Nº 5 Pta/Letra 002, puerta 002","postal_code":"11100","places":4,"units":2,"registered":"2025-07-21","catastro":"1190001QA5319A0004AA","holder":"INVERSIONES PATRÓN 20 S.L.","holder_count":2}},{"type":"Feature","geometry":{"type":"Point","coordinates":[-6.198956,36.461192]},"properties":{"id":"VUT/CA/24984","type":"VUT","group":"Completa","address":"CALLE TIRSO DE MOLINA Nº 5 Pta/Letra 001, puerta 001","postal_code":"11100","places":4,"units":2,"registered":"2025-07-21","catastro":"1190001QA5319A0003PP","holder":"INVERSIONES PATRÓN 20 S.L.","holder_count":2}},{"type":"Feature","geometry":{"type":"Point","coordinates":[-6.195775,36.462588]},"properties":{"id":"VUT/CA/25032","type":"VUT","group":"Completa","address":"CALLE SAN MARCOS Nº 94 Plta/Piso 4 Pta/Letra D, piso 4, puerta D","postal_code":"11100","places":4,"units":2,"registered":"2025-07-29","catastro":"1392422QA5319C0018YJ","holder":null,"holder_count":null}},{"type":"Feature","geometry":{"type":"Point","coordinates":[-6.203389,36.458885]},"properties":{"id":"VUT/CA/25194","type":"VUT","group":"Completa","address":"CALLE GALIANO Nº 5 Plta/Piso 1º Pta/Letra H, piso 1º, puerta H","postal_code":"11100","places":4,"units":1,"registered":"2025-09-02","catastro":"0787301QA5308H0021LK","holder":null,"holder_count":null}},{"type":"Feature","geometry":{"type":"Point","coordinates":[-6.194428,36.468395]},"properties":{"id":"VUT/CA/25342","type":"VUT","group":"Completa","address":"CALLE SANTO DOMINGO Nº 5 Portal 5 Pta/Letra B, puerta B","postal_code":"11100","places":3,"units":1,"registered":"2025-10-14","catastro":"1598011QA5319H0019WJ","holder":null,"holder_count":null}},{"type":"Feature","geometry":{"type":"Point","coordinates":[-6.196437,36.469433]},"properties":{"id":"VUT/CA/25507","type":"VUT","group":"Completa","address":"CALLE Mazarredo Nº 26 Plta/Piso 1 Pta/Letra C, piso 1, puerta C","postal_code":"11100","places":4,"units":2,"registered":"2025-11-24","catastro":"1499708QA5319G0007AX","holder":"Lightbooking SL","holder_count":3}},{"type":"Feature","geometry":{"type":"Point","coordinates":[-6.209534,36.47105]},"properties":{"id":"VUT/CA/25512","type":"VUT","group":"Completa","address":"CALLE CAÑO HERRERA Nº 34 Plta/Piso 3 Pta/Letra 38, piso 3, puerta 38","postal_code":"11100","places":4,"units":1,"registered":"2025-11-26","catastro":"0500004QA5400B0291BE","holder":null,"holder_count":null}},{"type":"Feature","geometry":{"type":"Point","coordinates":[-6.205655,36.451364]},"properties":{"id":"VUT/CA/25546","type":"VUT","group":"Completa","address":"CALLE BUEN PASTOR Nº 48 Plta/Piso BAJO Pta/Letra B, piso BAJO, puerta B","postal_code":"11100","places":6,"units":2,"registered":"2025-12-06","catastro":"0578056QA5307H0003LS","holder":null,"holder_count":null}},{"type":"Feature","geometry":{"type":"Point","coordinates":[-6.200076,36.464472]},"properties":{"id":"VUT/CA/25552","type":"VUT","group":"Completa","address":"CALLE LEPANTO Nº 8 Plta/Piso BAJO Pta/Letra A, piso BAJO, puerta A","postal_code":"11100","places":2,"units":1,"registered":"2025-12-09","catastro":"1093312QA5319C0001ME","holder":null,"holder_count":null}},{"type":"Feature","geometry":{"type":"Point","coordinates":[-6.198831,36.459526]},"properties":{"id":"VUT/CA/25824","type":"VUT","group":"Completa","address":"CALLE VELARDE Nº 20 Plta/Piso 4 Pta/Letra DCHA, piso 4, puerta DCHA","postal_code":"11100","places":6,"units":3,"registered":"2026-02-10","catastro":"1188308QA5318G0009RU","holder":null,"holder_count":null}},{"type":"Feature","geometry":{"type":"Point","coordinates":[-6.207321,36.456252]},"properties":{"id":"VUT/CA/25877","type":"VUT","group":"Completa","address":"CALLE SAN GIL Nº 4 Plta/Piso BAJO Pta/Letra 4, piso BAJO, puerta 4","postal_code":"11100","places":3,"units":1,"registered":"2026-02-21","catastro":"0684743QA5308D0022MY","holder":null,"holder_count":null}},{"type":"Feature","geometry":{"type":"Point","coordinates":[-6.209154,36.445693]},"properties":{"id":"VUT/CA/25939","type":"VUT","group":"Completa","address":"CALLE PLANETA Nº 14","postal_code":"11100","places":5,"units":3,"registered":"2026-03-04","catastro":"0272720QA5307A0001EH","holder":null,"holder_count":null}},{"type":"Feature","geometry":{"type":"Point","coordinates":[-6.197322,36.465425]},"properties":{"id":"VUT/CA/26013","type":"VUT","group":"Completa","address":"CALLE Real 54 Plta/Piso 1 Pta/Letra Derecha, piso 1, puerta Derecha","postal_code":"11100","places":14,"units":6,"registered":"2026-03-16","catastro":"1395605QA5319E0004AQ","holder":null,"holder_count":null}}]}