{"type":"FeatureCollection","municipio":{"slug":"setenil-de-las-bodegas","name":"Setenil de las Bodegas","total":20,"places":103,"source_updated_at":"2026-10-05"},"features":[{"type":"Feature","geometry":{"type":"Point","coordinates":[-5.179746,36.863027]},"properties":{"id":"VUT/CA/026282","type":"VUT","group":"Completa","address":"CALLE JABONERIA Nº 14","postal_code":"11692","places":4,"units":1,"registered":"2026-04-24","catastro":"5821U2100000000001QQ","holder":null,"holder_count":null}},{"type":"Feature","geometry":{"type":"Point","coordinates":[-5.184368,36.86299]},"properties":{"id":"VUT/CA/026788","type":"VUT","group":"Completa","address":"CALLE REYES CATOLICOS Nº 2","postal_code":"11692","places":8,"units":3,"registered":"2026-07-02","catastro":"5421517UF0852S0001WU","holder":null,"holder_count":null}},{"type":"Feature","geometry":{"type":"Point","coordinates":[-5.181581,36.863497]},"properties":{"id":"VUT/CA/08107","type":"VUT","group":"Completa","address":"CALLE VILCHEZ Nº 7","postal_code":"11692","places":2,"units":1,"registered":"2019-06-24","catastro":"5621203uf0852s0012zg","holder":null,"holder_count":null}},{"type":"Feature","geometry":{"type":"Point","coordinates":[-5.181647,36.862554]},"properties":{"id":"VUT/CA/12821","type":"VUT","group":"Completa","address":"CALLE VILCHEZ Nº 32 Calif.Nº A","postal_code":"11692","places":5,"units":2,"registered":"2021-10-01","catastro":"5621726UF0852S0001WU","holder":null,"holder_count":null}},{"type":"Feature","geometry":{"type":"Point","coordinates":[-5.181647,36.862554]},"properties":{"id":"VUT/CA/12926","type":"VUT","group":"Completa","address":"CALLE VILCHEZ Nº 32 Calif.Nº A","postal_code":"11692","places":5,"units":2,"registered":"2021-11-02","catastro":"5621726UF0852S0001WU","holder":null,"holder_count":null}},{"type":"Feature","geometry":{"type":"Point","coordinates":[-5.176645,36.862942]},"properties":{"id":"VUT/CA/13086","type":"VUT","group":"Completa","address":"CALLE CERRILLO Nº 69 Calif.Nº 2 Plta/Piso 2 Pta/Letra DER, piso 2, puerta DER","postal_code":"11692","places":4,"units":2,"registered":"2021-11-30","catastro":"6121414UF0862S0001IA","holder":"PROMOSETENIL SL","holder_count":1}},{"type":"Feature","geometry":{"type":"Point","coordinates":[-5.18097,36.863948]},"properties":{"id":"VUT/CA/18507","type":"VUT","group":"Por habitaciones","address":"CALLE Calle villa Nº 30","postal_code":"11692","places":3,"units":1,"registered":"2023-07-29","catastro":"5722709UF0852S0001GU","holder":null,"holder_count":null}},{"type":"Feature","geometry":{"type":"Point","coordinates":[-5.129753,36.86672]},"properties":{"id":"VUT/CA/18563","type":"VUT","group":"Completa","address":"FINCA LA MANGA Nº S/N","postal_code":"11692","places":6,"units":3,"registered":"2023-08-04","catastro":"11034A007000160000UG","holder":null,"holder_count":null}},{"type":"Feature","geometry":{"type":"Point","coordinates":[-5.18233,36.862186]},"properties":{"id":"VUT/CA/18979","type":"VUT","group":"Completa","address":"CALLE SAN SEBASTIAN Nº 52","postal_code":"11692","places":6,"units":3,"registered":"2023-10-24","catastro":"5520907UF0852S0001AU","holder":"PRIETO MARIN SL","holder_count":1}},{"type":"Feature","geometry":{"type":"Point","coordinates":[-5.207573,36.852036]},"properties":{"id":"VUT/CA/19164","type":"VUT","group":"Completa","address":"DISEMINADO VENTA DE LECHES Nº 139","postal_code":"11692","places":4,"units":2,"registered":"2023-11-26","catastro":"3005139UF1930N0001JB","holder":null,"holder_count":null}},{"type":"Feature","geometry":{"type":"Point","coordinates":[-5.181187,36.861976]},"properties":{"id":"VUT/CA/19258","type":"VUT","group":"Completa","address":"CALLE CANTARERIA Nº 5","postal_code":"11692","places":6,"units":4,"registered":"2023-12-15","catastro":"5719107UF0851N0001LT","holder":null,"holder_count":null}},{"type":"Feature","geometry":{"type":"Point","coordinates":[-5.181691,36.862577]},"properties":{"id":"VUT/CA/19745","type":"VUT","group":"Completa","address":"CALLE VILCHES Nº 32","postal_code":"11692","places":6,"units":3,"registered":"2024-02-15","catastro":"5621727UF0852S0001AU","holder":null,"holder_count":null}},{"type":"Feature","geometry":{"type":"Point","coordinates":[-5.207573,36.852036]},"properties":{"id":"VUT/CA/19895","type":"VUT","group":"Completa","address":"DISEMINADO VENTA DE LECHES Nº 139","postal_code":"11692","places":6,"units":2,"registered":"2024-03-05","catastro":"3005139UF1930N0001JB","holder":null,"holder_count":null}},{"type":"Feature","geometry":{"type":"Point","coordinates":[-5.178121,36.860974]},"properties":{"id":"VUT/CA/20136","type":"VUT","group":"Completa","address":"CALLE ALCAIDE MANRIQUE Nº 4","postal_code":"11692","places":7,"units":2,"registered":"2024-03-31","catastro":"5918102UF0851N0001XT","holder":null,"holder_count":null}},{"type":"Feature","geometry":{"type":"Point","coordinates":[-5.177233,36.862645]},"properties":{"id":"VUT/CA/20583","type":"VUT","group":"Completa","address":"CALLE CERRILLO Nº 43","postal_code":"11962","places":4,"units":1,"registered":"2024-05-09","catastro":"6121404UF0862S0001FA","holder":null,"holder_count":null}},{"type":"Feature","geometry":{"type":"Point","coordinates":[-5.182737,36.863638]},"properties":{"id":"VUT/CA/21572","type":"VUT","group":"Completa","address":"CALLE Callejón Nº 25 Plta/Piso 2 Pta/Letra I, piso 2, puerta I","postal_code":"11692","places":4,"units":3,"registered":"2024-07-24","catastro":"5622038UF0852S0009XG","holder":null,"holder_count":null}},{"type":"Feature","geometry":{"type":"Point","coordinates":[-5.180076,36.861283]},"properties":{"id":"VUT/CA/22557","type":"VUT","group":"Completa","address":"CALLE VENTOSILLA ALTA Nº 11","postal_code":"11692","places":14,"units":4,"registered":"2024-12-17","catastro":"5719905UF0851N0001PT","holder":null,"holder_count":null}},{"type":"Feature","geometry":{"type":"Point","coordinates":[-5.181784,36.863343]},"properties":{"id":"VUT/CA/23032","type":"VUT","group":"Completa","address":"CALLE VILCHEZ Nº 16","postal_code":"11692","places":2,"units":3,"registered":"2025-02-19","catastro":"5621741UF0852S0001FU","holder":null,"holder_count":null}},{"type":"Feature","geometry":{"type":"Point","coordinates":[-5.177588,36.862123]},"properties":{"id":"VUT/CA/24937","type":"VUT","group":"Completa","address":"CALLE AVENIDA DEL CARMEN Nº 32","postal_code":"11692","places":2,"units":2,"registered":"2025-07-14","catastro":"5920906UF0852S0001HU","holder":null,"holder_count":null}},{"type":"Feature","geometry":{"type":"Point","coordinates":[-5.181757,36.86339]},"properties":{"id":"VUT/CA/25206","type":"VUT","group":"Completa","address":"CALLE VILCHES Nº 14","postal_code":"11692","places":5,"units":2,"registered":"2025-09-05","catastro":"5621742UF0852S0001MU","holder":"HERMANOS SALAS CB","holder_count":1}}]}