{"type":"FeatureCollection","municipio":{"slug":"trebujena","name":"Trebujena","total":3,"places":16,"source_updated_at":"2026-10-05"},"features":[{"type":"Feature","geometry":{"type":"Point","coordinates":[-6.363032,36.778568]},"properties":{"id":"VUT/CA/14692","type":"VUT","group":"Completa","address":"CALLE MEDIODIA Portal 3 Plta/Piso 4 Pta/Letra E, piso 4, puerta E","postal_code":"11560","places":6,"units":2,"registered":"2022-06-15","catastro":"5538101QA3753G0041TM","holder":"GATE RENTALS SL","holder_count":1}},{"type":"Feature","geometry":{"type":"Point","coordinates":[-6.362953,36.780057]},"properties":{"id":"VUT/CA/14748","type":"VUT","group":"Completa","address":"CALLE AVENIDA DE LAS PILETAS Nº 67 Plta/Piso 3 Pta/Letra B, piso 3, puerta B","postal_code":"11560","places":6,"units":2,"registered":"2022-06-20","catastro":"5438401QA3753G0014UT","holder":"LA CASA DE MARIQUITA TRASQUILA HOLDING S.L.","holder_count":1}},{"type":"Feature","geometry":{"type":"Point","coordinates":[-6.170765,36.871334]},"properties":{"id":"VUT/CA/25572","type":"VUT","group":"Completa","address":"CALLE CORDOBA Nº 4","postal_code":"11560","places":4,"units":2,"registered":"2025-12-11","catastro":"2345802QA5824N0001AM","holder":null,"holder_count":null}}]}