{"type":"FeatureCollection","municipio":{"slug":"ubrique","name":"Ubrique","total":14,"places":52,"source_updated_at":"2026-10-05"},"features":[{"type":"Feature","geometry":{"type":"Point","coordinates":[-5.443818,36.675582]},"properties":{"id":"VUT/CA/06170","type":"VUT","group":"Completa","address":"CALLE REMEDIOS Nº 13","postal_code":"11600","places":3,"units":1,"registered":"2018-10-21","catastro":"1718113TF8611H0002DO","holder":null,"holder_count":null}},{"type":"Feature","geometry":{"type":"Point","coordinates":[-5.444903,36.675351]},"properties":{"id":"VUT/CA/10691","type":"VUT","group":"Completa","address":"CALLE SAN SEBASTIÁN Nº 58 B","postal_code":"11600","places":4,"units":1,"registered":"2020-07-06","catastro":"1618909TF8611H0002ZO","holder":null,"holder_count":null}},{"type":"Feature","geometry":{"type":"Point","coordinates":[-5.44448,36.675331]},"properties":{"id":"VUT/CA/13886","type":"VUT","group":"Completa","address":"CALLE Palma Nº 24","postal_code":"11600","places":3,"units":1,"registered":"2022-04-06","catastro":"1618411TF8611H0003HP","holder":null,"holder_count":null}},{"type":"Feature","geometry":{"type":"Point","coordinates":[-5.44246,36.67995]},"properties":{"id":"VUT/CA/17337","type":"VUT","group":"Completa","address":"CALLE LIBERTAD Nº 10","postal_code":"11600","places":4,"units":1,"registered":"2023-05-03","catastro":"1823915TF8612D0001KS","holder":null,"holder_count":null}},{"type":"Feature","geometry":{"type":"Point","coordinates":[-5.443354,36.678994]},"properties":{"id":"VUT/CA/17988","type":"VUT","group":"Completa","address":"CALLE AUDITOR FRANCISCO BOHORQUEZ, Nº 14 Plta/Piso BJ, piso BJ","postal_code":"11600","places":2,"units":1,"registered":"2023-06-20","catastro":"1722415TF8612D0018GE","holder":null,"holder_count":null}},{"type":"Feature","geometry":{"type":"Point","coordinates":[-5.445725,36.679178]},"properties":{"id":"VUT/CA/18955","type":"VUT","group":"Completa","address":"AVENIDA HERRERA ORIA Nº 6","postal_code":"11600","places":4,"units":2,"registered":"2023-10-18","catastro":"1522203TF8612B0001BJ","holder":null,"holder_count":null}},{"type":"Feature","geometry":{"type":"Point","coordinates":[-5.464408,36.681896]},"properties":{"id":"VUT/CA/19092","type":"VUT","group":"Completa","address":"DISEMINADO DS LADERAS DE PAVO Nº 6","postal_code":"11600","places":8,"units":4,"registered":"2023-11-13","catastro":"002500300TF76D0001IS","holder":null,"holder_count":null}},{"type":"Feature","geometry":{"type":"Point","coordinates":[-5.448948,36.671008]},"properties":{"id":"VUT/CA/22358","type":"VUT","group":"Completa","address":"CALLE FERNANDO GAVILAN Nº 20 Plta/Piso 3, piso 3","postal_code":"11600","places":3,"units":1,"registered":"2024-11-14","catastro":"1213942TF8611C0001OO","holder":null,"holder_count":null}},{"type":"Feature","geometry":{"type":"Point","coordinates":[-5.445425,36.677755]},"properties":{"id":"VUT/CA/22469","type":"VUT","group":"Completa","address":"CALLE CORRALES JORDAN Nº 27 Plta/Piso 1 Pta/Letra B, piso 1, puerta B","postal_code":"11600","places":5,"units":3,"registered":"2024-12-03","catastro":"1620901TF8612B0002DK","holder":null,"holder_count":null}},{"type":"Feature","geometry":{"type":"Point","coordinates":[-5.448386,36.673388]},"properties":{"id":"VUT/CA/22940","type":"VUT","group":"Completa","address":"CALLE PASEO DEL PRADO Nº 92 Esc. 1 Plta/Piso 0 Pta/Letra 1, piso 0, puerta 1","postal_code":"11600","places":2,"units":1,"registered":"2025-02-11","catastro":"1316816TF8611E0002ZT","holder":null,"holder_count":null}},{"type":"Feature","geometry":{"type":"Point","coordinates":[-5.44448,36.675331]},"properties":{"id":"VUT/CA/25358","type":"VUT","group":"Completa","address":"CALLE Palma Nº 24 Plta/Piso 1 Pta/Letra 1, piso 1, puerta 1","postal_code":"11600","places":2,"units":1,"registered":"2025-10-16","catastro":"1618411TF8611H3001IW","holder":null,"holder_count":null}},{"type":"Feature","geometry":{"type":"Point","coordinates":[-5.441968,36.677883]},"properties":{"id":"VUT/CA/25376","type":"VUT","group":"Por habitaciones","address":"CALLE TORRE Nº 70","postal_code":"11600","places":4,"units":1,"registered":"2025-10-21","catastro":"1821934TF8612B0001PJ","holder":null,"holder_count":null}},{"type":"Feature","geometry":{"type":"Point","coordinates":[-5.448386,36.673388]},"properties":{"id":"VUT/CA/25631","type":"VUT","group":"Completa","address":"CALLE paseo del prado 92b Nº 92 Plta/Piso B Pta/Letra B, piso B, puerta B","postal_code":"11600","places":2,"units":1,"registered":"2026-01-02","catastro":"1316816TF8611E0002ZT","holder":null,"holder_count":null}},{"type":"Feature","geometry":{"type":"Point","coordinates":[-5.443221,36.677245]},"properties":{"id":"VUT/CA/25709","type":"VUT","group":"Completa","address":"CALLE CONSISTORIO Nº 5","postal_code":"11600","places":6,"units":3,"registered":"2026-01-22","catastro":"1720404TF8612B0001AJ","holder":null,"holder_count":null}}]}