{"type":"FeatureCollection","municipio":{"slug":"villaluenga-del-rosario","name":"Villaluenga del Rosario","total":3,"places":23,"source_updated_at":"2026-10-05"},"features":[{"type":"Feature","geometry":{"type":"Point","coordinates":[-5.384412,36.697043]},"properties":{"id":"VUT/CA/24233","type":"VUT","group":"Completa","address":"CALLE MORENO DE MORA Nº 2","postal_code":"11406","places":6,"units":2,"registered":"2025-05-14","catastro":"7141406TF8674S0001MU","holder":null,"holder_count":null}},{"type":"Feature","geometry":{"type":"Point","coordinates":[-5.385037,36.696057]},"properties":{"id":"VUT/CA/25379","type":"VUT","group":"Completa","address":"CALLE DOCTOR VAZQUEZ GUTIERREZ Nº 48 Plta/Piso 1 Pta/Letra IZQ, piso 1, puerta IZQ","postal_code":"11611","places":5,"units":2,"registered":"2025-10-22","catastro":"6940820TF8664S0006AI","holder":null,"holder_count":null}},{"type":"Feature","geometry":{"type":"Point","coordinates":[-5.385037,36.696057]},"properties":{"id":"VUT/CA/25405","type":"VUT","group":"Completa","address":"CALLE DOCTOR VÁZQUEZ GUTIÉRREZ Nº 48 Plta/Piso 1 Pta/Letra A, piso 1, puerta A","postal_code":"11611","places":12,"units":3,"registered":"2025-10-29","catastro":"6940820TF8664S0004OY","holder":null,"holder_count":null}}]}