{"type":"FeatureCollection","municipio":{"slug":"villamartin","name":"Villamartín","total":5,"places":41,"source_updated_at":"2026-10-05"},"features":[{"type":"Feature","geometry":{"type":"Point","coordinates":[-5.653761,36.83063]},"properties":{"id":"VUT/CA/027040","type":"VUT","group":"Completa","address":"CAMINO Marcegoso Nº s/n","postal_code":"11650","places":15,"units":20,"registered":"2026-09-11","catastro":"53041A036000990001FL","holder":null,"holder_count":null}},{"type":"Feature","geometry":{"type":"Point","coordinates":[-5.640805,36.85962]},"properties":{"id":"VUT/CA/027088","type":"VUT","group":"Completa","address":"CALLE Granja San Juan Nº 41","postal_code":"11650","places":6,"units":4,"registered":"2026-09-27","catastro":"4727304TF6842N0001SI","holder":null,"holder_count":null}},{"type":"Feature","geometry":{"type":"Point","coordinates":[-5.640829,36.857501]},"properties":{"id":"VUT/CA/19611","type":"VUT","group":"Completa","address":"CALLE Salineras Nº 94","postal_code":"11650","places":2,"units":1,"registered":"2024-02-01","catastro":"4625307TF6842N0001FI","holder":null,"holder_count":null}},{"type":"Feature","geometry":{"type":"Point","coordinates":[-5.642957,36.864011]},"properties":{"id":"VUT/CA/21595","type":"VUT","group":"Completa","address":"CALLE Los Alamos Nº 18","postal_code":"11650","places":10,"units":5,"registered":"2024-07-25","catastro":"4532203TF6843S0001WP","holder":null,"holder_count":null}},{"type":"Feature","geometry":{"type":"Point","coordinates":[-5.615036,36.856205]},"properties":{"id":"VUT/CA/25832","type":"VUT","group":"Completa","address":"CAMINO CAMINO DE SERRECÍN S/N Nº S/N Compl.Dom. CAMINO DE SERRECIN FINCA MOLINO EL VADO","postal_code":"11650","places":8,"units":3,"registered":"2026-02-11","catastro":"53041A055000170001FF","holder":"M.PEREA BROKERS S.L.","holder_count":1}}]}