{"type":"FeatureCollection","municipio":{"slug":"zahara-de-la-sierra","name":"Zahara de la Sierra","total":14,"places":82,"source_updated_at":"2026-10-05"},"features":[{"type":"Feature","geometry":{"type":"Point","coordinates":[-5.39264,36.839455]},"properties":{"id":"VUT/CA/06149","type":"VUT","group":"Completa","address":"CALLE FERNANDO HUÉ Nº 4 Plta/Piso B Pta/Letra D, piso B, puerta D","postal_code":"11688","places":6,"units":3,"registered":"2018-10-17","catastro":"6800605TF8860B0002HF","holder":null,"holder_count":null}},{"type":"Feature","geometry":{"type":"Point","coordinates":[-5.39059,36.840342]},"properties":{"id":"VUT/CA/07536","type":"VUT","group":"Completa","address":"CALLE PLAZA DEL REY Nº 2","postal_code":"11688","places":12,"units":6,"registered":"2019-05-02","catastro":"6900530TF8860B0001OD","holder":"GOGL DESSUR SL","holder_count":1}},{"type":"Feature","geometry":{"type":"Point","coordinates":[-5.394862,36.844478]},"properties":{"id":"VUT/CA/08477","type":"VUT","group":"Completa","address":"CAMINO de Algodonales Nº 28","postal_code":"11688","places":6,"units":3,"registered":"2019-08-01","catastro":"6505701TF8860N0006FA","holder":null,"holder_count":null}},{"type":"Feature","geometry":{"type":"Point","coordinates":[-5.393673,36.843567]},"properties":{"id":"VUT/CA/12820","type":"VUT","group":"Completa","address":"CALLE PINTOR J.JIMÉNEZ Nº 12","postal_code":"11688","places":4,"units":2,"registered":"2021-09-30","catastro":"6603517TF8860D0001II","holder":null,"holder_count":null}},{"type":"Feature","geometry":{"type":"Point","coordinates":[-5.393885,36.843432]},"properties":{"id":"VUT/CA/15683","type":"VUT","group":"Completa","address":"CALLE PINTOR J. JIMENEZ Nº 4","postal_code":"11688","places":5,"units":2,"registered":"2022-10-06","catastro":"6603513TF8860D0001KI","holder":null,"holder_count":null}},{"type":"Feature","geometry":{"type":"Point","coordinates":[-5.388948,36.841156]},"properties":{"id":"VUT/CA/16528","type":"VUT","group":"Completa","address":"CALLE OLVERA Nº 40 Pta/Letra 11, puerta 11","postal_code":"11688","places":5,"units":2,"registered":"2023-02-24","catastro":"7001602TF8870A0002WO","holder":null,"holder_count":null}},{"type":"Feature","geometry":{"type":"Point","coordinates":[-5.392948,36.839219]},"properties":{"id":"VUT/CA/18191","type":"VUT","group":"Completa","address":"CALLE BARRERO Nº 2 Plta/Piso -1 Pta/Letra 1, piso -1, puerta 1","postal_code":"11688","places":4,"units":1,"registered":"2023-06-30","catastro":"6799207TF8869H0002KF","holder":null,"holder_count":null}},{"type":"Feature","geometry":{"type":"Point","coordinates":[-5.391684,36.840479]},"properties":{"id":"VUT/CA/19156","type":"VUT","group":"Completa","address":"CALLE MANCHEGA Nº 20","postal_code":"11688","places":6,"units":3,"registered":"2023-11-23","catastro":"6800204TF8860B0003GG","holder":null,"holder_count":null}},{"type":"Feature","geometry":{"type":"Point","coordinates":[-5.389426,36.841527]},"properties":{"id":"VUT/CA/19313","type":"VUT","group":"Completa","address":"AVENIDA Piscina De La Nº 19 Esc. T","postal_code":"11688","places":5,"units":3,"registered":"2023-12-26","catastro":"7102607TF8870A0001BI","holder":null,"holder_count":null}},{"type":"Feature","geometry":{"type":"Point","coordinates":[-5.40971,36.855631]},"properties":{"id":"VUT/CA/24429","type":"VUT","group":"Completa","address":"PARAJE BOCALEONES Nº 23","postal_code":"11688","places":9,"units":4,"registered":"2025-06-03","catastro":"11042A005000080000RO","holder":"ESCORPRO SL","holder_count":1}},{"type":"Feature","geometry":{"type":"Point","coordinates":[-5.390487,36.84118]},"properties":{"id":"VUT/CA/24638","type":"VUT","group":"Completa","address":"CALLE OLVERA Nº 30","postal_code":"11688","places":6,"units":3,"registered":"2025-06-18","catastro":"7001812TF8870A0001EI","holder":null,"holder_count":null}},{"type":"Feature","geometry":{"type":"Point","coordinates":[-5.390446,36.840424]},"properties":{"id":"VUT/CA/24751","type":"VUT","group":"Por habitaciones","address":"PLAZA DEL REY Nº 4 Esc. 1 Plta/Piso 1 Pta/Letra 2, piso 1, puerta 2","postal_code":"11688","places":4,"units":2,"registered":"2025-06-26","catastro":"6900532TF8860B0002TF","holder":null,"holder_count":null}},{"type":"Feature","geometry":{"type":"Point","coordinates":[-5.392416,36.840277]},"properties":{"id":"VUT/CA/25294","type":"VUT","group":"Completa","address":"CALLE INFANTA CRISTINA Nº 2","postal_code":"11688","places":4,"units":2,"registered":"2025-10-01","catastro":"6800105TF8860B0001KD","holder":null,"holder_count":null}},{"type":"Feature","geometry":{"type":"Point","coordinates":[-5.39119,36.83801]},"properties":{"id":"VUT/CA/25392","type":"VUT","group":"Completa","address":"CALLE NUEVA Nº 22","postal_code":"11688","places":6,"units":2,"registered":"2025-10-26","catastro":"6998721TF8869H0001LD","holder":null,"holder_count":null}}]}